Origin Time       2016/04/11 11:00:05.000
Lat.              36.103
Long.             139.664
Depth. (km)       90
Mag.              4.8
Station Code      DXXZQBST
Station Lat.      36.2914
Station Long.     139.3609
Station Height(m) 0
Record Time       2016/04/11 11:00:05.000
Sampling Freq(Hz) 200Hz
Duration Time(s)  0
Dir.              0
Scale Factor      3920(gal)/6170801
Max. Acc. (gal)   0
Last Correction   2016/04/11 11:00:05.000
Memo.   
[...]
23
20
17
16
14
12
10
13
25
41
53
55
43
28
19
12
7
12
33
50
46
33
29
31
34
34
32
33
42
50
44
36
34
34
29
23
22
21
14
7
5
9
18
28
35
42
53
59
55
44
36
33
36
42
47
49
48
41
26
10
-2
-11
-16
-9
12
32
35
33
38
42
39
36
39
41
34
23
13
8
7
8
5
4
11
18
18
14
12
16
24
34
42
47
50
49
43
34
28
21
13
11
24
37
38
33
32
34
37
38
33
31
39
48
49
47
47
47
42
31
18
7
3
8
22
32
29
23
26
37
52
58
49
39
40
44
42
36
33
27
15
10
21
31
20
5
1
6
11
18
29
37
39
37
34
38
51
60
56
47
42
39
31
20
9
-3
-15
-20
-11
5
17
27
36
39
35
27
21
17
16
17
19
22
26
27
23
20
24
30
30
27
26
31
46
54
40
20
10
8
4
4
10
20
29
37
45
51
51
44
30
19
17
17
14
15
22
28
25
24
34
44
40
28
15
8
9
15
23
32
45
55
58
51
34
13
-6
-16
-12
-1
9
20
31
37
34
27
22
23
30
35
31
26
30
36
37
29
16
9
15
22
19
15
21
31
33
30
26
20
11
2
-5
-5
6
22
37
43
36
27
28
31
25
19
21
25
25
17
3
-3
11
31
43
47
49
51
52
54
54
49
34
19
12
13
18
23
24
23
25
25
22
20
22
24
20
19
28
37
36
28
24
27
37
48
50
45
33
18
4
-4
-2
7
17
28
41
53
62
66
64
56
46
39
41
44
46
53
71
95
115
127
123
113
100
80
46
6
-30
-59
-78
-81
-66
-43
-24
-15
-18
-23
-23
-18
-11
-3
6
20
43
70
93
107
113
116
123
140
167
193
199
167
81
-43
-180
-289
-336
-347
-353
-361
-366
-356
-317
-245
-145
-40
44
110
166
227
304
388
459
486
445
363
292
326
531
802
1005
1052
884
516
5
-503
-872
-1079
-1145
-1144
-1143
-1112
-1010
-833
-599
-373
-222
-174
-232
-328
-397
-440
-458
-395
-188
174
671
1211
1677
1920
1818
1385
710
34
-403
-501
-252
136
426
481
234
-186
-600
-829
-737
-363
184
679
914
867
585
211
-92
-174
74
617
1351
2048
2484
2560
2254
1701
1057
416
-152
-609
-921
-1051
-978
-752
-464
-274
-321
-568
-933
-1328
-1675
-1962
-2177
-2263
-2157
-1819
-1234
-465
374
1049
1349
1289
939
357
-347
-834
-786
-201
794
1849
2602
2847
2463
1525
220
-996
-1677
-1657
-956
-48
564
703
356
-159
-513
-659
-634
-509
-367
-305
-393
-582
-791
-909
-866
-763
-717
-730
-773
-833
-916
-1094
-1405
-1664
-1668
-1365
-771
-17
721
1228
1342
1172
895
702
741
982
1338
1676
1858
1774
1373
788
193
-271
-505
-540
-447
-327
-280
-385
-673
-1011
-1253
-1363
-1343
-1230
-1076
-959
-946
-1058
-1238
-1153
-514
548
1770
2789
3292
3281
2864
2271
1750
1478
1545
1750
1858
1776
1476
1038
567
175
-57
-149
-165
-202
-364
-735
-1332
-1951
-2364
-2492
-2286
-1681
-647
704
2173
3367
3886
3508
2196
486
-981
-1708
-1388
-345
922
1810
1832
1038
-307
-1632
-2399
-2534
-2145
-1608
-1307
-1370
-1797
-2325
-2664
-2692
-2355
-1705
-849
3
634
898
734
355
40
48
557
1441
2451
3150
3156
2483
1299
-30
-1140
-1863
-2115
-1944
-1462
-893
-454
-203
-145
-228
-390
-575
-728
-784
-713
-634
-679
-894
-1226
-1322
-848
153
1475
2656
3261
3222
2586
1484
140
-958
-1323
-749
743
2489
3758
4169
3539
2120
302
-1411
-2544
-2852
-2272
-1243
-250
535
1019
1116
786
170
-522
-1002
-1054
-831
-531
-155
300
663
752
539
81
-382
-617
-605
-405
-189
-117
-204
-416
-661
-846
-922
-872
-765
-675
-621
-589
-501
-282
58
479
888
1200
1383
1422
1288
964
508
1
-438
-713
-855
-918
-910
-832
-694
-534
-507
-724
-1028
-1222
-1240
-1066
-758
-362
209
1012
1863
2541
2940
3029
2968
2928
2922
2903
2739
2319
1696
983
348
-77
-361
-614
-920
-1330
-1791
-2224
-2549
-2712
-2766
-2803
-2943
-3264
-3624
-3827
-3667
-2989
-1858
-435
940
1934
2412
2352
1974
1529
1141
882
721
613
548
519
503
469
390
253
106
-13
-161
-399
-718
-1066
-1302
-1295
-1047
-618
-167
139
202
-22
-439
-904
-1208
-1173
-821
-243
383
882
1171
1221
1140
1054
1041
1142
1293
1411
1442
1346
1109
747
374
131
158
514
927
1108
1008
666
217
-220
-666
-1127
-1397
-1297
-950
-550
-270
-240
-450
-844
-1338
-1823
-2133
-2120
-1761
-1111
-403
128
438
556
615
727
800
722
491
153
-162
-318
-214
176
626
879
807
370
-242
-807
-1217
-1402
-1328
-988
-458
150
659
910
874
578
133
-344
-806
-1202
-1374
-1203
-829
-429
-71
230
554
953
1272
1356
1278
1169
1170
1347
1452
1235
749
146
-331
-485
-392
-199
-51
-74
-299
-706
-1146
-1466
-1613
-1555
-1246
-648
259
1417
2512
3211
3391
3037
2383
1676
972
292
-303
-737
-905
-734
-307
243
751
1049
992
504
-228
-949
-1395
-1383
-1053
-613
-223
10
138
227
242
126
-156
-606
-1109
-1518
-1659
-1417
-941
-451
-167
-258
-662
-1226
-1630
-1589
-1130
-386
377
915
1204
1284
1231
1120
988
835
570
150
-193
-217
60
518
905
1005
903
749
644
635
588
355
-85
-671
-1152
-1289
-1087
-639
-130
253
400
248
-179
-803
-1415
-1786
-1728
-1148
-301
483
925
838
357
-303
-942
-1383
-1529
-1366
-1124
-1051
-1226
-1629
-2002
-2110
-2041
-1923
-1706
-1320
-768
-110
430
659
659
569
478
475
719
1295
1933
2301
2173
1481
683
264
293
681
1117
1293
1111
576
-104
-684
-941
-744
-289
174
513
651
617
460
208
-105
-373
-487
-381
-55
267
357
189
-185
-596
-844
-735
-163
632
1330
1650
1417
871
337
79
279
841
1580
2221
2532
2539
2311
1819
1056
187
-593
-1138
-1365
-1393
-1375
-1390
-1496
-1732
-2081
-2331
-2271
-1898
-1311
-830
-741
-983
-1368
-1565
-1281
-531
546
1599
2270
2381
1881
1063
275
-255
-379
-163
250
600
641
289
-432
-1231
-1795
-1989
-1776
-1332
-861
-469
-212
-44
71
25
-281
-762
-1260
-1507
-1292
-749
-109
342
376
60
-440
-840
-889
-587
-12
697
1376
1846
1970
1812
1492
1146
885
696
561
559
772
1208
1801
2272
2342
1930
1076
75
-727
-1051
-715
134
1229
2137
2467
2135
1205
26
-1000
-1525
-1337
-698
23
515
577
379
155
4
-37
-59
-159
-350
-601
-804
-878
-930
-1076
-1298
-1537
-1698
-1687
-1452
-1002
-551
-330
-436
-858
-1282
-1378
-1049
-317
554
1248
1474
1057
266
-525
-963
-823
-350
111
307
72
-474
-1137
-1690
-1954
-1958
-1797
-1603
-1483
-1390
-1249
-1023
-700
-320
85
571
1162
1660
1854
1689
1179
454
-305
-813
-804
-193
958
2175
2952
3057
2412
1272
-20
-1103
-1666
-1612
-963
-2
932
1536
1587
1148
365
-556
-1383
-1844
-1731
-1148
-305
468
871
840
407
-249
-889
-1184
-893
-217
539
1091
1228
1018
601
137
-212
-280
21
468
785
809
477
20
-286
-273
163
992
2096
3141
3769
3723
2888
1600
290
-687
-1078
-949
-457
202
823
1194
1145
695
-69
-958
-1755
-2227
-2205
-1787
-1177
-736
-766
-1169
-1740
-2226
-2417
-2318
-2020
-1766
-1776
-2038
-2426
-2602
-2254
-1393
-160
1117
2085
2487
2185
1433
561
-196
-662
-799
-631
-308
2
180
168
101
127
234
390
624
963
1364
1743
1924
1749
1217
403
-483
-1195
-1469
-1108
-194
1032
1984
2139
1565
505
-705
-1738
-2401
-2576
-2326
-1794
-1255
-949
-833
-794
-725
-547
-309
-64
237
643
1104
1528
1736
1580
1111
445
-223
-702
-894
-760
-395
67
482
718
712
442
-13
-526
-875
-886
-684
-456
-342
-414
-529
-494
-148
599
1570
2498
3019
2866
2269
1545
879
396
122
40
74
148
247
349
344
123
-331
-986
-1718
-2362
-2689
-2521
-1948
-1151
-398
64
155
-108
-491
-743
-779
-579
-234
138
404
480
473
511
627
801
920
874
658
307
-96
-434
-502
-162
357
763
876
594
28
-642
-1160
-1299
-1037
-435
301
959
1433
1662
1653
1421
934
191
-653
-1390
-1745
-1538
-1033
-561
-276
-247
-381
-552
-664
-646
-477
-180
94
207
193
130
89
145
390
865
1399
1784
1892
1669
1286
923
564
168
-224
-545
-717
-693
-557
-410
-306
-278
-345
-492
-583
-494
-258
44
299
399
281
-71
-546
-975
-1073
-640
74
718
980
677
94
-415
-695
-683
-495
-291
-229
-436
-911
-1589
-2265
-2739
-2968
-2950
-2716
-2306
-1787
-1243
-820
-649
-737
-1010
-1206
-1050
-440
617
1818
2813
3330
3214
2683
2046
1592
1537
1822
2304
2769
3004
2885
2361
1583
774
232
182
497
944
1220
1083
592
-104
-797
-1285
-1428
-1171
-714
-310
-167
-407
-858
-1308
-1676
-1915
-1991
-1888
-1643
-1335
-1136
-1192
-1434
-1731
-1907
-1808
-1433
-848
-259
115
161
-148
-587
-897
-933
-618
-27
706
1356
1713
1709
1341
741
71
-511
-861
-902
-623
-219
91
187
33
-166
-172
157
866
1704
2360
2590
2249
1547
770
186
-4
182
648
1205
1666
1915
1891
1675
1369
1004
599
176
-239
-598
-853
-974
-960
-920
-950
-994
-964
-805
-507
-204
-34
-8
-110
-345
-691
-993
-1086
-900
-453
-6
170
17
-434
-1002
-1494
-1819
-1922
-1803
-1494
-1100
-723
-370
-45
147
108
-150
-540
-792
-644
-59
904
2009
2988
3618
3735
3348
2553
1606
769
185
-80
-146
-150
-127
-80
-5
85
75
-131
-479
-883
-1288
-1629
-1787
-1654
-1244
-638
-100
117
-40
-551
-1310
-2158
-2798
-2951
-2568
-1703
-614
419
1235
1709
1734
1278
596
11
-163
276
1091
1939
2514
2570
2080
1119
-53
-1128
-1794
-1827
-1360
-610
216
919
1308
1242
769
24
-691
-1095
-1161
-948
-612
-323
-217
-375
-688
-991
-1097
-864
-366
261
844
1229
1362
1233
889
416
-14
-237
-205
78
526
1025
1436
1641
1642
1479
1214
917
649
465
390
416
425
309
99
-133
-318
-408
-450
-500
-549
-565
-479
-251
15
207
308
299
48
-545
-1344
-2149
-2749
-2962
-2736
-2082
-1127
-60
819
1246
1211
799
234
-256
-548
-567
-331
107
641
1130
1352
1143
660
125
-300
-494
-460
-248
31
249
281
51
-345
-755
-999
-942
-662
-289
71
325
421
320
6
-506
-1082
-1581
-1966
-2212
-2261
-2066
-1664
-1117
-505
105
729
1375
1951
2340
2424
2148
1701
1284
891
492
153
-50
-105
-51
-56
-271
-646
-1065
-1381
-1478
-1414
-1283
-1151
-1055
-929
-699
-350
101
569
952
1163
1162
1084
1070
1096
1100
1025
852
701
695
826
1042
1235
1286
1065
488
-342
-1236
-1866
-1951
-1549
-851
-256
-104
-318
-712
-1107
-1358
-1472
-1502
-1548
-1658
-1641
-1306
-705
30
685
1066
1157
998
674
272
-172
-636
-1097
-1520
-1809
-1867
-1633
-1085
-316
556
1413
2166
2828
3402
3744
3711
3304
2586
1729
921
335
85
71
130
52
-305
-774
-1150
-1381
-1467
-1479
-1465
-1320
-954
-494
-87
264
596
971
1418
1816
2034
2063
1930
1694
1400
1029
552
-17
-630
-1148
-1432
-1453
-1251
-1038
-1018
-1222
-1578
-1797
-1633
-1242
-870
-722
-913
-1239
-1431
-1280
-659
290
1326
2065
2189
1776
1053
448
303
414
472
275
-256
-806
-1026
-815
-202
498
960
1094
900
516
101
-245
-465
-626
-802
-963
-1026
-789
-120
692
1276
1334
696
-372
-1510
-2432
-2909
-2881
-2381
-1636
-892
-263
185
446
533
471
332
358
754
1420
2171
2805
3148
3169
2877
2322
1568
722
-109
-860
-1468
-1852
-1950
-1813
-1531
-1228
-998
-765
-453
-136
70
30
-321
-754
-998
-873
-299
529
1342
1854
1859
1478
913
366
-6
-239
-412
-583
-781
-924
-930
-832
-693
-583
-558
-598
-664
-704
-687
-667
-721
-904
-1202
-1332
-1035
-421
286
754
726
330
-198
-602
-672
-420
79
697
1290
1689
1770
1606
1317
1007
758
601
563
731
1146
1625
1946
1949
1551
900
196
-369
-661
-764
-811
-926
-1197
-1569
-1932
-2101
-1924
-1442
-748
53
843
1436
1650
1378
611
-336
-1115
-1561
-1611
-1418
-1163
-940
-810
-804
-921
-1058
-1117
-1107
-1058
-963
-818
-651
-511
-499
-667
-836
-797
-466
162
921
1604
2041
2116
1907
1549
1208
1009
868
642
145
-715
-1617
-2190
-2286
-1877
-1193
-484
190
790
1162
1173
890
453
110
72
307
723
1251
1804
2202
2273
1962
1290
476
-241
-749
-987
-996
-866
-782
-914
-1266
-1735
-1970
-1662
-918
42
957
1602
1928
1934
1646
1137
645
400
438
708
1023
1188
1125
796
221
-541
-1313
-1938
-2446
-2890
-3228
-3373
-3171
-2539
-1754
-1140
-844
-908
-1110
-1230
-1288
-1359
-1482
-1642
-1663
-1360
-681
343
1501
2528
3126
3064
2397
1306
202
-518
-721
-417
79
399
248
-559
-1877
-3448
-4920
-5952
-6362
-6076
-5281
-4233
-3195
-2417
-2074
-2255
-2774
-3370
-3752
-3678
-3121
-2152
-1010
30
701
807
437
-201
-672
-569
189
1504
2875
3750
3776
2775
1075
-874
-2635
-3861
-4529
-4727
-4681
-4594
-4457
-4239
-4031
-3939
-4013
-4250
-4481
-4520
-4294
-3775
-3019
-2125
-1273
-590
84
958
2136
3612
5053
6112
6717
6948
7206
7882
9005
10435
11726
12437
12457
11811
10762
9615
8628
7962
7458
6921
6342
5774
5354
5203
5290
5577
6144
7051
8137
9198
10067
10604
10752
10501
9959
9274
8649
8261
8137
8255
8544
8920
9282
9532
9606
9474
9221
8947
8704
8495
8167
7543
6496
4935
2865
328
-2580
-5760
-9143
-12629
-15944
-18829
-21257
-23288
-25087
-26791
-28307
-29464
-30024
-29748
-28480
-26105
-22589
-17983
-12578
-6772
-1145
3750
7641
10387
12097
12929
12987
12325
10864
8556
5634
2411
-732
-3487
-5900
-8094
-10151
-12125
-13986
-15649
-16887
-17462
-17229
-16129
-14349
-12110
-9506
-6618
-3593
-615
2051
4190
5868
7165
7933
8020
7487
6492
5382
4507
4035
4044
4426
5006
5529
5802
5939
6154
6748
7988
9915
12459
15330
18157
20466
21849
22255
21762
20605
19004
16950
14403
11412
8027
4204
-42
-4379
-8360
-11397
-13003
-13229
-12329
-10818
-9236
-7946
-7217
-7119
-7599
-8332
-8953
-9218
-9011
-8604
-8348
-8512
-9250
-10340
-11416
-11904
-11338
-9888
-7919
-5950
-4483
-3792
-3988
-4757
-5636
-6004
-5357
-3823
-1714
565
2655
4459
5968
7236
8341
9396
10495
11614
12652
13293
13246
12522
11239
9652
8022
6522
5255
4157
3136
2172
1250
311
-749
-2179
-4133
-6238
-8038
-9272
-9842
-10102
-10415
-10723
-10842
-10511
-9523
-7950
-5956
-3788
-1685
215
1868
3504
5350
7342
9320
11024
12184
12594
12133
10951
9271
7332
5406
3859
3005
2839
3200
3634
3648
2894
1156
-1401
-4483
-7661
-10519
-12812
-14400
-15374
-15878
-16056
-16013
-15723
-15153
-14381
-13472
-12319
-10784
-8761
-6228
-3458
-787
1490
3154
4255
4911
5244
5328
5031
4238
3085
1801
716
97
-128
-133
-155
-387
-784
-1235
-1613
-1781
-1583
-919
82
1244
2438
3593
4805
6154
7481
8568
9215
9275
8821
8028
7253
6851
6984
7697
8765
9903
10875
11447
11360
10394
8505
5765
2521
-821
-3900
-6419
-8288
-9487
-10055
-10076
-9745
-9277
-8841
-8574
-8534
-8695
-8776
-8428
-7276
-5056
-1966
1646
5267
8353
10380
10937
10035
7892
5134
2437
260
-1067
-1507
-1138
-197
1064
2495
3992
5552
7186
8860
10501
11929
12920
13189
12446
10451
7062
2473
-2922
-8269
-12728
-15955
-17820
-18536
-18373
-17481
-15945
-13720
-10803
-7499
-4198
-1319
813
2259
3196
3840
4377
4822
5132
5208
5000
4700
4549
4718
5305
6159
7052
7709
7899
7627
7016
6415
6140
6127
6192
6038
5414
4349
2963
1445
-67
-1717
-3706
-6178
-9144
-12144
-14622
-16116
-16329
-15546
-14203
-12769
-11621
-10748
-10029
-9284
-8352
-7180
-5769
-4211
-2604
-990
578
1926
2856
3197
2867
2122
1320
892
1164
1976
3032
4001
4624
4992
5302
5824
6763
7976
9203
10049
10176
9591
8405
6789
4928
2995
1175
-290
-1192
-1527
-1333
-625
560
2065
3682
5120
6143
6819
7272
7542
7654
7660
7614
7574
7533
7259
6528
5407
4016
2400
632
-1033
-2283
-2770
-2258
-1001
604
2059
2891
2828
1771
119
-1596
-2805
-3091
-2686
-1984
-1371
-1179
-1522
-2456
-4023
-6179
-8547
-10697
-12328
-13227
-13406
-12984
-12266
-11588
-11217
-11341
-11898
-12807
-14148
-15953
-17897
-19559
-20494
-20332
-19025
-16642
-13402
-9589
-5576
-1730
1721
4619
6955
8741
9935
10520
10632
10453
10199
10032
9879
9614
9136
8365
7277
5877
4210
2357
480
-1255
-2762
-3946
-4600
-4555
-3877
-2712
-1262
303
2021
3940
5953
7887
9477
10453
10645
9967
8589
6794
5054
3871
3663
4680
6570
8807
10766
11861
11766
10353
8037
5360
2821
801
-767
-2017
-2896
-3324
-3307
-2893
-2217
-1435
-710
-225
-226
-876
-1946
-3108
-4043
-4511
-4594
-4451
-4222
-4041
-4035
-4287
-4730
-5247
-5664
-5843
-5825
-5699
-5562
-5510
-5616
-5925
-6401
-6970
-7515
-7912
-8077
-7907
-7186
-5786
-4021
-2312
-1052
-529
-626
-1149
-2007
-3067
-3934
-4222
-3861
-2917
-1695
-498
606
1612
2533
3396
4275
5266
6514
8132
10042
12108
14138
15937
17371
18355
18955
19269
19376
19291
18800
17690
15969
13727
11151
8467
5936
3830
2419
1842
1729
1631
1283
524
-577
-1931
-3595
-5594
-7687
-9565
-10910
-11467
-11228
-10279
-8821
-7077
-5248
-3507
-1948
-673
88
130
-518
-1729
-3222
-4695
-5937
-6785
-7177
-7137
-6924
-6826
-7003
-7550
-8423
-9550
-10909
-12459
-14028
-15407
-16351
-16637
-16155
-14863
-12860
-10344
-7742
-5483
-3758
-2637
-1939
-1451
-1087
-801
-585
-423
-230
95
651
1517
2703
4143
5543
6590
7143
7109
6419
5066
3273
1373
-109
-694
-273
1121
3279
5928
8720
11308
13400
14785
15506
15698
15581
15388
15292
15402
15613
15746
15552
14849
13800
12667
11762
11312
11144
10967
10408
9152
7195
4654
1823
-991
-3618
-5944
-7939
-9618
-11103
-12498
-13729
-14650
-14999
-14526
-13176
-10981
-8158
-4996
-1904
721
2645
3742
4157
4082
3608
2811
1799
669
-569
-1901
-3225
-4412
-5325
-5888
-6278
-6708
-7272
-8013
-8891
-9833
-10700
-11335
-11563
-11256
-10483
-9390
-8226
-7227
-6478
-6001
-5732
-5556
-5259
-4681
-3967
-3351
-3095
-3407
-4248
-5476
-6773
-7802
-8319
-8156
-7373
-6093
-4477
-2686
-826
1006
2706
4160
5244
5882
6227
6495
6948
7795
8987
10372
11617
12411
12693
12513
12113
11750
11549
11547
11556
11370
10951
10337
9693
9185
8860
8711
8631
8468
7983
6956
5358
3230
732
-1950
-4629
-7113
-9176
-10628
-11461
-11737
-11607
-11213
-10556
-9603
-8318
-6693
-4807
-2772
-717
1225
2934
4313
5344
6022
6292
6125
5621
4929
4227
3655
3152
2613
1941
1073
51
-1049
-2132
-3108
-3942
-4629
-5240
-5849
-6456
-7016
-7353
-7321
-7019
-6605
-6224
-5952
-5596
-4927
-3819
-2239
-392
1458
3060
4202
4817
4913
4649
4193
3586
2820
1813
483
-1187
-3156
-5232
-7185
-8782
-9832
-10293
-10179
-9555
-8514
-7203
-5774
-4356
-3050
-1874
-796
323
1617
3078
4643
6161
7450
8273
8442
8003
7089
5957
4827
3670
2397
925
-759
-2414
-3747
-4518
