Origin Time       2016/04/11 11:00:05.000
Lat.              36.103
Long.             139.664
Depth. (km)       90
Mag.              4.8
Station Code      DXXZQBST
Station Lat.      36.2914
Station Long.     139.3609
Station Height(m) 0
Record Time       2016/04/11 11:00:05.000
Sampling Freq(Hz) 200Hz
Duration Time(s)  0
Dir.              0
Scale Factor      3920(gal)/6170801
Max. Acc. (gal)   0
Last Correction   2016/04/11 11:00:05.000
Memo.   
[...]
4
8
14
17
15
11
10
9
4
2
9
18
19
19
23
21
5
-9
-6
5
12
13
9
12
29
42
32
11
-5
-13
-15
-16
-19
-17
-3
15
27
32
31
26
18
8
-5
-13
-11
-1
12
17
9
-4
-9
-6
3
9
6
0
-2
1
3
5
6
1
-8
-7
16
41
46
35
21
7
-3
-11
-19
-16
4
23
21
11
7
9
14
14
6
-5
-15
-19
-16
-11
-7
-3
4
11
13
7
-8
-16
-5
5
-3
-16
-17
-10
-5
-1
2
6
12
12
5
0
4
10
7
5
13
19
11
-4
-15
-22
-29
-30
-20
-8
0
5
10
18
27
31
23
16
19
23
14
-2
-17
-23
-17
-5
6
10
3
-4
-1
9
17
15
0
-10
0
12
6
-6
-10
-8
-7
-5
0
7
15
20
17
14
16
19
15
3
-12
-20
-12
2
10
9
1
-7
-9
-8
-9
-12
-18
-19
-7
8
17
20
19
9
-13
-27
-17
1
7
5
5
6
10
11
6
1
3
7
10
12
16
19
20
22
25
19
-6
-31
-37
-27
-10
6
13
12
8
1
-6
-7
0
6
2
-6
-8
-2
9
15
7
-7
-18
-18
-8
3
3
0
2
8
15
20
19
18
20
19
10
2
0
-1
-10
-22
-33
-37
-32
-23
-12
-1
12
17
10
4
10
21
26
20
2
-18
-27
-25
-13
-5
-13
-20
-12
2
11
9
0
-8
-5
-4
-14
-25
-22
-10
2
5
-6
-14
-7
6
13
14
11
11
17
24
27
23
14
7
9
9
1
-8
-6
-2
-8
-19
-26
-20
4
23
15
-5
-14
-14
-8
-4
-9
-16
-16
-6
14
30
28
13
-3
-13
-9
1
11
17
16
13
10
10
15
15
3
-15
-26
-31
-30
-21
-2
15
23
23
20
20
25
27
18
9
9
11
8
4
6
12
23
33
43
48
46
40
36
33
30
18
-8
-33
-43
-37
-20
-5
-2
-16
-43
-67
-73
-69
-66
-57
-33
1
38
58
46
8
-42
-84
-98
-73
-6
76
143
169
135
49
-69
-165
-193
-144
-34
74
117
95
22
-71
-155
-200
-187
-117
-1
142
285
371
350
211
-33
-323
-572
-627
-365
139
734
1169
1224
910
320
-352
-897
-1131
-944
-486
42
510
811
849
585
182
-178
-445
-607
-691
-729
-740
-736
-722
-685
-562
-296
82
481
677
462
-161
-1059
-1793
-1945
-1486
-542
529
1333
1558
1034
74
-896
-1489
-1424
-800
149
1030
1473
1373
745
-186
-1126
-1731
-1718
-1120
-115
849
1353
1368
1007
565
328
368
647
911
928
757
528
369
378
567
894
1212
1364
1264
896
447
147
191
651
1136
1236
938
363
-222
-572
-683
-605
-356
17
326
409
354
300
349
554
804
940
778
236
-321
-522
-401
-90
309
664
700
213
-580
-1373
-1925
-2065
-1829
-1351
-949
-896
-1108
-1394
-1493
-1204
-634
9
417
341
-134
-807
-1344
-1443
-1051
-233
719
1470
1734
1342
556
-266
-810
-842
-394
400
1254
1872
2049
1667
844
-198
-1063
-1397
-1179
-526
251
845
1158
1158
873
345
-396
-1247
-1818
-1753
-1126
-182
569
670
118
-903
-1925
-2468
-2286
-1330
-108
803
1108
683
-177
-1075
-1616
-1515
-911
-52
818
1486
1866
1938
1829
1681
1546
1438
1314
1129
898
662
509
499
543
561
674
990
1377
1635
1532
926
71
-718
-1259
-1440
-1296
-894
-289
435
1037
1248
816
-353
-1757
-2804
-3143
-2622
-1672
-807
-314
-354
-810
-1480
-2095
-2392
-2184
-1395
-294
752
1335
1175
548
-142
-551
-431
129
947
1788
2422
2675
2470
2053
1707
1551
1612
1719
1706
1626
1577
1597
1657
1515
960
124
-760
-1419
-1645
-1549
-1270
-753
27
775
1179
1172
784
168
-496
-1047
-1378
-1587
-1777
-1870
-1752
-1356
-706
-135
12
-340
-1121
-1975
-2551
-2813
-2790
-2452
-1783
-876
73
577
278
-383
-866
-1022
-839
-459
-36
373
746
1098
1430
1652
1701
1719
1819
1789
1407
725
-98
-772
-1037
-904
-463
155
785
1161
1067
593
-67
-600
-732
-455
140
839
1443
1950
2393
2739
2939
2942
2703
2203
1453
571
-293
-969
-1333
-1462
-1494
-1582
-1830
-2125
-2309
-2262
-1943
-1607
-1489
-1452
-1297
-959
-467
-107
-132
-415
-722
-770
-370
250
795
1114
1126
893
519
127
-147
-124
307
947
1528
1813
1650
1175
596
116
-116
-177
-173
-119
-16
91
162
212
265
311
324
228
-31
-361
-654
-870
-985
-978
-846
-646
-457
-383
-490
-666
-763
-668
-342
2
155
189
220
271
348
475
674
926
1154
1092
528
-326
-1133
-1457
-993
-31
999
1714
1837
1481
851
145
-452
-801
-802
-464
107
536
494
112
-363
-666
-606
-309
25
229
184
-69
-456
-923
-1399
-1707
-1676
-1267
-525
296
922
1219
1126
735
169
-463
-1035
-1332
-1188
-744
-219
137
141
-79
-306
-264
205
735
932
811
530
393
652
1177
1756
2205
2360
2090
1354
426
-345
-627
-219
573
1332
1710
1491
915
276
-385
-1057
-1595
-1830
-1641
-1008
-283
179
363
355
310
357
458
523
425
81
-384
-822
-1202
-1535
-1904
-2371
-2870
-3281
-3403
-3099
-2555
-1997
-1460
-927
-341
316
878
1181
1258
1211
1228
1457
1799
2107
2267
2199
1928
1520
1106
813
698
758
828
736
428
-77
-587
-901
-945
-699
-243
286
642
613
247
-307
-752
-819
-508
89
793
1418
1830
1910
1533
651
-468
-1484
-2065
-1968
-1310
-338
513
835
511
-411
-1512
-2301
-2369
-1500
-149
1125
2028
2393
2286
1837
1191
504
-58
-346
-291
113
704
1252
1417
963
181
-543
-969
-977
-786
-652
-645
-758
-867
-854
-742
-594
-508
-561
-733
-945
-972
-622
36
836
1496
1779
1739
1482
1001
318
-346
-726
-588
188
1309
2372
2937
2660
1617
60
-1473
-2430
-2480
-1530
-184
865
1277
903
15
-1020
-1848
-2180
-1961
-1262
-413
230
488
270
-321
-1112
-1835
-2240
-2238
-1846
-1355
-1063
-1024
-1202
-1441
-1572
-1486
-1128
-603
-64
315
395
209
-130
-376
-314
23
526
1023
1351
1444
1285
986
682
502
566
973
1737
2563
3105
3119
2494
1540
645
73
1
373
1026
1614
1815
1602
1058
419
-95
-465
-718
-846
-856
-834
-870
-1001
-1236
-1547
-1870
-2040
-1915
-1548
-1074
-759
-820
-1141
-1508
-1667
-1435
-961
-447
20
417
863
1457
2088
2602
2887
2857
2501
1841
950
-51
-900
-1356
-1381
-1036
-567
-222
-74
-124
-242
-291
-225
-25
305
714
979
891
468
-179
-796
-1114
-946
-240
589
1081
1051
475
-302
-894
-1101
-829
-229
484
1069
1310
1123
510
-291
-1004
-1440
-1468
-1114
-484
163
560
554
69
-778
-1787
-2633
-2979
-2573
-1315
366
1904
2711
2404
1456
494
-78
-19
480
1112
1524
1435
898
90
-635
-948
-805
-286
338
784
947
806
515
276
309
767
1508
2291
2777
2716
2310
1821
1292
718
120
-449
-853
-963
-785
-400
-70
-60
-465
-1275
-2211
-2961
-3343
-3264
-2847
-2265
-1673
-1182
-745
-313
7
106
13
-219
-580
-1021
-1304
-1205
-728
27
809
1373
1652
1641
1408
1023
514
-63
-469
-482
-111
523
1083
1274
1189
1004
841
768
693
535
413
463
705
1109
1564
1945
2155
2097
1643
736
-367
-1338
-1893
-1863
-1509
-1149
-896
-805
-893
-1152
-1512
-1863
-2016
-1829
-1445
-1064
-813
-764
-820
-869
-891
-876
-765
-532
-329
-340
-716
-1491
-2266
-2601
-2298
-1310
56
1392
2245
2276
1660
755
166
370
1090
1902
2545
2830
2697
2153
1351
507
-54
-63
414
1198
1978
2460
2549
2222
1531
599
-226
-632
-654
-423
-99
171
334
365
267
74
-85
-68
213
746
1162
1106
628
-98
-787
-1209
-1472
-1703
-1785
-1612
-1348
-1169
-1004
-788
-701
-934
-1454
-2136
-2714
-2930
-2712
-2088
-1288
-554
39
445
569
367
62
-83
101
658
1217
1423
1381
1288
1253
1323
1383
1311
1099
799
569
550
724
1034
1441
1881
2196
2230
1942
1334
447
-604
-1478
-1869
-1860
-1651
-1540
-1748
-2111
-2389
-2411
-2093
-1603
-1160
-920
-959
-1089
-1073
-734
-3
792
1298
1446
1267
908
561
471
798
1283
1623
1730
1592
1291
945
738
823
1172
1664
1988
1866
1340
563
-193
-671
-794
-568
-141
308
618
637
230
-631
-1573
-2204
-2468
-2395
-2037
-1481
-937
-595
-425
-360
-377
-439
-379
-82
225
298
142
-158
-462
-627
-540
-152
354
772
1011
1029
846
514
131
-191
-328
-211
-9
82
-10
-290
-610
-787
-658
-123
670
1486
1978
1853
1142
32
-1004
-1525
-1527
-1144
-627
-183
283
871
1407
1668
1501
829
-185
-1307
-2249
-2747
-2686
-2051
-1064
-9
837
1272
1378
1319
1289
1438
1710
1962
1916
1379
632
20
-354
-489
-566
-725
-776
-509
9
598
878
559
-120
-786
-1077
-740
72
1084
1949
2350
2160
1387
381
-451
-809
-534
71
612
787
422
-240
-892
-1390
-1659
-1731
-1667
-1525
-1363
-1242
-1211
-1273
-1401
-1483
-1411
-1169
-785
-360
10
325
586
725
660
342
-210
-731
-953
-854
-505
-107
133
109
-218
-703
-1145
-1292
-963
-312
395
782
586
109
-243
-202
372
1265
2183
2872
3142
3003
2554
2032
1675
1595
1814
2105
2202
1925
1207
366
-251
-549
-530
-304
-10
229
264
-173
-1229
-2458
-3329
-3560
-3050
-2143
-1261
-689
-589
-784
-1035
-1218
-1246
-1078
-683
-10
934
1887
2560
2783
2484
1841
1079
359
-189
-471
-431
-113
366
712
681
403
68
-272
-604
-942
-1279
-1503
-1492
-1181
-576
70
514
778
940
1023
1024
897
623
336
153
-25
-326
-787
-1376
-1903
-2197
-2329
-2402
-2387
-2210
-1735
-883
119
992
1543
1634
1269
546
-195
-617
-617
-185
564
1490
2465
3347
3932
4044
3681
2901
1823
629
-305
-642
-388
316
1144
1768
2032
1864
1345
618
-101
-604
-812
-715
-473
-283
-323
-700
-1261
-1802
-2200
-2369
-2317
-2096
-1838
-1698
-1838
-2313
-2752
-2749
-2184
-1113
-1
696
955
885
679
531
560
804
1051
1079
858
452
89
-14
142
480
846
1071
1019
609
-54
-794
-1327
-1432
-1232
-930
-698
-638
-614
-500
-461
-651
-889
-958
-828
-537
-186
135
451
795
1131
1385
1410
1115
700
405
343
553
904
1235
1435
1422
1187
776
394
234
288
500
834
1224
1472
1405
1084
599
-62
-880
-1597
-1946
-1855
-1362
-739
-295
-245
-680
-1286
-1705
-1806
-1569
-1193
-886
-676
-544
-446
-346
-247
-142
60
441
957
1504
1860
1826
1428
783
145
-231
-237
137
659
1066
1199
950
289
-720
-1733
-2405
-2673
-2545
-2021
-1132
-40
1034
1761
1888
1573
1068
594
329
320
543
839
1035
1036
797
406
8
-177
-14
202
182
88
134
279
410
376
76
-350
-704
-816
-575
-98
471
1113
1776
2157
1977
1312
352
-633
-1398
-1893
-2135
-2207
-2182
-2020
-1687
-1285
-951
-817
-954
-1200
-1358
-1336
-1111
-825
-633
-575
-634
-701
-679
-611
-553
-474
-333
-137
97
371
698
1128
1673
2155
2385
2327
2011
1567
1147
873
842
1051
1425
1694
1618
1271
838
654
938
1304
1325
995
452
-38
-249
-261
-214
-180
-210
-349
-602
-828
-883
-765
-517
-216
51
185
108
-155
-563
-1095
-1719
-2315
-2746
-2887
-2649
-2089
-1335
-661
-281
-22
342
864
1483
1859
1712
1271
860
669
791
1066
1312
1527
1738
1918
2007
1879
1425
673
-288
-1252
-2002
-2372
-2248
-1651
-676
416
1352
1960
2136
1933
1455
861
283
-294
-904
-1512
-2045
-2332
-2267
-2089
-2061
-2198
-2428
-2569
-2430
-1887
-886
420
1781
2784
3059
2592
1541
408
-310
-499
-199
311
738
954
901
614
162
-364
-865
-1244
-1409
-1293
-874
-296
277
759
1076
1107
789
338
7
-72
157
575
1029
1405
1633
1784
1906
1830
1379
586
-427
-1373
-1991
-2271
-2274
-2087
-1791
-1431
-1048
-724
-508
-295
21
402
786
1172
1544
1764
1688
1258
505
-272
-730
-611
187
1227
1989
2128
1471
351
-808
-1708
-2145
-2184
-1965
-1688
-1489
-1196
-635
63
682
968
732
106
-651
-1085
-832
-93
761
1223
895
-41
-1207
-2021
-2024
-1452
-689
-16
378
559
625
545
299
38
-69
37
341
643
749
688
544
404
346
398
563
771
929
921
647
126
-559
-1151
-1431
-1488
-1460
-1378
-1246
-1075
-860
-546
-105
324
604
776
912
1018
1078
1057
944
852
900
1110
1415
1495
1078
348
-405
-909
-954
-569
134
954
1661
1998
1776
1132
297
-445
-833
-761
-211
650
1572
2182
2186
1727
1041
297
-381
-978
-1489
-1818
-1891
-1797
-1674
-1685
-1948
-2363
-2773
-3002
-2899
-2425
-1627
-778
-183
-43
-409
-822
-817
-421
180
655
736
574
384
241
207
440
1052
1882
2687
3182
3138
2604
1735
825
155
-190
-210
-27
208
345
278
72
-186
-483
-819
-1173
-1493
-1608
-1385
-942
-450
-22
250
317
164
-111
-379
-490
-349
-102
76
130
21
-364
-1102
-2067
-3013
-3409
-2835
-1602
-191
966
1546
1622
1340
740
-110
-909
-1326
-1138
-249
1026
2277
3139
3315
2753
1547
126
-1025
-1534
-1178
-218
951
1875
2185
1928
1302
676
384
444
763
1127
1357
1538
1792
2140
2590
3214
4036
4851
5412
5566
5240
4603
3883
3320
3107
3224
3589
4057
4457
4562
4191
3390
2299
1203
369
-138
-300
-67
578
1502
2540
3545
4408
5149
5822
6487
7175
7780
8170
8232
7909
7345
6708
6085
5515
4940
4291
3563
2767
1930
1087
303
-398
-1162
-2168
-3551
-5353
-7279
-8963
-10103
-10508
-10365
-9960
-9596
-9534
-9863
-10575
-11453
-12243
-12727
-12754
-12389
-11768
-11084
-10566
-10507
-11093
-12004
-12837
-13352
-13434
-13311
-13234
-13197
-13176
-13325
-13804
-14617
-15671
-16640
-17164
-16998
-15994
-14295
-12137
-9854
-7735
-5800
-4005
-2320
-716
831
2323
3663
4755
5601
6214
6553
6540
6012
4858
3277
1605
423
213
813
1927
3377
5022
6770
8564
10472
12599
15098
18057
21273
24409
26897
28211
28202
26923
24835
22432
19916
17358
14589
11448
8045
4602
1506
-889
-2531
-3424
-3516
-2850
-1909
-1213
-999
-1330
-1883
-2301
-2505
-2490
-2266
-1872
-1441
-1187
-1541
-2784
-4353
-5530
-5814
-4910
-3132
-963
1050
2379
2651
1636
-469
-3289
-6167
-8445
-9741
-9851
-8993
-7509
-5802
-4210
-2742
-1329
91
1527
2788
3682
4216
4438
4367
4041
3611
3203
2719
1974
636
-1500
-3986
-6240
-7775
-8217
-7530
-5822
-3430
-766
1694
3536
4675
5175
5368
5584
5860
6100
5956
5115
3664
1803
-204
-2097
-3681
-4762
-5058
-4348
-2736
-477
1886
3848
5349
6413
6960
6918
6359
5414
4326
3291
2212
954
-467
-1895
-2768
-2553
-1247
873
2921
4026
3995
2855
853
-1683
-4310
-6572
-8081
-8605
-8487
-8194
-8106
-8420
-8683
-8345
-7106
-4903
-2344
-86
1703
2964
3569
3424
2610
1315
-47
-1057
-1512
-1299
-422
1011
2625
3970
4565
4098
2950
1672
784
661
1113
1849
2712
3609
4562
5576
6484
7110
7416
7390
6982
6166
5031
3725
2519
1607
759
-279
-1454
-2600
-3428
-3696
-3484
-2978
-2453
-2133
-1945
-1768
-1592
-1467
-1590
-2136
-3041
-4129
-5013
-5343
-5133
-4483
-3487
-2207
-575
1393
3197
4285
4354
3210
834
-2667
-6844
-11094
-14525
-16326
-16304
-14548
-11661
-8320
-4968
-1948
586
2566
4076
5246
6243
7175
7894
8174
7733
6350
4091
1213
-1547
-3434
-4083
-3316
-1301
1598
4588
6861
7978
7731
6464
4669
2886
1589
937
953
1439
2135
2747
3101
3526
4410
5872
7835
9695
10793
10779
9505
7333
4739
2159
3
-1398
-1846
-1614
-1052
-344
395
1165
1930
2392
2224
1241
-617
-3057
-5678
-7995
-9577
-10288
-10138
-9408
-8433
-7506
-6864
-6578
-6647
-6942
-7303
-7560
-7557
-7209
-6467
-5372
-4014
-2577
-1270
-278
287
593
798
750
290
-439
-1212
-1755
-1835
-1440
-645
330
1229
1780
1805
1507
1134
728
274
-270
-982
-2059
-3689
-5893
-8559
-11205
-13283
-14357
-14122
-12677
-10251
-7192
-3872
-650
2117
4044
4815
4405
2968
1075
-657
-1828
-2224
-2135
-1923
-1723
-1525
-950
384
2515
5319
8371
11177
13275
14333
14519
14150
13641
13399
13691
14672
16163
17856
19237
19785
19151
17111
13755
9355
4579
144
-3427
-5775
-6978
-7214
-6598
-5234
-3234
-843
1183
2104
1765
272
-1830
-3971
-5916
-7531
-8736
-9465
-9656
-9295
-8570
-7679
-6682
-5645
-4788
-4308
-4140
-4193
-4537
-5280
-6531
-8254
-9841
-10572
-9848
-7262
-3053
2272
7778
12501
15791
17270
17354
16603
15368
13924
12430
10995
9634
8307
6848
5083
2912
310
-2528
-5356
-7942
-10073
-11611
-12500
-12945
-13198
-13455
-13824
-14136
-14108
-13286
-11279
-8109
-4037
126
3573
6054
7511
8114
8073
7560
6719
5645
4409
3050
1652
514
-87
-162
180
731
1307
1925
2647
3532
4605
5769
6916
8016
9055
10017
10876
11561
11973
11936
11268
9850
7642
4870
1808
-1339
-4364
-6989
-8940
-10029
-10179
-9664
-8830
-7957
-7271
-6861
-6717
-6574
-6121
-5109
-3384
-1084
1532
4041
6000
7047
6872
5282
2298
-1314
-4685
-7264
-8716
-9237
-9134
-8616
-7863
-7047
-6277
-5433
-4374
-3130
-1819
-729
-123
24
-141
-266
-29
566
1378
2055
2281
2094
1615
960
189
-837
-2234
-3824
-5356
-6587
-7340
-7690
-7720
-7298
-6302
-4864
-3180
-1433
248
1944
3672
4980
5409
4951
3802
2544
1760
1670
2386
3948
6273
8869
11130
12411
12187
10447
7427
3844
464
-2218
-3901
-4766
-5105
-5159
-5094
-4824
-4237
-3371
-2289
-1011
409
1724
2678
3167
3210
3139
3262
3465
3549
3377
2890
2268
1673
956
-54
-1324
-2724
-3964
-4772
-5122
-5040
-4524
-3565
-2142
-282
1797
3794
5255
5787
5388
4211
2659
1113
-363
-1753
-2903
-3651
-3937
-3775
-3377
-2974
-2681
-2585
-2794
-3374
-4204
-5091
-5751
-5924
-5521
-4551
-3234
-1807
-372
1004
2250
3308
4187
4907
5470
5871
6101
6153
6031
5725
5154
4235
2947
1320
-488
-2284
-3885
-5099
-5696
-5509
-4664
-3354
-1739
0
1561
2690
3448
4025
4830
6191
7911
9634
10889
11295
10947
10091
9119
8358
7742
7046
5831
3700
649
-3088
-6724
-9456
-10966
-11184
-10558
-9611
-8668
-7952
-7506
-7327
-7427
-7769
-8118
-8198
-7765
-6666
-5079
-3259
-1451
124
1334
2112
2591
2950
3367
3939
4434
4543
3978
2574
629
-1427
-3122
-4041
-4048
-3137
-1550
417
2511
4490
6106
7187
7845
8245
8467
8534
8330
7740
6823
5657
4263
2660
917
-840
-2314
-3217
-3490
-3201
-2725
-2447
-2509
-2949
-3634
-4346
-4683
-4283
-3124
-1335
684
2503
3840
4526
4716
4623
4384
4079
3635
2977
2149
1225
267
-672
-1569
-2421
-3264
-4103
-4791
-5179
-5281
-5147
-4819
-4374
-4033
-4001
-4265
-4719
-5080
-5076
-4642
-3828
-2936
-2307
-2185
-2705
-3668
-4763
-5566
-5727
-5322
-4571
-3853
-3494
-3467
-3605
-3541
-2922
-1643
254
2401
4361
5742
6266
6057
5365
4559
3978
3746
3906
4395
5139
6118
7309
8609
9873
10841
11224
10725
9171
6883
4302
1833
-194
-1716
-2703
-3016
-2567
-1607
-461
585
1306
1672
1735
1665
1625
1638
1698
1846
2120
2508
2957
3289
3334
3088
2608
2043
1497
803
-240
-1702
-3541
-5416
-6952
-7920
-8165
-7666
-6505
-5021
-3587
-2452
-1775
-1501
-1516
-1681
-1889
-2185
-2626
-3157
-3718
-4324
-4982
-5573
-5954
-6000
-5661
-5150
-4737
-4643
-4977
-5433
-5646
-5419
-4642
-3388
-1806
-170
1241
2268
2862
3299
3893
4791
6037
7437
8739
9703
10128
9947
9152
7822
6094
4232
2511
1117
169
-388
-696
-1074
-1814
-2922
-4277
-5538
-6365
-6672
-6484
-6048
-5616
-5261
-4973
-4584
-3920
