Origin Time       2016/04/11 11:00:05.000
Lat.              36.103
Long.             139.664
Depth. (km)       90
Mag.              4.8
Station Code      DXXZQBST
Station Lat.      36.2914
Station Long.     139.3609
Station Height(m) 0
Record Time       2016/04/11 11:00:05.000
Sampling Freq(Hz) 200Hz
Duration Time(s)  0
Dir.              0
Scale Factor      3920(gal)/6170801
Max. Acc. (gal)   0
Last Correction   2016/04/11 11:00:05.000
Memo.   
[...]
514
-195
-1037
-1367
-687
627
1944
2484
1675
-53
-1965
-3100
-2750
-1424
64
891
498
-628
-1734
-2034
-997
856
2720
3698
3155
1581
-225
-1366
-1196
-177
953
1482
897
-549
-2347
-3749
-4094
-3328
-1670
163
1429
1785
1128
-74
-1238
-1903
-1734
-790
708
2250
3307
3553
2855
1654
501
-197
-209
135
454
736
1053
1448
1895
2120
1876
1257
481
-76
-108
266
765
890
241
-982
-2377
-3331
-3325
-2424
-887
832
2250
2963
2679
1462
-388
-1993
-2484
-1616
404
2197
2421
1087
-1255
-3252
-3719
-2963
-1683
-651
-439
-737
-1078
-1243
-1138
-928
-788
-685
-547
-357
-100
280
791
1199
1233
719
-337
-1306
-1481
-483
1699
3937
5006
4443
2260
-401
-2266
-2658
-1326
885
2893
3750
2838
701
-1785
-3576
-3852
-2833
-1072
613
1502
1539
862
-269
-1528
-2446
-2587
-1801
-198
1347
1968
1589
463
-634
-1007
-811
-393
-2
195
281
358
365
255
206
406
848
1418
1763
1547
754
-470
-1622
-2191
-1966
-950
331
1294
1671
1375
730
91
-451
-877
-1168
-1303
-1230
-918
-431
137
661
986
852
115
-808
-1389
-1212
-131
1032
1409
908
-222
-1155
-1140
-321
882
1834
2015
1566
796
17
-507
-714
-612
-305
57
224
-13
-583
-1316
-1903
-2051
-1664
-786
168
753
771
203
-493
-852
-853
-630
-492
-660
-829
-663
-252
208
512
565
716
1265
1883
2131
1774
791
-178
-480
-75
835
1696
1983
1650
841
-13
-498
-558
-300
-127
-364
-749
-906
-599
206
879
801
59
-983
-1567
-1085
63
1209
1635
880
-450
-1544
-1846
-1081
155
1128
1410
807
-266
-1263
-1737
-1392
-436
757
1660
1838
1383
564
-138
-300
86
838
1431
1373
630
-591
-1583
-1694
-977
226
1135
1081
291
-766
-1555
-1676
-1335
-844
-305
219
650
875
671
-53
-758
-851
-155
1187
2167
1850
471
-1334
-2498
-2182
-890
563
1453
1295
471
-454
-1043
-997
-430
408
1134
1425
1328
974
457
-152
-839
-1521
-1783
-1306
-473
160
55
-1060
-2423
-3159
-2965
-1849
-480
455
864
840
632
438
91
-575
-1362
-1961
-1988
-1217
-118
703
783
-84
-1236
-1910
-1830
-973
160
1014
1355
1137
734
604
1129
2465
3952
4799
4515
2946
998
-331
-709
-145
682
1083
1022
632
86
-454
-907
-1168
-956
-92
1020
1850
1957
1088
-354
-1802
-2694
-2624
-1796
-602
429
845
629
-44
-692
-842
-385
627
1866
2914
3285
2617
1141
-690
-2096
-2425
-1846
-795
32
68
-498
-1276
-1841
-1852
-1343
-476
441
1091
1275
919
349
-45
-6
553
1178
1349
817
-452
-1905
-2880
-2860
-1587
307
2009
2855
2434
1175
-297
-1414
-1758
-1465
-818
-152
239
287
3
-500
-1096
-1723
-2287
-2505
-2079
-832
1178
3063
3852
3073
715
-1892
-3307
-2998
-981
1434
2846
2795
1308
-563
-1703
-1788
-847
461
1423
1771
1446
805
245
-89
-177
-238
-447
-564
-305
360
1283
1856
1541
570
-583
-1233
-861
186
1330
1938
1579
678
-153
-399
243
1317
2211
2427
1681
401
-857
-1758
-2104
-2014
-1653
-1056
-304
212
95
-760
-2203
-3355
-3363
-2192
-171
1735
2584
2145
551
-1329
-2572
-2770
-1822
-333
992
1770
1784
1158
135
-917
-1601
-1544
-528
1057
2641
3541
3222
1855
-116
-1860
-2595
-2110
-518
1345
2560
2590
1242
-688
-2251
-2876
-2295
-1055
161
948
1061
609
-189
-1023
-1594
-1757
-1458
-864
-197
315
465
147
-653
-1672
-2550
-2821
-2146
-810
705
1744
1802
1150
273
-263
-44
655
1398
1794
1590
1026
450
116
176
461
730
798
567
274
200
491
1174
1938
2403
2263
1366
108
-992
-1448
-980
-75
664
931
646
327
462
839
1068
762
-268
-1422
-2019
-1851
-963
48
569
466
-181
-922
-1262
-905
266
1865
3344
4009
3300
1349
-1361
-3610
-4276
-3338
-1254
695
1320
605
-1029
-2594
-3184
-2796
-1706
-399
669
1363
1606
1218
99
-1426
-2883
-3618
-3134
-1733
64
1685
2652
2913
2542
1685
553
-440
-881
-550
568
1847
2580
2356
1037
-720
-2091
-2366
-1127
982
3015
3882
2776
200
-2902
-5100
-5221
-3597
-1067
1005
1464
511
-1202
-2573
-2675
-1740
-356
639
613
12
-492
-415
468
1535
2073
1854
919
-110
-590
-363
500
1504
2141
2290
1968
1354
689
289
411
1000
1836
2360
2091
1205
84
-715
-796
-574
-582
-1020
-1861
-2507
-2390
-1624
-548
289
439
80
-432
-648
-256
411
905
953
441
-300
-893
-1228
-1280
-1082
-682
-112
550
1048
1123
689
-198
-1095
-1520
-1225
-157
1170
2165
2477
1952
970
-8
-743
-1056
-802
51
1121
1896
1779
437
-1316
-2479
-2443
-988
942
2271
2561
1716
356
-788
-1278
-877
132
1310
2106
2047
1086
-600
-2377
-3523
-3445
-1831
631
2967
4053
3091
734
-1944
-3630
-3328
-1560
722
2347
2403
1247
-428
-1838
-2366
-2161
-1551
-820
-210
175
268
17
-578
-1331
-1987
-2215
-1765
-769
483
1468
1723
1246
226
-843
-1466
-1430
-702
312
1137
1442
1061
338
-286
-479
-52
732
1467
1632
883
-308
-1293
-1550
-793
426
1416
1753
1236
285
-572
-997
-775
3
1083
1882
1830
764
-1167
-2976
-3661
-3009
-1209
723
1757
1633
467
-897
-1585
-1334
-195
1150
1961
1913
944
-384
-1445
-1988
-1926
-1428
-715
39
678
1060
1095
888
592
356
267
153
-152
-535
-797
-684
-53
737
1241
1188
502
-291
-600
-181
950
2084
2438
1624
-379
-2528
-3683
-3387
-1617
599
2117
2358
1163
-531
-1639
-1583
-186
1652
2891
3017
1865
135
-1341
-2076
-1818
-906
196
1121
1576
1496
935
199
-379
-632
-504
-212
10
157
288
499
821
984
744
236
-307
-654
-632
-311
128
307
-84
-875
-1724
-2061
-1463
-319
774
1176
482
-723
-1684
-1944
-1303
-282
510
834
605
-8
-755
-1321
-1408
-855
324
1571
2286
2271
1560
724
346
506
1064
1500
1341
705
-131
-820
-1094
-1066
-929
-806
-797
-970
-1343
-1768
-2016
-1697
-551
1001
2358
2890
2194
809
-535
-1277
-1101
-514
-103
51
29
48
254
356
67
-450
-883
-773
184
1512
2558
2728
1647
-237
-2245
-3571
-3571
-2338
-303
1515
2151
1437
-372
-2128
-2686
-1804
295
2459
3519
3192
1612
-314
-1650
-2152
-1832
-1055
-235
376
614
514
189
-136
-267
-226
-97
-3
-28
-78
-65
-113
-354
-721
-1080
-1235
-1032
-561
42
721
1404
1871
1891
1314
151
-1033
-1619
-1341
-191
1150
1925
1777
621
-927
-2109
-2303
-1152
792
2719
3692
3040
1252
-839
-2211
-2095
-932
534
1542
1539
814
-147
-941
-1266
-1147
-697
-59
597
1011
971
535
-123
-639
-683
-238
553
1237
1380
943
51
-900
-1507
-1612
-1188
-500
126
391
130
-324
-563
-387
231
840
977
634
-36
-676
-977
-1022
-972
-891
-820
-795
-871
-1172
-1752
-2311
-2519
-2287
-1641
-828
-65
784
1831
2758
3167
2785
1565
224
-498
-549
-134
205
-4
-590
-1219
-1523
-1249
-636
-43
185
-154
-685
-930
-569
487
1579
1996
1581
455
-709
-1262
-1203
-739
-246
-41
-20
1
119
369
630
757
673
334
-242
-942
-1353
-1090
-191
1103
2164
2406
1801
561
-703
-1388
-1327
-567
401
1052
1140
582
-349
-1257
-1606
-966
532
2485
3969
4153
3123
1300
-436
-1287
-1208
-451
304
402
-284
-1610
-2866
-3336
-2853
-1516
63
1227
1667
1284
480
-247
-507
-80
691
1342
1483
871
-237
-1446
-2311
-2462
-1907
-809
387
1223
1450
989
226
-383
-572
-235
280
575
514
103
-366
-587
-505
-173
177
307
136
-298
-621
-465
196
1200
1990
2057
1502
618
-118
-337
-272
-253
-393
-660
-663
-110
545
752
314
-711
-1595
-1622
-782
625
1785
1970
1307
189
-800
-1156
-901
-215
625
1357
1880
2114
1888
1108
105
-683
-818
-68
953
1524
1342
365
-835
-1670
-2100
-2230
-2196
-2078
-1709
-970
-165
344
378
-105
-789
-1295
-1355
-837
-59
575
750
298
-446
-1083
-1448
-1449
-1048
-263
725
1648
2068
1644
626
-535
-1151
-716
314
1297
1808
1608
974
274
-275
-538
-546
-395
-281
-361
-546
-673
-531
-19
465
511
150
-425
-827
-754
-449
-236
-217
-373
-428
-149
249
463
275
-405
-1244
-1843
-1958
-1469
-587
388
1128
1383
1242
892
582
524
718
1068
1296
1089
155
-1600
-3516
-4778
-4715
-2998
-510
1622
2521
1734
256
-700
-492
1062
2879
3772
3387
1802
-11
-1066
-1225
-671
-20
149
-163
-757
-1220
-1171
-572
455
1476
2033
1886
984
-179
-1042
-1331
-989
-544
-494
-635
-617
-232
546
1148
1044
444
-229
-469
30
688
837
341
-642
-1336
-1017
217
1951
3342
3644
2930
1569
320
-148
103
765
1280
1177
572
-258
-981
-1350
-1510
-1681
-1984
-2469
-2979
-3319
-3329
-2927
-2292
-1652
-1176
-955
-837
-658
-464
-324
-202
-22
330
908
1492
1876
2197
2608
2978
3069
2471
965
-750
-1836
-1826
-631
691
1000
-19
-2198
-4248
-4855
-3736
-1137
1591
3068
2891
1177
-856
-1956
-1826
-619
664
1041
477
-706
-1701
-1793
-1140
-140
716
1049
1008
877
940
1359
1794
1863
1488
766
163
117
575
1300
1809
1678
939
-181
-1160
-1482
-943
391
1696
2090
1227
-843
-3040
-4212
-3971
-2348
-310
1116
1589
1078
85
-811
-1255
-1042
-346
549
1320
1677
1529
886
-45
-989
-1612
-1653
-1203
-478
178
486
567
632
826
1164
1200
543
-514
-1457
-1567
-379
1382
2758
3080
2038
481
-618
-942
-451
437
1254
1784
1880
1427
388
-977
-2305
-3094
-2923
-1819
-37
1717
2702
2498
1000
-952
-2374
-2656
-1559
42
1120
1145
-44
-1641
-2739
-3022
-2453
-1516
-756
-433
-622
-938
-961
-606
67
742
1093
1001
467
-261
-912
-1363
-1540
-1400
-936
-269
439
998
1237
1126
702
153
-312
-546
-450
-68
476
860
781
196
-786
-1699
-2067
-1709
-642
626
1553
1942
1742
1139
389
-222
-433
-119
699
1546
1921
1670
825
-181
-905
-1273
-1317
-1136
-816
-339
289
832
1030
742
-45
-935
-1468
-1345
-455
713
1543
1505
334
-1264
-2426
-2640
-1679
-98
1403
2342
2408
1767
763
-50
-185
347
1301
2004
1851
960
-321
-1439
-1948
-2044
-2067
-2291
-2844
-3323
-3260
-2433
-847
836
1883
1932
889
-639
-1924
-2441
-1854
-375
1556
3139
3618
2783
754
-1577
-3249
-3766
-2925
-1212
736
2358
3189
3057
1990
494
-817
-1379
-850
272
1334
1895
1712
1142
581
-2
-687
-1321
-1633
-1106
580
2710
4344
4694
3341
1181
-637
-1267
-273
1448
2781
3088
2100
573
-609
-1044
-611
191
832
1295
1655
1851
1771
1234
179
-931
-1581
-1593
-987
-253
124
140
-53
-156
41
247
101
-526
-1584
-2535
-2856
-2594
-1994
-1548
-1617
-1798
-1563
-652
962
2640
3680
3786
2894
1441
-30
-1060
-1367
-1295
-1317
-1815
-2949
-4071
-4439
-3724
-1922
75
1283
1247
-95
-1775
-2703
-2337
-585
1392
2325
1765
-235
-2420
-3497
-3206
-1732
-23
1015
1390
1393
1535
2211
3123
3802
3772
2774
1418
439
206
782
1382
1220
351
-876
-1772
-1770
-1153
-381
191
367
465
812
1267
1543
1244
116
-1424
-2832
-3732
-3867
-3273
-2122
-808
240
686
374
-221
-525
-197
865
2039
2639
2463
1498
5
-1734
-3639
-5585
-7058
-7478
-6365
-3553
-20
3054
4834
4866
3878
2820
2346
2856
4001
5202
5694
4795
2366
-1354
-5146
-7695
-8267
-6638
-4037
-1872
-810
-1039
-1559
-1335
-365
1006
2101
2427
2554
3158
4262
5561
6079
4955
2445
-758
-3332
-4116
-3201
-1155
811
1576
1030
-565
-2453
-3873
-4538
-4355
-3530
-2350
-1129
-177
221
-120
-1022
-2145
-2848
-2612
-1698
-607
-20
-437
-1430
-2390
-2897
-2685
-1920
-822
597
2288
3859
4876
5110
4558
3948
4031
4931
6411
7436
7029
5252
2571
28
-1405
-1630
-842
481
1832
2896
3423
3232
2244
725
-968
-2455
-3413
-3768
-3495
-2514
-881
757
1691
1562
394
-603
-229
1490
4001
5857
5784
4095
1596
-526
-1318
-1151
-701
-538
-1051
-2009
-3077
-4124
-5029
-5501
-5235
-4028
-1912
261
1570
1657
521
-956
-1844
-1907
-1219
-412
-172
-855
-2544
-4568
-6154
-6864
-6550
-5879
-5538
-5481
-5424
-4887
-3540
-1857
-445
367
427
2
-570
-1112
-1522
-1838
-2121
-2378
-2563
-2468
-1883
-754
827
2350
3313
3672
3598
3649
4268
5039
5385
4949
3616
2027
862
202
-105
-533
-1443
-2420
-2884
-2372
-662
1616
3704
5168
5810
6033
6307
6762
7361
7752
7572
6711
5213
3458
1901
961
888
1277
1563
1170
-233
-2009
-3309
-3415
-1948
254
2159
3204
3142
2538
1974
1287
170
-1531
-3751
-5719
-6641
-6340
-4979
-3471
-2728
-2889
-3751
-4500
-4348
-3213
-1360
285
843
301
-999
-2169
-2394
-1711
-434
859
1675
2109
2389
2661
3003
3295
3356
2966
1979
586
-938
-2300
-3280
-3959
-4472
-4868
-5093
-4757
-3555
-1830
-115
967
963
185
-870
-1714
-1986
-1815
-1458
-1187
-1208
-1440
-1687
-1588
-839
464
2053
3373
3912
3624
2712
1921
1932
2631
3605
4022
3188
1372
-808
-2301
-2223
-793
1412
3467
4576
4796
4393
3621
2654
1354
-381
-2191
-3619
-4279
-3969
-3136
-2339
-1937
-2085
-2312
-2054
-989
968
3188
4930
5697
5244
4085
2872
2069
1957
2277
2621
2533
1654
77
-1910
-3676
-4630
-4667
-3944
-3166
-3032
-3652
-4808
-5558
-5032
-3355
-1088
457
135
-1760
-4369
-6004
-5246
-2596
774
2925
2260
-668
-4624
-7789
-8661
-7596
-5465
-3329
-2058
-1544
-1460
-1572
-1701
-1794
-1783
-1416
-475
922
2520
3836
4431
4257
3423
2264
1197
718
1187
2323
3634
4428
4192
3321
2443
2196
2987
4296
5424
5888
5421
4412
3367
2608
2289
2045
1499
721
-107
-792
-1229
-1686
-2413
-3227
-3836
-3949
-3388
-2424
-1409
-576
-120
-228
-976
-2010
-2844
-2902
-1792
40
1898
2911
2409
693
-1634
-3723
-4826
-4847
-3929
-2531
-1148
-113
329
115
-662
-1480
-1741
-994
958
3428
5547
6595
6114
4540
2583
1134
937
1934
3725
5340
5870
5232
3681
2008
945
461
281
-56
-930
-2205
-3565
-4520
-4631
-3838
-2277
-476
1012
1921
2163
2067
2048
2442
3427
4629
5505
5382
3782
1130
-1859
-4199
-5085
-4713
-3557
-2204
-1174
-590
-429
-479
-513
-445
-249
-12
182
361
551
634
469
-68
-1006
-2033
-2836
-3424
-3892
-4344
-4809
-5020
-4759
-4316
-4074
-4300
-5068
-5794
-5877
-5319
-4358
-3602
-3544
-3854
-3994
-3427
-1794
554
3094
5330
6830
7376
6878
5525
3646
1830
606
-17
-215
-384
-830
-1253
-1287
-902
-232
259
172
-284
-768
-1000
-748
66
1447
3258
5246
6840
7527
7332
6517
5737
5587
6027
6756
7036
6208
4349
1834
-499
-1877
-2257
-1858
-1211
-843
-934
-1532
-2492
-3574
-4351
-4438
-3816
-2651
-1491
-843
-683
-829
-1003
-985
-887
-851
-815
-672
-329
251
879
1331
1453
1157
543
-234
-1000
-1594
-1939
-2021
-2008
-2067
-2206
-2351
-2293
-1906
-1543
-1624
-2345
-3658
-4750
-4812
-3835
-2131
-503
338
555
524
626
1127
1848
2508
2867
2761
2294
1635
942
334
-228
-822
-1536
-2402
-3221
-3742
-3745
-3106
-2062
-969
-316
-476
-1240
-2212
-2838
-2676
-1881
-792
123
448
95
-862
-2062
-3077
-3519
-3160
-2388
-1708
-1497
-1956
-2736
-3376
-3535
-2992
-1893
-537
540
891
664
237
306
1417
3180
4940
5893
5469
4153
2713
1961
2467
3777
5212
6210
6415
6178
5959
5949
6191
6412
6324
5908
5269
4741
4636
4967
5574
5932
5550
4454
2889
1462
721
620
892
978
402
-715
-2045
-3046
-3269
-2840
-2058
-1342
-1032
-1047
-1207
-1367
-1432
-1459
-1545
-1783
-2225
-2779
-3298
-3587
-3520
-3321
-3247
-3335
-3512
-3465
-2935
-2097
-1236
-631
-467
-563
-696
-867
-1148
-1688
-2556
-3431
-3927
-3802
-2987
-1972
-1310
-1252
-1825
-2464
-2562
-1957
-720
583
1367
1462
892
42
-687
-1194
-1487
-1717
-2042
-2519
-3121
-3591
-3667
-3290
-2526
-1725
-1258
-1288
-1821
-2419
-2575
-1931
-349
1572
3104
3727
3183
2058
1106
923
1847
3360
4754
5420
4969
3788
2446
1471
1253
1679
2470
3195
3450
3095
2129
844
-373
-1076
-905
65
1564
2963
3668
3582
2837
1955
1441
1332
1517
1766
1855
1688
1233
590
-66
-393
-111
636
1547
2116
1944
1279
543
214
588
1179
1388
937
-201
-1384
-1936
-1725
-890
-97
-7
-715
-2053
-3356
-3970
-3787
-2931
-1907
-1205
-881
-827
-705
-211
590
1477
1996
1738
723
-831
-2365
-3337
-3635
-3296
-2545
-1653
-895
-511
-593
-1131
-1860
-2494
-2907
-3075
-3228
-3610
-4272
-5167
-6039
-6595
-6603
-5916
-4651
-3008
-1240
396
1674
2398
2487
1961
1167
523
423
1113
2277
3441
4061
3760
2912
2057
1663
2018
2780
3470
3699
3208
2151
789
-610
-1792
-2556
-2750
-2345
-1414
-304
605
1081
1040
830
865
1386
2455
3590
4265
4334
3824
3111
2583
2342
2359
2345
2029
1449
750
179
-57
0
250
627
1061
1438
1635
1543
1113
519
-2
-165
227
962
1688
1881
1151
-199
-1655
-2548
-2405
-1706
-1126
-1193
-2176
-3463
-4331
-4494
-3884
-2865
-1862
-1116
-793
-935
-1500
-2211
-2765
-2966
-2728
-2280
-1887
-1646
-1592
-1698
-1890
-1979
-1800
-1405
-926
-613
-626
-650
-339
310
1159
1848
2074
2000
1890
1974
2365
2770
2863
2613
2121
1716
1695
2004
2467
2773
2650
2109
1260
328
-467
-1020
-1298
-1436
-1588
-1808
-2083
-2223
-2018
-1374
-311
805
1588
1905
1778
1578
1667
2000
2400
2542
2165
1406
532
-65
-59
494
1383
2156
2393
2056
1289
597
454
846
1556
2052
1843
942
-441
-1809
-2677
-2902
-2518
-1922
-1549
-1597
-2121
-2839
-3384
-3401
-2657
-1393
-10
933
973
179
-1133
-2220
-2390
-1566
-4
1347
1580
649
-1116
-2730
-3245
-2528
-795
1144
2466
2899
2429
1520
693
221
238
581
1023
1382
1522
1462
1269
1063
944
863
737
485
57
-478
-1047
-1663
-2350
-3075
-3759
-4203
-4205
-3673
-2642
-1533
-805
-682
-1199
-1861
-2090
-1484
104
2002
3411
3857
3178
2140
1574
1654
2248
2650
2223
1176
-44
-879
-931
-552
-223
-189
-529
-882
-858
-389
454
1369
2026
2223
1861
1129
323
-131
85
726
1389
1598
1035
92
-676
-748
177
1574
2740
3100
2328
948
-349
-1081
-974
-391
176
373
19
-522
-802
-603
132
1032
1703
2068
2164
2171
2243
2293
2200
1951
1575
1162
794
470
154
-241
-803
-1567
-2511
-3448
-4139
-4318
-3824
-2962
-2149
-1807
-2233
-3236
-4458
-5355
-5456
-4771
-3535
-2393
-1971
-2398
-3525
-4600
-4876
-4235
-2843
-1388
-549
-455
-998
-1669
-1948
-1657
-794
312
1278
1861
1919
1586
1076
649
530
780
1346
1906
2142
2035
1690
1399
1422
1701
2098
2475
2737
2956
3206
3392
3387
3108
2554
2026
1847
2130
2851
3620
4040
4043
3682
3184
2769
2461
2238
2097
2035
2044
2097
2087
1919
1623
1262
899
583
303
43
-176
-333
-457
-592
-811
-1159
-1546
-1865
-2064
-2115
-2013
-1766
-1407
-978
-535
-143
114
168
22
-300
-753
-1283
-1830
-2329
-2729
-2999
-3164
-3270
-3362
-3456
-3450
-3212
-2611
-1598
-450
489
942
764
292
-49
33
661
1411
