Origin Time       2016/04/11 11:00:05.000
Lat.              36.103
Long.             139.664
Depth. (km)       90
Mag.              4.8
Station Code      DXYXFQST
Station Lat.      36.3062
Station Long.     139.9828
Station Height(m) 0
Record Time       2016/04/11 11:00:05.000
Sampling Freq(Hz) 200Hz
Duration Time(s)  0
Dir.              0
Scale Factor      3920(gal)/6170801
Max. Acc. (gal)   0
Last Correction   2016/04/11 11:00:05.000
Memo.   
[...]
-25
44
-87
-322
-518
-557
-372
-52
267
445
395
265
239
412
775
996
745
27
-974
-1686
-1607
-907
71
958
1430
1362
781
115
-229
-327
-372
-540
-872
-907
-248
718
1476
1770
1455
555
-784
-2103
-2869
-2578
-1043
659
1462
1582
1463
1164
685
158
-280
-618
-863
-978
-907
-578
63
964
1949
2441
1946
682
-960
-2621
-3849
-3788
-1845
1125
3881
5077
3827
1183
-1429
-3017
-2977
-1834
-364
793
1155
760
-73
-397
479
1594
1829
1087
-443
-2445
-4420
-5262
-4060
-1294
2075
4539
4944
4107
3129
2297
1592
589
-1021
-2651
-3571
-3369
-1940
-89
1212
1221
-292
-1751
-1615
-272
1385
2383
2052
1030
151
-256
-89
347
625
239
-1042
-2259
-2446
-1781
-780
-159
-344
-380
636
2023
2797
2352
485
-1780
-3220
-3068
-1016
1838
4079
4436
2196
-1263
-4207
-5572
-4824
-2879
-853
792
1879
2710
3508
3700
2672
436
-2565
-4784
-4818
-2934
58
2833
4219
4186
3058
1423
-158
-1484
-2422
-2731
-2177
-662
1601
3295
3167
1335
-1559
-4122
-5012
-3825
-722
2806
5161
5631
4025
1342
-1217
-2828
-2981
-2057
-691
367
562
250
-40
-6
396
396
-614
-1777
-2091
-1450
-91
1290
2024
2036
1487
900
771
1118
1740
2050
1512
207
-1511
-2813
-2970
-2126
-690
741
1621
1770
1206
360
-315
-700
-816
-923
-1192
-1201
-581
235
728
846
718
717
1126
1600
1634
702
-1364
-3271
-3611
-1969
1440
4888
6539
5634
2143
-2105
-5119
-6104
-4911
-2787
-1032
246
1179
1692
1690
1194
384
-67
407
1449
2457
2766
1886
87
-2119
-4031
-5012
-4883
-3631
-1455
1247
3484
4356
3905
2511
961
-54
-619
-928
-827
-223
395
476
-212
-1572
-2534
-2121
-700
986
2029
1751
561
-844
-1713
-1496
-506
774
2045
3057
3566
3310
1941
-660
-3611
-5813
-6305
-4552
-1585
1316
3440
4422
4707
4808
4706
4165
2615
-259
-3419
-5629
-6230
-5015
-3017
-1380
-430
-133
181
1112
2356
3409
3864
3404
1970
-254
-2379
-3506
-3402
-2197
-803
-87
60
-23
-41
206
580
924
1357
1962
2414
2319
1408
-348
-2150
-3113
-2828
-1258
625
1746
1640
177
-2017
-4075
-4904
-3719
-1190
1626
3588
3873
3022
1851
915
551
469
288
-123
-746
-1217
-1196
-783
-242
-31
-433
-817
-462
802
2748
4131
3822
2163
-73
-1854
-2372
-1948
-1183
-663
-794
-1280
-1640
-1343
-102
1349
2156
2017
936
-414
-1340
-1725
-1661
-1476
-1425
-1235
-555
732
2511
3941
4204
3279
1487
-294
-1260
-1468
-1238
-1081
-1378
-1791
-1857
-1345
-238
869
1370
1230
597
-215
-861
-1044
-614
40
496
745
825
548
-237
-1321
-2356
-2804
-2243
-897
813
2318
3132
3246
2728
1487
-393
-1970
-2308
-1354
584
2650
3942
3927
2398
86
-2086
-3378
-3285
-2059
-260
1102
1164
113
-1546
-3077
-3766
-3213
-1321
1102
3101
4014
3460
1875
-72
-1598
-2115
-1924
-1487
-1018
-598
-29
843
1691
2109
1834
791
-494
-1402
-1557
-824
205
881
1047
750
360
229
331
525
594
348
-247
-1114
-1906
-2274
-2131
-1525
-759
-127
377
774
863
539
303
623
1217
1586
1123
-513
-2470
-3685
-3436
-1436
1217
3273
4260
4029
2945
1477
22
-1113
-1887
-2319
-2397
-2097
-1363
-222
955
1802
2325
2585
2492
1925
797
-851
-2494
-3574
-3888
-3365
-2126
-461
839
1114
715
250
311
1206
2090
2114
1554
887
280
-186
-448
-465
-267
68
345
443
651
1178
1496
1067
37
-1169
-1711
-1019
-33
222
-115
-634
-1003
-1019
-898
-898
-1021
-1145
-909
-29
1223
2405
2943
2394
967
-877
-2335
-2721
-2168
-1022
337
1505
1994
1480
374
-758
-1459
-1395
-629
606
1782
2387
2239
1320
-75
-1534
-2497
-2559
-2087
-1544
-1008
-504
-233
-355
-677
-904
-695
151
1206
1986
2407
2489
2289
1859
1205
350
-564
-1415
-2277
-3151
-3551
-3010
-1617
337
2321
3801
4487
4202
2982
1049
-839
-1905
-1841
-684
616
1066
390
-1267
-2814
-3188
-2378
-724
1075
2327
2736
2203
1022
-406
-1654
-2315
-2097
-901
707
2018
2427
1587
96
-1224
-1594
-539
1260
2876
3554
2838
1277
-358
-1409
-1478
-1067
-769
-627
-529
-286
195
531
329
-395
-1402
-1976
-1516
-352
960
1898
2031
1250
-295
-1739
-2245
-1796
-673
487
1117
1300
1248
1051
707
-46
-1304
-2249
-2115
-1267
-318
250
139
-347
-773
-784
-183
684
1309
1083
-285
-1739
-2150
-1456
12
1436
2062
1902
1157
35
-1199
-2043
-2078
-1431
-384
709
1521
1917
1843
1369
693
398
883
1433
1227
132
-1652
-3287
-3894
-3066
-783
1907
3851
4549
3824
2155
172
-1537
-2518
-2788
-2466
-1585
-256
1019
1680
1324
-175
-1991
-3166
-3179
-1835
197
2028
2780
1868
-114
-2231
-3356
-2618
-352
2655
5019
5515
4173
1484
-1460
-3578
-4435
-3865
-2130
247
2112
2466
1533
-58
-1312
-1375
-317
1487
3349
4512
4220
2073
-907
-3432
-4584
-3875
-2195
-574
774
1788
2222
1875
926
-342
-1615
-2603
-3144
-3055
-1941
371
2931
4628
4837
3334
1029
-1011
-2219
-2266
-1278
360
1674
1802
934
-418
-1483
-1656
-1241
-729
-429
-492
-591
-340
398
1528
2267
1889
583
-1140
-2405
-2453
-1335
530
2073
2325
1371
-349
-2039
-2990
-3207
-2849
-2005
-775
610
1799
2104
1075
-441
-1412
-1372
-170
1660
3394
4242
3653
2097
273
-1221
-1964
-2168
-2120
-1764
-1014
16
1056
1419
598
-759
-1783
-1853
-637
1294
3147
4140
3723
2270
433
-970
-1301
-831
-103
160
-550
-1683
-2499
-2543
-1582
26
1755
2990
3255
2731
1758
678
-259
-1170
-2131
-2699
-2446
-1517
-302
410
-24
-1254
-2575
-2856
-1319
973
2666
3067
1913
-8
-1750
-2765
-2754
-1991
-899
72
584
757
785
696
504
348
388
753
1434
1888
1586
583
-856
-2188
-2882
-2715
-1705
-529
144
322
235
296
755
1028
543
-391
-1268
-1672
-1348
-578
302
1289
2316
2749
2073
837
-266
-1014
-1352
-1415
-1277
-587
871
2326
2923
2448
1019
-541
-1429
-1598
-1168
-153
1284
2281
2063
903
-628
-1824
-2114
-1602
-570
663
1775
2467
2492
1805
523
-785
-1533
-1516
-752
246
891
818
-116
-1384
-2317
-2350
-1158
709
2478
3354
2784
1222
-601
-1851
-1877
-866
695
1971
2231
1487
32
-1483
-2437
-2709
-2342
-1554
-575
479
1443
1829
1281
294
-501
-806
-510
64
540
763
654
204
-524
-1265
-1727
-1708
-1117
-215
676
1333
1549
1091
-95
-1317
-1862
-1684
-961
-91
507
564
-42
-1003
-1878
-2147
-1392
295
2510
4114
4082
2604
245
-2116
-3628
-3846
-2675
-1011
203
826
982
1064
1430
2032
2666
2909
2373
1025
-933
-2700
-3475
-3041
-1509
284
1492
1956
1732
1041
170
-497
-695
-715
-860
-910
-622
-177
176
327
266
243
500
996
1622
2281
2830
2912
2203
708
-1341
-3126
-3876
-3569
-2397
-651
1250
2463
2294
1071
-577
-1841
-2040
-1194
349
1641
1857
1267
368
-514
-1102
-1118
-431
509
1169
1257
673
-163
-790
-1108
-1166
-1271
-1639
-1885
-1579
-708
567
1800
2519
2424
1437
194
-587
-574
258
1095
1124
358
-897
-2004
-2346
-1701
-142
1462
2225
1965
804
-622
-1662
-2097
-1874
-1134
-102
866
1458
1654
1529
1233
912
600
313
96
-45
-292
-775
-1224
-1357
-1253
-1056
-814
-525
-89
561
1262
1801
1992
1720
1118
336
-681
-1900
-2753
-2698
-1834
-516
523
694
374
100
74
342
659
745
454
-214
-830
-892
-40
1731
3158
3025
1547
-610
-2424
-3039
-2634
-1648
-553
243
605
545
371
424
855
1662
2410
2631
2176
1054
-389
-1746
-2687
-2983
-2729
-2094
-1212
-212
758
1573
2197
2606
2722
2468
1831
872
-114
-813
-1065
-835
-433
-208
-324
-824
-1441
-1841
-1742
-1006
-36
721
1189
1390
1353
1105
653
18
-690
-1323
-1659
-1563
-1306
-1172
-1074
-830
-261
684
1563
1910
1687
1025
327
-63
-311
-618
-819
-705
-245
484
1143
1380
1052
209
-516
-568
-299
-193
-382
-814
-1069
-794
-285
64
136
-66
-319
-417
-432
-486
-619
-864
-1286
-1815
-1791
-670
1014
2498
3159
2633
1437
278
-279
88
881
1439
1278
190
-1123
-1889
-1994
-1545
-871
-251
483
1488
2448
2957
2735
1649
7
-1702
-2731
-2499
-1357
92
1148
1320
1032
828
815
947
1002
799
492
276
168
125
31
-195
-439
-533
-288
384
1153
1586
1250
-38
-1461
-2128
-1853
-757
510
1270
1250
397
-869
-2023
-2584
-2262
-1494
-857
-750
-1360
-2194
-2667
-2495
-1562
-149
1355
2509
2959
2753
2036
920
-424
-1582
-2151
-2016
-1238
-277
422
893
1220
1221
770
216
-64
-71
90
277
378
432
480
404
125
-121
-90
211
681
1113
1295
1100
486
-324
-1027
-1248
-755
54
694
961
781
335
-130
-358
-174
276
737
840
351
-319
-654
-380
535
1394
1506
952
27
-887
-1457
-1631
-1402
-642
655
1889
2413
1990
616
-1189
-2764
-3393
-2603
-956
736
1706
1479
693
120
-54
144
429
510
325
-68
-380
-365
-189
-119
-401
-1081
-1417
-761
382
1311
1701
1446
913
496
220
34
-56
-76
-243
-686
-1009
-827
-334
126
201
-296
-888
-1059
-807
-257
462
1197
1711
1800
1471
849
324
164
-110
-939
-1857
-2283
-2065
-1290
-567
-395
-312
206
982
1670
1941
1604
984
432
-105
-738
-1394
-1947
-2246
-2179
-1806
-1240
-619
-100
130
-28
-287
-344
-247
-123
-89
-196
-239
-31
287
513
529
288
-46
-280
-309
-96
219
468
560
450
221
-12
-120
-23
160
312
514
849
1212
1443
1340
812
228
-21
91
432
615
321
-259
-825
-1161
-1117
-708
-62
415
416
290
451
909
1479
1591
826
-263
-987
-1098
-558
277
978
1210
767
-137
-1100
-1407
-554
792
1766
1886
972
-339
-1323
-1729
-1530
-1120
-886
-752
-565
-336
-142
-180
-575
-1021
-1154
-779
144
1217
1988
2225
1845
1129
403
-198
-601
-805
-780
-329
652
1732
2373
2139
845
-814
-2012
-2289
-1498
-366
310
332
-206
-644
-369
475
1504
2122
1808
566
-1369
-3356
-4720
-5070
-4217
-2518
-450
1579
3179
3976
3723
2661
1203
-45
-597
-646
-531
-502
-700
-932
-990
-941
-895
-847
-721
-273
676
1873
2917
3239
2399
640
-1521
-3164
-3514
-2785
-1469
-194
521
711
556
275
58
-46
-37
35
112
171
216
345
619
839
792
433
-188
-818
-1179
-1096
-481
499
1576
2316
2357
1769
756
-377
-1313
-1797
-1679
-1161
-512
104
555
735
605
358
221
310
654
1043
1238
1141
752
335
136
83
56
69
127
76
-209
-545
-723
-728
-587
-316
65
509
952
1288
1425
1363
1121
701
112
-584
-1275
-1700
-1646
-1226
-637
-82
275
422
418
472
748
1087
1276
1213
850
246
-481
-1096
-1409
-1532
-1590
-1446
-958
-229
539
970
792
315
-58
-151
57
189
-88
-553
-894
-998
-834
-484
-39
481
1055
1579
1901
1783
1021
-366
-2177
-3709
-4220
-3316
-984
1593
3152
3299
2051
193
-1404
-2309
-2310
-1636
-629
372
1076
1397
1302
774
-129
-1077
-1699
-1749
-1121
-145
797
1564
2092
2394
2463
2136
1286
101
-1121
-1953
-2057
-1564
-743
47
503
616
501
470
780
1269
1692
1872
1690
1197
467
-479
-1567
-2437
-2710
-2206
-933
550
1638
2090
1849
1228
570
-26
-524
-883
-1053
-951
-497
337
1447
2264
2274
1646
710
-263
-1076
-1784
-2468
-3037
-3327
-3033
-1982
-678
291
666
424
172
483
1171
1825
1871
922
-514
-1786
-2553
-2591
-1817
-300
1422
2770
3462
3365
2652
1580
431
-516
-1032
-983
-591
-180
-126
-602
-920
-399
765
2107
2965
2785
1643
-148
-1942
-3092
-3279
-2378
-719
1202
2695
3213
2981
2431
2049
2257
3188
4758
6325
7212
7190
6193
4374
2012
-308
-2013
-2875
-2799
-1879
-406
723
712
-248
-1637
-2614
-2495
-1538
-287
521
311
-635
-1875
-3174
-4345
-5177
-5512
-5413
-4998
-4382
-3728
-3375
-3579
-4093
-4537
-4500
-3694
-2350
-860
275
729
992
1545
2025
1969
1359
423
-85
457
1597
2653
3093
2605
1601
645
198
547
1392
2243
2426
1478
-41
-1388
-2127
-1993
-1117
262
1877
3411
4376
4381
3596
2344
1016
-22
-554
-494
-119
236
354
171
107
594
1624
3068
4750
6384
7296
6841
4894
1559
-2653
-7026
-10411
-11804
-11227
-9104
-6479
-4337
-2837
-1898
-1306
-882
-710
-852
-1029
-970
-792
-778
-1494
-3413
-6354
-9787
-12440
-13111
-11619
-8268
-4285
-867
1832
4036
6421
9484
12546
14588
14396
11145
5761
-366
-5727
-9123
-10693
-10933
-10432
-9619
-8215
-5816
-2232
2459
7313
11310
14002
15183
15055
13851
11535
8155
4378
971
-1508
-2703
-2858
-2330
-1319
7
1459
2817
3743
3949
3449
2409
1292
524
73
-130
162
1244
3279
6154
8772
9925
8939
5524
387
-5416
-10450
-13450
-14215
-13028
-11043
-9368
-8063
-6887
-5434
-3402
-1041
1236
2918
3483
2460
-344
-4067
-7585
-9791
-9829
-7826
-4249
43
4132
7249
8806
8790
7365
4807
1400
-2677
-7048
-10464
-11741
-10841
-8156
-4658
-1271
1867
4822
7674
10386
12434
13229
12444
10016
6695
3381
760
-742
-1526
-2115
-2686
-3289
-3818
-4114
-3962
-3205
-1968
-485
848
1604
1410
119
-1551
-2644
-2106
763
5172
9877
13318
14204
12621
9111
4651
164
-4104
-8071
-11669
-14696
-16439
-16196
-13852
-9566
-4007
2103
8333
14237
19025
21735
21083
16123
7619
-3021
-13507
-21620
-26305
-27002
-23955
-17691
-9046
942
10738
18736
23550
24148
20694
13851
5076
-3975
-11648
-16534
-18197
-16584
-12207
-5831
1327
7928
12597
14293
13349
10546
7071
3977
1378
-836
-2739
-4334
-5378
-5530
-4283
-1312
2843
7296
10669
11718
10230
6400
1019
-4919
-10202
-13673
-14605
-12644
-8500
-3149
2438
7332
10754
12180
11941
10498
7972
4417
-19
-4984
-9407
-12160
-12628
-10573
-6738
-2103
2410
5936
7793
7522
5389
1853
-2583
-7255
-10900
-12314
-11126
-7436
-2409
2671
7098
10373
12229
12415
10486
6202
316
-6104
-11734
-15355
-16438
-14772
-10733
-4946
1557
7680
12481
15157
15302
12826
8501
3397
-1072
-3760
-4924
-5141
-4855
-4304
-3018
-551
2753
6304
9312
11062
11338
10092
7445
3659
-604
-4614
-7756
-9530
-9785
-8507
-5878
-2221
1791
5399
7862
8623
7851
5929
3366
605
-2322
-5422
-8463
-11062
-12484
-12103
-10088
-6902
-3381
-345
1822
2945
3261
3070
2512
1697
752
-194
-1043
-1760
-2535
-3511
-4425
-4850
-4112
-1757
1548
4874
7357
8264
7338
4638
1018
-2517
-5157
-6297
-5969
-4412
-2064
609
3237
5417
6525
6066
4302
1760
-727
-2440
-3434
-3955
-4227
-4308
-3591
-1513
1668
5368
8533
10145
9812
7515
4116
572
-2655
-5284
-7254
-8450
-8318
-6371
-2836
1679
5741
8033
8533
7569
5567
2916
-260
-3752
-6775
-8452
-8135
-5498
-1278
3469
7454
9589
9808
8414
6154
3716
1118
-1702
-4440
-6727
-8289
-8919
-8589
-7320
-5157
-2208
1177
4531
7162
8400
7882
5539
2154
-1297
-3907
-5037
-5038
-4475
-3757
-3205
-2944
-2924
-2615
-1494
442
2940
5222
6485
6327
4648
2161
-259
-1894
-2275
-1779
-952
-184
243
323
148
-76
-124
183
903
1660
2048
1996
1555
930
370
153
486
1270
2264
2946
2776
1406
-1242
-4359
-6969
-8321
-7949
-6313
-4119
-2130
-994
-831
-1512
-2435
-2914
-2405
-590
2088
4915
6865
7066
5563
2771
-352
-2828
-4150
-4087
-3053
-1605
-226
715
1239
1477
1620
1821
2035
2123
1778
795
-454
-1446
-1658
-712
1154
3439
5210
5583
4311
1509
-1895
-4856
-6694
-7009
-6155
-4635
-2770
-841
854
2032
2460
2037
1122
91
-1055
-2358
-3651
-4714
-5341
-5305
-4292
-2121
756
3711
6027
7101
6885
5503
3240
478
-2159
-4069
-4952
-4683
-3505
-1758
214
2052
3357
3845
3722
3240
2328
862
-1180
-3663
-5935
-7317
-7522
-6484
-4626
-2467
-438
1125
2175
2700
2523
1563
275
-828
-1540
-1724
-1210
113
2078
4353
6209
6986
6703
5590
4048
2517
1417
1081
1521
2611
4006
5311
6190
6318
5383
3218
216
-3053
-5876
-7650
-8361
-8155
-7203
-5724
-4080
-2632
-1567
-961
-610
-264
246
1003
1850
2570
2938
2846
2651
2777
3439
4631
5658
5761
4609
2202
-553
-2626
-3395
-2556
-669
1472
2990
3216
2377
931
-630
-1897
-2824
-3479
-4038
-4678
-5473
-6350
-6751
-6164
-4763
-2891
-910
871
2371
3512
4031
3718
2789
1567
385
-497
-1125
-1607
-2003
-2331
-2489
-2327
-1599
-161
1649
3352
4387
4295
3107
1036
-1467
-3879
-5612
-6186
-5610
-4087
-2094
-118
1605
2877
3423
3035
1872
231
-1410
-2594
-3126
-2921
-2077
-734
961
2860
4810
6603
7824
8100
7427
5939
3956
1811
-290
-2184
-3748
-4845
-5253
-4838
-3934
-2954
-2171
-1701
-1170
-225
906
1878
2463
2491
1908
747
-737
-2181
-2999
-2728
-1616
-117
1218
1919
1944
1366
277
-1160
-2513
-3343
-3456
-2772
-1408
470
2725
5142
7184
8299
8202
6798
4501
1850
-613
-2409
-3306
-3236
-2549
-1636
-645
339
1239
1933
2106
1532
516
-548
-1447
-2061
-2457
-2691
-2590
-2022
-1256
-599
-130
145
275
336
442
704
1184
1810
2051
1403
-56
-2062
-4181
-6007
-7421
-8315
-8356
-7253
-5108
-2178
1063
4144
6826
8906
10086
10087
8796
6222
2677
-1337
-4868
-6953
-7046
-4948
-1427
2495
5753
7523
7979
7531
6522
5190
3423
1056
-1926
-5401
-8853
-11640
-13030
-12443
-9995
-6123
-1855
1798
4476
6029
6498
5976
4577
2465
-23
-2508
-4609
-5977
-6395
-5710
-3883
-1044
2140
4906
6667
7054
6416
5239
3846
2469
1129
-206
-1576
-2958
-4048
-4522
-4233
-3203
-1934
-951
-377
-177
-95
115
440
806
1174
1483
1566
1306
894
609
759
1538
2630
3607
4100
3876
3192
2428
1971
2077
2480
2791
2663
1836
387
-1424
-2936
-3476
-2729
-659
2020
4475
6165
6759
6467
5570
4090
2045
-291
-2606
-4678
-6297
-7216
-7229
-6339
-4684
-2721
-909
615
1787
2507
2654
2051
629
-1193
-2930
-4309
-5165
-5559
-5582
-5239
-4504
-3336
-1717
277
2485
4491
5856
6289
5612
3950
1515
-1440
-4566
-7179
-8609
-8599
-7088
-4406
-1053
2170
4499
5608
5439
4567
3606
2696
1825
838
-380
-1658
-2754
-3426
-3491
-2998
-2072
-915
271
1362
2263
2932
3314
3241
2593
1546
349
-764
-1634
-2379
-3121
-3703
-3903
-3514
-2432
-947
537
1537
1688
1160
287
-474
-785
-919
-1213
-1633
-2033
-2180
-1894
-1303
-625
-151
-109
-405
-827
-1017
-689
19
884
1778
2658
3733
5146
6548
7487
7611
6703
4995
2809
378
-2065
-4188
-5661
-6251
-5790
-4274
-1826
1068
3835
5893
6809
6740
5997
4894
3646
2077
20
-2266
-4420
-6136
-7134
-7220
-6264
-4339
-1635
1387
4212
6382
7504
7402
6039
3728
895
-1959
-4379
-6201
-7313
-7537
-6771
-5291
-3431
-1393
685
2771
4818
6597
7831
8237
7589
5924
3413
523
-2222
-4376
-5587
-5813
-5128
-3751
-1992
-383
624
1126
1312
1201
804
275
-208
-515
-568
-430
-177
224
782
1292
1552
1578
1438
1179
793
70
-1164
-2720
-4323
-5705
-6588
-6655
-5704
-4045
-2129
-462
532
799
388
-630
-2097
-3521
-4415
-4632
