Origin Time       2016/04/11 11:00:05.000
Lat.              36.103
Long.             139.664
Depth. (km)       90
Mag.              4.8
Station Code      DXYXFQST
Station Lat.      36.3062
Station Long.     139.9828
Station Height(m) 0
Record Time       2016/04/11 11:00:05.000
Sampling Freq(Hz) 200Hz
Duration Time(s)  0
Dir.              0
Scale Factor      3920(gal)/6170801
Max. Acc. (gal)   0
Last Correction   2016/04/11 11:00:05.000
Memo.   
[...]
-834
-975
-976
-890
-813
-798
-664
-250
285
722
899
736
415
164
132
381
718
915
872
575
222
-11
-252
-636
-1036
-1274
-1236
-872
-338
217
856
1587
1972
1610
679
-468
-1365
-1643
-1424
-948
-453
-127
33
57
-73
-364
-703
-964
-1091
-1031
-682
-10
688
1102
1189
1027
906
1026
1023
577
120
110
360
542
398
-208
-991
-1577
-1633
-976
42
909
1038
98
-1136
-1784
-1633
-796
-8
140
263
981
1716
1807
1444
986
606
334
-179
-1248
-2664
-3929
-3913
-1846
964
2919
3348
2153
575
-45
675
2598
4455
4967
3947
1643
-1070
-3321
-4889
-5734
-5882
-5330
-3916
-1664
483
1558
1410
284
-792
-821
305
2270
3964
4361
3565
1960
-87
-2182
-3778
-4410
-4059
-2824
-823
1667
3760
4508
3353
308
-2716
-3787
-2811
-374
2032
2982
2232
84
-2150
-3170
-2738
-1157
173
57
-795
-1301
-816
827
2302
2298
1053
-743
-2145
-2438
-2064
-1619
-1153
-540
488
1985
3021
2729
1507
114
-494
303
1590
2273
2063
1055
61
-92
744
2352
3705
3865
3059
1783
452
-604
-1309
-1644
-1573
-1136
-699
-602
-751
-915
-758
-83
632
865
588
-29
-518
-477
-45
510
969
1198
1367
1635
1800
1569
641
-1004
-2268
-2141
-1109
79
1119
1852
2262
2319
1820
709
-306
-477
320
1853
3071
2988
1684
-403
-2478
-3803
-4235
-3862
-3128
-2471
-1984
-1703
-1811
-2424
-3251
-3783
-3043
-361
3252
6339
7352
5315
1630
-1858
-3901
-3810
-2528
-1219
-304
48
-81
-544
-1177
-1756
-1807
-929
764
2888
4513
4798
3803
1897
-232
-1907
-2819
-2891
-2619
-2532
-2724
-3095
-3222
-2727
-1735
-521
566
1230
1455
1364
1347
1683
1951
1695
1024
235
-183
121
764
1173
747
-764
-2192
-2308
-1063
1142
3288
4411
4389
3425
2184
1256
477
-390
-1134
-1480
-1371
-891
-475
-539
-1070
-1783
-1725
-207
1757
2942
3004
1968
457
-855
-1688
-1944
-1846
-1601
-1018
115
1697
3438
4609
4547
3309
1274
-609
-1465
-1289
-419
302
105
-985
-2618
-3965
-4236
-3302
-1304
1208
3556
4967
4842
3365
1002
-1437
-3155
-3763
-3173
-2110
-1361
-1140
-1409
-1684
-1550
-1313
-1292
-1132
-450
569
1561
1994
1510
597
-120
-303
185
982
1631
1811
1350
546
-274
-1142
-2138
-3171
-4044
-4283
-3517
-2044
-382
748
813
265
-270
-420
-59
226
-104
-699
-1062
-1015
-491
432
1573
2466
2658
2025
689
-559
-991
-789
-339
80
306
547
988
1360
1327
741
-324
-1087
-859
-14
847
1276
995
261
-515
-836
-385
344
745
581
-157
-903
-1095
-740
-56
471
467
280
328
582
891
1059
938
623
282
126
296
617
884
1097
1295
1466
1545
1296
518
-698
-2112
-3182
-3428
-2907
-1871
-821
-218
-131
-473
-926
-1199
-1333
-1448
-1666
-1971
-1811
-707
992
2745
4063
4562
4241
3221
1738
110
-1139
-1564
-1254
-540
-191
-803
-1853
-2571
-2321
-779
1267
2869
3547
3099
1976
725
-377
-1143
-1467
-1336
-1025
-794
-560
-203
198
502
524
187
-118
-48
69
-140
-560
-938
-956
-436
190
461
429
320
567
1453
2485
3022
2617
1111
-705
-1928
-2140
-1312
-474
-581
-1214
-1696
-1686
-1060
-234
346
672
785
499
-294
-1150
-1578
-1442
-807
-197
-119
-573
-1373
-2106
-2307
-1523
465
2966
5073
5911
4944
2936
857
-801
-1715
-1734
-895
198
877
802
-93
-1087
-1495
-1553
-1672
-2040
-2590
-2472
-1029
832
2010
2184
1387
297
-389
-533
-194
347
771
834
402
-299
-1018
-1763
-2500
-2749
-2051
-468
1661
3424
4008
3597
2585
1226
-207
-1222
-1400
-822
251
1342
1982
1956
1158
-334
-2286
-4026
-4824
-4157
-1886
811
2666
3381
3014
2080
1123
339
-173
-369
-268
-87
-36
-73
-126
-243
-467
-726
-890
-712
-40
784
1376
1672
1680
1380
744
-273
-1565
-2401
-2122
-1006
381
1231
980
281
-89
-70
203
537
770
911
1039
1338
1849
1926
974
-720
-2549
-3517
-2895
-1414
-40
777
825
323
-399
-994
-1172
-886
-227
394
568
223
-561
-1429
-1994
-2023
-1352
32
1908
3273
3182
1729
-544
-2333
-2503
-1371
323
1596
1658
739
-659
-1974
-2697
-2619
-1745
-632
166
679
1020
1062
661
-128
-1078
-1455
-668
779
2143
2823
2429
1282
-116
-1272
-1780
-1581
-825
-147
-79
-252
-151
398
1345
2048
1952
1425
971
691
502
-31
-1198
-2361
-2783
-2234
-766
969
2221
2436
1405
84
-471
9
1386
2693
2992
2308
977
-400
-1252
-1411
-870
119
1211
1934
1925
1366
548
-365
-1191
-1550
-1122
-15
1378
1955
835
-1259
-3251
-4252
-3684
-2034
-64
1417
1803
1330
442
-431
-946
-1095
-944
-524
130
924
1700
2096
1787
812
-599
-1812
-2249
-1968
-1194
-207
699
1237
1185
579
-374
-1036
-886
-280
249
356
-150
-1029
-1946
-2606
-2729
-2050
-509
1141
2089
2094
1206
66
-695
-1077
-1229
-1251
-1250
-1405
-1800
-2077
-1814
-791
937
2428
2811
2388
1747
1431
1762
2224
2275
2115
1996
1655
828
-230
-1164
-1749
-1867
-1687
-1394
-940
-276
438
993
1213
1029
778
746
603
42
-529
-655
-420
-79
-47
-645
-1677
-2750
-3200
-2491
-850
1215
2870
3418
3048
2238
1738
2037
2322
1747
623
-476
-1086
-992
-866
-1300
-1680
-1300
-274
928
1252
-17
-1662
-2291
-1745
-355
830
867
-49
-1375
-2330
-2289
-1491
-384
598
1113
1172
915
618
504
430
225
-22
-208
-440
-782
-931
-605
6
596
869
672
409
525
1058
1870
2522
2518
1459
-711
-2751
-3397
-2575
-695
1106
1762
1223
-227
-1970
-3401
-4293
-4481
-3654
-1662
859
3057
3985
3052
1164
-476
-1004
8
1569
2515
2394
1148
-418
-1448
-1753
-1390
-741
-163
409
1100
1846
2474
2577
1845
618
-601
-1296
-1104
-285
722
1372
1248
546
-378
-1141
-1397
-984
30
849
732
-98
-1182
-2054
-2351
-2132
-1554
-748
122
721
812
700
719
766
676
469
210
-42
-263
-557
-950
-1019
-402
582
1445
1692
1039
37
-654
-766
-256
426
821
959
936
624
-68
-857
-1410
-1571
-1277
-651
113
748
972
543
-611
-1898
-2635
-2433
-1164
576
2080
2932
2872
1961
427
-1161
-2194
-2254
-1224
7
517
283
-426
-1057
-1109
-579
378
1480
2403
2787
2396
1522
559
-209
-593
-649
-483
-142
263
324
-261
-1058
-1528
-1437
-749
96
619
678
295
-179
-392
-291
97
740
1555
2257
2564
2398
1776
904
22
-678
-1082
-1332
-1585
-1804
-1883
-1654
-1039
-378
4
280
694
1302
2014
2358
1889
642
-1104
-2580
-3080
-2639
-1542
-330
483
752
456
-279
-1219
-1832
-1644
-712
642
1553
1336
568
26
28
656
1527
2209
2549
2509
2234
1843
1158
26
-1312
-2498
-3107
-2832
-1906
-714
300
775
757
401
-95
-561
-982
-1324
-1325
-829
-333
-366
-942
-1849
-2512
-2394
-1472
88
1910
3507
4192
3474
1864
114
-1070
-1213
-722
-165
142
42
-228
-380
-314
-19
350
583
404
-388
-1615
-2916
-3581
-3026
-1540
293
1569
1604
910
239
107
763
1627
2007
1582
365
-669
-622
131
963
1518
1562
1095
290
-208
163
1153
2275
2899
2540
1424
-37
-1395
-2239
-2317
-1553
-390
590
773
-170
-1413
-2021
-1773
-760
400
1090
1220
856
160
-655
-1287
-1473
-1199
-567
115
550
691
598
514
656
963
1252
1138
372
-569
-1122
-1125
-642
-236
-421
-1024
-1646
-1669
-685
667
1604
1819
1245
309
-526
-1137
-1505
-1702
-1814
-1898
-1965
-1855
-1438
-851
-233
549
1586
2536
2990
2703
1648
498
-95
-276
-322
-252
-62
77
0
-246
-535
-610
-300
98
229
-47
-674
-1036
-555
627
2104
3150
3141
2187
669
-696
-1286
-1203
-752
-329
-226
-231
-54
380
1020
1505
1514
1188
749
278
-200
-735
-1301
-1490
-968
-76
701
978
557
-112
-517
-550
-271
1
18
52
400
909
1312
1338
834
126
-408
-649
-591
-416
-343
-565
-1157
-1764
-2004
-1802
-1214
-524
-9
302
426
311
-44
-365
-386
-142
233
523
559
445
306
72
-317
-691
-801
-340
799
1862
2043
1213
-445
-2165
-3185
-3337
-2713
-1846
-1247
-907
-692
-494
-290
-372
-944
-1528
-1599
-1140
-351
195
42
-452
-774
-637
112
1292
2565
3284
2959
2027
1113
677
963
1514
1817
1842
1650
1196
430
-604
-1752
-2509
-2422
-1587
-246
1326
2826
3867
4112
3524
2221
634
-774
-1746
-2153
-2189
-2082
-1878
-1587
-1253
-900
-436
218
978
1732
2415
2957
3222
3097
2650
2023
1483
1204
871
137
-981
-2276
-3139
-3049
-2231
-1106
-147
287
325
217
205
467
930
1410
1508
895
-276
-1714
-3060
-4006
-4511
-4583
-4161
-3241
-2118
-1107
-320
200
487
571
388
-69
-492
-560
-201
494
1045
1016
535
-115
-586
-607
-264
232
531
392
145
174
490
968
1283
1194
989
977
1017
899
566
54
-407
-565
-279
432
1017
957
396
-325
-726
-468
67
420
518
430
411
673
1091
1458
1598
1403
1005
618
542
964
1543
1819
1395
68
-1662
-3130
-3728
-3087
-1762
-412
801
1839
2667
3268
3708
3997
3835
2970
1659
293
-705
-1089
-1353
-1998
-2817
-3474
-3807
-3786
-3742
-3899
-3712
-2647
-994
772
2264
3155
3283
2620
1516
380
-504
-968
-1182
-1330
-1304
-960
-314
497
997
777
23
-881
-1352
-959
-74
765
1182
983
573
414
625
1148
1565
1476
906
25
-837
-1452
-2148
-3202
-4141
-4402
-3838
-2525
-1035
65
733
1068
1231
1343
1307
1052
827
887
1203
1665
2137
2474
2524
2169
1442
469
-375
-772
-857
-816
-584
-65
731
1689
2396
2471
1967
1057
-18
-1027
-1838
-2339
-2399
-1956
-1242
-510
191
815
1112
864
195
-633
-1135
-896
-11
1206
2081
2021
1111
-306
-1558
-1996
-1409
112
1696
2494
2532
2067
1429
885
398
-96
-456
-528
-313
55
57
-719
-1892
-2873
-3044
-2028
-454
895
1640
1630
1236
862
522
140
-333
-874
-1186
-1005
-463
139
235
-582
-1825
-2808
-2941
-1883
-199
1354
2137
1751
609
-708
-1767
-2274
-2366
-2227
-1826
-1132
-333
350
792
934
898
843
883
1051
1095
765
107
-694
-1189
-995
-275
640
1275
1282
957
693
608
698
739
509
13
-629
-1045
-935
-516
-104
118
60
-130
-261
-211
95
628
1281
1754
1768
1311
538
-6
140
722
1314
1532
1141
453
-141
-482
-510
-343
-103
239
701
1114
1316
1355
1304
1124
792
457
272
241
313
371
281
-96
-826
-1687
-2425
-2958
-3228
-3120
-2548
-1623
-554
221
349
12
-472
-786
-706
-381
-51
55
-180
-444
-384
75
834
1362
1178
413
-636
-1647
-2355
-2763
-2909
-2717
-2123
-1236
-247
488
700
638
654
982
1689
2286
2278
1708
781
-186
-918
-1404
-1708
-1905
-2026
-1901
-1373
-536
411
1119
1303
1111
830
878
1556
2562
3455
3847
3474
2534
1330
132
-829
-1453
-1674
-1438
-773
-27
443
560
388
273
550
1209
2071
2626
2438
1706
770
-109
-737
-1142
-1401
-1580
-1709
-1699
-1471
-1118
-747
-354
88
591
1126
1532
1642
1421
875
62
-896
-1668
-1973
-1964
-1880
-1870
-1958
-1747
-907
189
1043
1336
946
350
53
68
241
221
-248
-869
-1265
-1311
-1004
-570
-221
130
606
1179
1752
2109
2049
1574
774
-88
-760
-1192
-1401
-1474
-1472
-1284
-817
-220
298
526
364
132
193
659
1408
1646
698
-960
-2573
-3423
-3021
-1752
-203
1127
1878
2184
2263
2181
1950
1520
889
306
3
-105
-182
-407
-846
-1116
-852
-229
419
656
214
-396
-623
-549
-396
-322
-405
-479
-361
-67
302
475
214
-450
-1349
-2066
-2217
-1798
-940
71
940
1496
1638
1413
938
457
228
456
1215
2111
2637
2288
805
-1112
-2609
-3194
-2643
-1454
-233
695
1169
1385
1540
1471
1023
428
28
210
1158
2197
2559
1961
459
-1033
-1593
-1131
93
1246
1558
1065
59
-962
-1541
-1587
-1086
27
1701
3356
4314
4033
2265
-193
-2333
-3350
-2762
-1180
545
1690
1780
1191
458
-94
-294
-375
-538
-468
127
939
1517
1468
521
-1159
-3233
-5100
-6221
-6572
-6279
-5578
-4711
-3837
-3059
-2347
-1671
-1139
-834
-595
-255
138
417
152
-937
-2277
-3174
-3310
-2578
-1331
-28
926
1217
869
32
-968
-1743
-1857
-929
1158
4199
6977
8249
7678
5442
2855
1289
1210
2642
4757
6575
7383
6743
5055
2979
1367
884
1267
1995
2446
2115
1072
-452
-2139
-3676
-4846
-5463
-5379
-4584
-3570
-2841
-2414
-2173
-1946
-1581
-1064
-520
-493
-1440
-3037
-4704
-5610
-5109
-3552
-1453
1021
3757
6496
8936
10736
11643
11812
11461
10666
9366
7102
3485
-1198
-6289
-10306
-11893
-11004
-8106
-4395
-1070
1388
2776
3283
3208
2898
2628
2328
1842
982
-377
-2077
-3956
-6108
-8508
-10375
-10869
-9643
-6732
-3216
-263
1627
2327
2523
3016
4261
6452
9096
11478
12683
11873
8731
3316
-3328
-9849
-14639
-16395
-15281
-11978
-7748
-3786
-432
2194
3982
4863
4898
4160
2627
365
-2104
-4176
-5377
-5388
-4396
-2693
-500
1977
4493
6763
8371
8905
8107
5884
2628
-1090
-4483
-6787
-7538
-6463
-3744
220
4613
8487
10779
10658
8325
4382
-5
-3745
-6595
-8523
-9473
-9450
-8706
-7475
-5658
-3174
-327
2492
4947
6787
8055
8744
8341
6449
3624
771
-776
13
2528
5640
7795
7758
5984
3336
603
-1634
-3571
-5462
-7018
-7864
-7810
-6827
-5317
-3707
-2085
-424
1419
3462
5117
5680
4614
1651
-2555
-7140
-11308
-14317
-15548
-14551
-11401
-6397
-205
6347
12141
16093
17548
16162
12409
7071
1333
-3674
-7429
-9658
-10436
-9911
-8163
-5349
-2007
1302
4290
6706
8160
8281
6904
4018
27
-4491
-8689
-11658
-12531
-10730
-6798
-1651
3426
7324
9999
11644
12330
12101
11000
9129
6832
4479
2291
441
-966
-1915
-2690
-3498
-3936
-3445
-1451
2243
6328
9302
10407
9310
6641
3208
-431
-3775
-6315
-7600
-7424
-5778
-3191
-415
1457
1498
-221
-3274
-6823
-10051
-12629
-14351
-15028
-14469
-12469
-9055
-5200
-1940
382
1734
2652
3687
4878
6088
6984
7265
6957
6205
5294
4472
3686
2829
1899
892
-282
-1679
-3129
-4376
-5044
-4775
-3384
-882
2117
4871
6720
7152
6183
4021
1143
-1953
-4927
-7463
-9165
-9742
-9393
-8425
-7075
-5499
-3599
-1288
1213
3598
5509
6712
7518
8289
9048
9646
9570
8319
5797
2186
-1619
-4675
-6564
-6991
-5643
-2421
1883
6238
9538
10882
10242
7947
4866
1911
-356
-1651
-2434
-3327
-4848
-7228
-9666
-11203
-11269
-9589
-6677
-3217
216
3153
5439
6961
7467
6786
5223
3222
1321
-31
-811
-1122
-1115
-854
22
1810
4128
6285
7046
5395
1751
-3010
-7597
-10769
-11907
-10769
-8018
-4453
-514
3403
6716
8854
9472
8386
5847
2290
-1550
-4957
-7595
-9235
-9680
-8807
-6738
-3734
-373
2684
4753
5403
5234
5015
5173
5858
6464
6317
5237
3242
659
-2133
-4856
-7175
-8412
-7976
-5957
-2745
772
3618
4969
4297
2105
-774
-3222
-4243
-3597
-1457
1139
3040
3514
2208
-147
-2571
-4200
-4436
-3644
-2449
-1562
-1522
-2100
-2845
-3176
-2587
-994
1415
3794
5226
5166
3438
988
-1040
-1828
-873
1392
4216
6521
7284
6023
2666
-1778
-6006
-8654
-8660
-6249
-2056
2931
7655
11146
12608
11864
9047
4920
351
-3971
-7448
-9634
-10223
-9303
-7087
-3911
-218
3228
5679
6768
6396
5145
3761
2978
3329
4577
6212
7426
7516
6515
4673
2369
5
-2067
-3545
-4287
-4294
-3998
-3831
-3814
-3851
-3804
-3555
-3123
-2531
-1691
-594
350
742
656
304
-34
-189
-518
-1361
-2467
-3454
-4017
-3974
-3575
-3090
-2453
-1569
-566
386
1184
1723
1809
1361
826
664
860
1232
1403
1046
211
-913
-1975
-2717
-3412
-4295
-4892
-4670
-3562
-1709
379
2113
2947
2503
1010
-1157
-3679
-6192
-8135
-8938
-8221
-5778
-1922
2817
7546
11339
13516
13626
11884
8701
4594
187
-3581
-5902
-6839
-6723
-6083
-5365
-4492
-3322
-1987
-699
270
759
1103
1643
2240
2727
3296
4085
4637
4413
3126
659
-2686
-6406
-9615
-11438
-11429
-9420
-5921
-1632
2658
6160
8195
8371
7335
5963
5014
5072
6142
7966
9817
10937
10937
9563
6760
2695
-1764
-5681
-8555
-10048
-10044
-8593
-6197
-3396
-426
2529
5213
7337
8575
8639
7445
5106
2305
-266
-2466
-4350
-6204
-8227
-10031
-11099
-10994
-9423
-6607
-2943
980
4534
7106
8218
7888
6421
4748
3785
3733
4493
5487
6074
5856
4566
2219
-1017
-4645
-8033
-10335
-10836
-9561
-6836
-3442
-166
2626
4733
6187
6969
6632
4784
1693
-2105
-5687
-8171
-9264
-8935
-7633
-5910
-4246
-3027
-2330
-2051
-1665
-655
1061
3329
5498
6875
7110
6028
3827
903
-1943
-3934
-4814
-4554
-3531
-2178
-758
573
1900
3282
4421
5008
5048
4611
3721
2384
579
-1629
-3818
-5561
-6771
-7488
-7890
-8130
-8096
-7632
-6671
-5176
-3130
-574
2244
5048
7649
9862
11428
12036
11263
8846
5284
1282
-2411
-5164
-6878
-7585
-7313
-6137
-4342
-2252
-150
1701
3058
3716
3605
2784
1711
810
-12
-910
-1771
-2375
-2352
-1477
-277
618
896
441
-393
-1199
-1817
-2109
-1771
-534
1569
4344
7250
9707
11330
11893
11626
10839
9710
8330
6569
4295
1594
-1332
-4014
-5972
-6944
-6787
-5619
-3678
-1420
696
2426
3571
3918
3318
1889
-103
-2088
-3534
-4365
-4698
-4964
-5571
-6550
-7762
-8793
-9222
-8886
-7740
-5955
-3754
-1354
1041
3291
5270
6851
7919
8395
8209
7284
5569
3118
76
-3164
-6125
-8259
-9131
-8844
-7668
-5995
-4144
-1991
603
3429
6101
7898
8225
7326
5663
3730
1970
593
-304
-831
-1125
-1217
-1125
-926
-713
-567
-520
-419
-93
514
1347
2048
2233
1728
479
-1308
-3335
-5176
-6417
-6799
-6170
-4654
-2521
-344
1313
2233
2396
2221
2146
2228
2359
2142
1232
-223
-1940
-3576
-4788
-5284
-4899
-3913
-2749
-1951
-1970
-2777
-4117
-5327
-5721
-4932
-2810
223
3575
6536
8482
9250
8896
7883
6758
6013
5988
6463
6994
6809
5246
2414
-1288
-5074
-8152
-10080
-10600
-9823
-7949
-5146
-1652
1976
5126
7280
8066
7596
6136
4059
1714
-761
-3222
-5273
-6515
-6798
-6085
-4544
-2429
-126
1977
3631
4718
5506
6301
7187
8097
8606
8254
6795
4136
571
-3408
-6928
-9151
-9774
-8744
-6482
-3535
-470
2139
3720
3859
2787
951
-982
-2393
-3082
-3018
-2433
-1627
-887
-422
-148
71
270
419
317
-177
-798
-1215
-1239
-796
-115
554
1187
1759
2003
1662
755
-587
-2061
-3343
-4189
-4416
-4011
-3025
-1606
69
1797
3360
4499
4971
4629
3451
1809
158
-1124
-1802
-2141
-2465
-2834
-3160
-3025
-2040
-265
2037
4248
5787
6575
6661
6094
4964
3531
2112
1078
671
579
380
-208
-1293
-2415
-3084
-3267
-3040
-2470
-1646
-747
15
380
158
-533
-1475
-2356
-2859
-2751
-1911
-592
859
2096
2831
3007
2665
2001
1224
455
-266
-1125
-2271
-3481
-4431
-4772
-4228
-2861
-847
1490
3761
5444
6103
5775
4648
3045
1302
-342
-1691
-2633
-3101
-3111
-2723
-2080
-1375
-930
-1010
-1535
-2281
-2788
-2693
-2256
-1829
-1516
-1322
-1116
-757
-222
472
1250
2009
2590
2883
3033
3201
3362
3452
3422
3262
3094
3005
2815
2340
1630
818
113
-303
-444
-400
-359
-484
-758
