Origin Time       2016/04/11 11:00:05.000
Lat.              36.103
Long.             139.664
Depth. (km)       90
Mag.              4.8
Station Code      DXYXFQST
Station Lat.      36.3062
Station Long.     139.9828
Station Height(m) 0
Record Time       2016/04/11 11:00:05.000
Sampling Freq(Hz) 200Hz
Duration Time(s)  0
Dir.              0
Scale Factor      3920(gal)/6170801
Max. Acc. (gal)   0
Last Correction   2016/04/11 11:00:05.000
Memo.   
[...]
-2
-25
-47
-70
-69
-23
41
85
80
19
-47
-62
-43
-16
18
57
75
48
2
-34
-46
-30
-2
20
24
5
-16
-22
-10
12
18
-11
-52
-79
-86
-73
-36
24
83
111
92
21
-62
-119
-148
-152
-112
-21
69
102
76
12
-35
-23
14
36
57
94
134
153
122
30
-66
-106
-103
-82
-62
-56
-52
-38
-24
-17
-5
23
50
60
53
36
23
26
25
3
-21
-23
-7
15
22
3
-30
-60
-75
-69
-44
-7
30
55
51
11
-51
-114
-145
-121
-60
9
57
65
41
2
-29
-31
-7
34
63
57
33
13
4
5
-3
-33
-61
-63
-62
-79
-88
-62
-6
61
104
97
60
23
-2
-11
-13
-20
-34
-53
-59
-41
-15
2
24
63
89
75
38
3
-23
-41
-66
-101
-89
13
125
163
136
76
16
-19
-47
-82
-86
-33
9
-24
-76
-82
-58
-29
5
49
98
139
140
80
6
-35
-47
-48
-43
-34
-26
-27
-41
-66
-69
-25
35
73
94
108
83
0
-82
-105
-85
-51
-14
21
47
52
22
-43
-95
-84
-23
59
126
152
140
104
54
6
-6
41
97
109
71
-8
-96
-159
-157
-72
33
82
58
-29
-116
-141
-109
-41
46
123
119
-11
-168
-236
-179
-5
183
277
259
142
-12
-128
-146
-37
97
146
100
-19
-145
-216
-222
-171
-82
22
116
172
172
107
14
-65
-112
-120
-83
-11
59
84
47
-50
-168
-251
-232
-74
127
260
278
169
-3
-163
-258
-252
-146
32
182
215
136
-13
-148
-193
-132
19
180
271
263
158
12
-111
-169
-142
-70
-5
19
-16
-71
-102
-108
-94
-64
-23
21
55
71
67
63
75
74
30
-26
-61
-83
-103
-104
-76
-40
-20
-6
12
15
-10
-30
-13
11
10
-3
-11
-15
-21
-32
-44
-42
-15
17
33
32
20
10
10
-2
-38
-58
-23
46
114
143
110
46
-12
-62
-104
-103
-36
37
53
36
18
-5
-39
-69
-77
-55
-9
27
22
-9
-39
-41
-2
42
49
21
-28
-76
-102
-90
-39
21
53
47
5
-45
-68
-34
65
160
179
131
45
-49
-121
-147
-113
-39
41
84
56
-11
-74
-105
-91
-49
-4
32
47
33
-9
-56
-84
-79
-39
12
46
51
24
-4
-4
16
39
55
56
38
1
-32
-41
-39
-39
-30
-2
20
15
4
12
33
52
50
19
-20
-42
-46
-37
-22
-11
-21
-62
-103
-112
-86
-32
30
81
100
76
27
-20
-51
-59
-48
-30
-15
-16
-28
-46
-56
-44
-11
34
63
50
17
-5
-7
8
17
1
-13
2
22
18
-1
-21
-36
-45
-53
-66
-72
-59
-20
40
73
39
-28
-82
-101
-75
-23
30
74
95
78
14
-59
-98
-95
-51
13
70
99
87
39
-25
-71
-67
-35
0
30
49
51
34
6
-22
-42
-50
-48
-41
-29
-13
-9
-28
-56
-71
-57
-10
32
37
24
20
17
2
-14
-21
-28
-43
-59
-68
-71
-73
-59
-19
24
45
49
45
38
27
17
7
-6
-24
-36
-33
-30
-39
-45
-33
-15
-3
7
20
18
-10
-40
-48
-47
-53
-59
-55
-32
11
40
28
9
19
28
6
-29
-52
-49
-21
-3
-22
-38
-10
22
17
-2
-10
-17
-36
-56
-61
-42
4
57
91
90
45
-26
-94
-115
-57
48
147
184
120
11
-79
-143
-180
-156
-49
70
126
131
110
63
-8
-69
-88
-55
22
86
85
38
-21
-71
-95
-89
-55
-9
35
75
109
118
83
16
-61
-108
-98
-62
-38
-26
-15
1
19
21
-4
-17
19
54
38
-1
-28
-45
-65
-80
-80
-60
-23
-7
-38
-67
-45
2
36
57
72
80
78
58
21
-20
-47
-60
-61
-54
-42
-28
-17
-11
-7
-5
-5
-6
-8
2
29
39
8
-33
-48
-38
-16
13
42
58
51
17
-38
-79
-75
-34
24
75
94
55
-50
-157
-203
-195
-152
-72
37
117
114
41
-66
-137
-120
-43
49
124
157
148
104
32
-54
-109
-95
-48
-9
18
35
25
-21
-78
-113
-103
-38
30
53
53
54
36
-21
-72
-73
-39
2
29
27
14
7
4
2
-2
-10
-23
-40
-54
-56
-41
-7
30
51
40
-6
-44
-37
1
40
59
44
4
-44
-84
-102
-95
-63
-7
62
104
85
43
18
12
16
21
20
17
14
-4
-49
-96
-118
-107
-67
-27
-13
-8
8
31
52
58
41
20
11
7
-1
-10
-15
-18
-24
-33
-43
-61
-87
-101
-87
-63
-49
-27
20
61
67
54
43
36
30
14
-18
-39
-21
14
39
38
3
-51
-103
-131
-118
-56
48
139
159
82
-83
-235
-277
-217
-93
46
154
195
153
59
-42
-111
-117
-68
14
94
138
130
66
-29
-120
-168
-142
-48
87
190
196
126
21
-81
-144
-144
-75
16
79
92
52
-29
-120
-166
-124
-36
43
93
102
67
-2
-54
-44
5
56
86
80
55
33
26
36
32
-15
-73
-106
-103
-65
-17
18
45
68
59
-2
-64
-72
-46
-14
15
36
44
38
20
-5
-29
-44
-41
-17
15
37
39
15
-18
-45
-59
-58
-44
-19
14
46
44
-10
-52
-26
15
7
-33
-73
-92
-73
8
151
258
236
100
-91
-213
-172
-46
58
98
62
-25
-122
-176
-148
-75
-6
37
47
45
51
54
41
20
3
-7
-12
0
29
50
37
-8
-70
-108
-90
-48
-23
-7
11
18
5
-21
-47
-56
-38
-2
33
47
27
-8
-33
-38
-21
-9
-23
-46
-56
-40
3
44
58
47
21
-15
-59
-88
-88
-73
-63
-56
-47
-31
-10
-6
-32
-46
-11
36
56
48
27
5
-7
-2
21
36
21
-9
-34
-35
-4
34
54
58
56
45
25
-3
-32
-43
-23
3
11
6
-4
-17
-34
-40
-20
10
31
21
-24
-52
-17
37
51
-6
-130
-214
-161
-18
138
244
252
157
-14
-152
-165
-92
-4
53
51
9
-41
-73
-65
-29
14
36
19
-17
-41
-42
-17
14
31
28
9
-14
-26
-12
27
59
49
11
-31
-69
-98
-101
-67
-21
11
24
22
32
67
89
62
14
-16
-27
-28
-18
2
10
-11
-47
-78
-89
-71
-37
-6
17
28
27
16
-8
-44
-71
-69
-38
10
46
45
30
27
21
-2
-37
-70
-89
-82
-53
-5
53
107
122
74
-3
-65
-96
-90
-52
5
42
30
-11
-48
-59
-33
7
35
63
105
132
115
58
-20
-61
-16
86
189
205
72
-111
-222
-212
-79
61
100
71
35
9
-11
-72
-195
-236
-80
126
214
190
105
7
-65
-107
-119
-91
-23
39
50
37
33
29
14
-12
-41
-44
-1
60
100
95
39
-32
-77
-77
-32
20
44
43
27
10
-1
-8
-11
-2
24
36
9
-22
-22
-15
-31
-54
-63
-52
-25
-3
-3
-3
17
38
34
12
-16
-33
-28
-11
5
12
8
3
8
25
50
67
57
29
-4
-30
-42
-47
-54
-54
-39
-28
-39
-51
-43
-19
10
41
69
62
3
-58
-70
-48
-22
-23
-65
-92
-53
19
70
52
-52
-149
-144
-49
87
173
141
53
-14
-54
-74
-62
-6
70
132
125
18
-112
-177
-166
-93
12
109
165
156
99
22
-42
-69
-65
-47
-33
-36
-50
-66
-78
-79
-66
-37
8
64
115
143
132
74
7
-31
-51
-67
-71
-53
-17
23
42
25
-2
-13
-17
-27
-35
-29
-10
15
35
39
22
-15
-49
-62
-53
-30
-5
9
15
14
1
-26
-45
-36
-11
16
32
29
20
16
15
12
24
61
84
60
21
4
-9
-38
-58
-42
-14
1
4
1
-8
-24
-36
-37
-26
-3
46
115
112
-25
-166
-173
-73
60
140
110
39
7
-4
-23
-35
-21
12
53
87
98
75
18
-31
-31
-7
7
8
-1
-21
-50
-81
-102
-88
-26
39
59
44
16
-4
-5
13
39
65
78
65
18
-29
-39
-14
33
69
69
43
8
-23
-40
-32
2
33
31
13
1
3
19
27
12
-13
-27
-29
-23
-18
-19
-30
-45
-44
-10
46
104
141
139
96
22
-52
-95
-95
-54
-3
24
23
3
-10
9
44
73
84
68
27
-34
-87
-111
-112
-99
-75
-39
8
60
97
101
86
66
46
29
12
-3
-6
11
36
45
5
-99
-186
-177
-92
22
116
143
95
-12
-104
-114
-55
35
93
73
19
-15
-33
-49
-58
-51
-23
26
66
68
45
16
-10
-25
-21
1
17
4
-21
-41
-57
-72
-80
-71
-39
16
57
52
28
20
41
91
132
129
90
35
-26
-82
-121
-132
-111
-63
-7
33
37
-4
-54
-72
-46
19
83
107
89
40
-35
-125
-190
-193
-139
-49
36
78
80
57
26
1
-18
-34
-33
-3
44
86
93
49
7
19
42
27
-14
-53
-66
-38
-2
8
2
-5
0
23
49
55
21
-59
-139
-164
-103
41
155
138
57
-2
-16
13
56
76
58
-2
-75
-125
-126
-68
11
68
85
59
20
-3
-20
-44
-64
-66
-44
3
45
51
18
-41
-73
-33
40
95
116
100
59
7
-45
-83
-90
-51
10
64
100
112
102
74
27
-34
-87
-110
-107
-86
-51
-11
13
4
-11
-3
13
18
23
41
47
17
-31
-74
-98
-95
-56
16
78
89
66
37
6
-24
-38
-27
2
32
45
27
-13
-59
-88
-84
-70
-69
-71
-58
-33
3
42
75
83
50
4
-21
-26
-15
1
12
20
26
23
4
-16
-22
-4
36
74
87
86
84
72
41
0
-39
-64
-67
-44
1
21
-20
-88
-139
-148
-106
-34
38
89
102
81
39
3
-3
7
16
23
33
37
29
13
-3
-21
-42
-68
-94
-100
-69
-30
-11
-11
-23
-35
-39
-33
-19
1
23
26
-4
-49
-82
-95
-87
-67
-44
-21
3
22
37
56
85
112
125
108
58
2
-33
-54
-74
-91
-101
-98
-80
-61
-52
-37
-1
34
42
35
25
21
25
34
44
50
45
25
-7
-22
4
48
83
96
82
53
20
-19
-60
-75
-46
-14
-19
-42
-58
-79
-117
-142
-125
-81
-34
4
22
22
9
-3
-3
-2
-13
-21
-13
1
5
0
-11
-19
-11
38
137
227
241
153
-26
-190
-236
-168
-33
76
81
16
-60
-112
-116
-74
-3
61
83
72
44
3
-47
-79
-66
-13
62
104
66
-18
-99
-140
-117
-34
83
176
189
133
36
-71
-153
-172
-107
-10
56
61
-1
-84
-138
-141
-88
2
95
137
87
-3
-67
-70
-3
70
88
57
1
-51
-77
-68
-30
10
26
15
-17
-38
-24
-4
-6
-17
-20
-32
-66
-84
-52
-3
27
46
65
72
53
32
31
41
46
50
53
46
21
-9
-30
-44
-52
-57
-57
-49
-30
-8
3
-1
-22
-28
3
42
56
35
-17
-76
-111
-103
-45
26
69
59
-10
-81
-98
-53
39
108
97
35
-29
-50
-3
64
97
78
12
-56
-82
-74
-51
-25
-10
-7
-16
-27
-30
-28
-22
-1
39
66
48
11
-12
-25
-33
-23
13
43
39
17
1
-9
-11
7
53
103
129
121
76
3
-83
-149
-165
-137
-82
-27
6
17
12
-1
-13
-13
9
56
120
157
128
39
-86
-203
-267
-257
-167
-37
85
151
132
63
-8
-39
-3
67
130
147
98
1
-108
-179
-176
-125
-63
-8
27
30
-4
-36
-27
18
82
126
119
71
2
-56
-75
-39
46
103
65
-14
-66
-67
-14
48
75
65
31
-21
-80
-103
-59
24
100
132
94
16
-62
-102
-83
-38
-6
2
-18
-59
-105
-109
-38
58
120
131
92
30
-27
-71
-93
-83
-37
15
41
48
46
33
5
-34
-75
-95
-75
-36
-5
14
22
21
13
3
-1
-5
-12
-4
28
54
43
10
-20
-44
-60
-57
-25
23
71
100
98
69
25
-21
-56
-71
-62
-51
-55
-59
-46
-34
-40
-49
-42
-17
19
50
60
50
25
-11
-47
-62
-42
0
43
76
89
74
25
-40
-100
-130
-110
-51
26
92
120
105
52
-17
-72
-79
-19
58
97
77
-5
-101
-160
-165
-118
-50
2
40
67
78
72
57
46
47
61
57
12
-38
-50
-18
49
99
88
35
-31
-92
-134
-142
-108
-64
-43
-41
-47
-60
-74
-65
-13
73
165
214
182
89
-26
-106
-110
-74
-41
-25
-29
-42
-52
-55
-50
-18
46
91
71
9
-58
-114
-150
-158
-132
-85
-32
16
48
63
62
52
44
58
101
137
124
61
-38
-126
-163
-158
-133
-95
-51
-15
-1
-7
-21
-27
-14
10
33
45
44
33
15
-8
-32
-24
40
128
192
191
102
-13
-88
-101
-55
-3
5
-32
-98
-150
-155
-119
-59
10
73
106
92
54
22
9
20
43
59
56
24
-16
-43
-45
-19
10
17
6
-14
-38
-57
-62
-45
-11
30
52
36
0
-28
-24
23
80
107
92
35
-33
-83
-103
-88
-53
-14
17
30
25
2
-24
-39
-33
-1
40
68
82
83
63
17
-28
-45
-30
10
57
88
88
49
-2
-34
-36
-5
38
69
69
28
-19
-38
-36
-25
-5
24
33
1
-48
-78
-72
-27
29
62
65
41
9
-12
-15
4
29
42
23
-38
-107
-145
-157
-155
-128
-68
10
83
119
98
50
10
3
37
75
82
61
21
-29
-79
-113
-114
-75
0
69
91
55
-31
-114
-143
-116
-51
19
58
58
22
-24
-54
-52
-13
40
81
99
89
53
-5
-60
-89
-78
-24
36
64
59
27
-15
-52
-66
-49
-12
27
56
63
50
24
-1
-14
-8
14
32
24
-4
-42
-60
-38
-3
14
7
-19
-46
-58
-62
-65
-59
-35
-8
5
2
-14
-16
15
53
66
51
14
-39
-97
-126
-98
-41
10
33
21
-12
-44
-62
-56
-37
-17
-12
-30
-46
-38
-20
-6
19
70
107
94
57
30
27
49
54
10
-51
-91
-107
-105
-90
-67
-36
-4
20
28
24
13
0
-13
-8
27
65
76
58
19
-26
-64
-85
-87
-75
-56
-29
5
41
69
70
30
-25
-64
-75
-57
-21
17
43
45
21
-25
-69
-92
-96
-86
-47
32
115
160
142
56
-53
-130
-143
-75
40
152
199
141
22
-100
-179
-185
-119
2
118
171
160
98
15
-60
-97
-80
-23
48
89
70
21
-20
-43
-46
-30
-1
32
55
55
24
-10
-21
-8
19
33
13
-25
-62
-83
-82
-59
-21
25
68
85
61
8
-49
-75
-46
12
63
78
42
-21
-77
-107
-100
-69
-34
1
34
64
85
78
29
-32
-70
-74
-45
2
45
60
33
-15
-57
-65
-27
25
55
58
43
25
17
13
2
-5
2
6
-5
-20
-26
-20
-8
5
16
26
36
36
17
-10
-27
-22
7
34
30
1
-40
-76
-94
-86
-48
15
88
130
103
22
-78
-143
-134
-81
-27
20
58
69
40
-14
-68
-92
-65
-20
6
9
-7
-25
-31
-18
12
36
30
3
-32
-56
-50
-21
24
73
109
108
53
-28
-96
-125
-100
-51
-13
6
4
-11
-32
-52
-67
-65
-38
1
34
58
69
57
16
-52
-132
-193
-205
-175
-118
-30
86
200
269
224
13
-310
-674
-1040
-1381
-1695
-1984
-2259
-2535
-2852
-3237
-3657
-4056
-4366
-4537
-4611
-4579
-4163
-3045
-1023
1917
5147
7942
9816
10477
10154
9144
7487
5219
2599
-29
-2215
-3555
-3934
-3424
-2561
-1944
-1950
-2772
-4094
-5419
-6030
-5261
-2872
990
5046
7942
9142
8496
6604
4124
1207
-1963
-4571
-5815
-5573
-4028
-1918
-47
1062
1120
490
-339
-1033
-1258
-537
1400
3853
5898
6708
5766
3719
1537
323
793
1980
2627
2006
-106
-2449
-3656
-3418
-1939
-431
-152
-1546
-4485
-7381
-8515
-7129
-3147
1747
5658
7616
7204
5301
3174
2344
3775
5960
6859
4798
-945
-7642
-12026
-12144
-7262
-202
5621
7977
5743
1036
-3474
-6140
-5895
-2952
1889
6753
9604
8826
3653
-3698
-10437
-14455
-14329
-10702
-4861
1375
6242
8712
8301
5948
2871
-28
-2033
-2869
-2461
-1083
778
2149
2128
579
-2196
-4922
-6194
-5064
-1261
3240
6181
6403
3616
-87
-2460
-3008
-1974
-778
-666
-1004
-752
856
4013
6861
7449
5490
1450
-2852
-5614
-6461
-5510
-3430
-1002
1107
2362
2658
2114
1314
885
1172
2198
2971
2461
481
-2602
-5057
-5207
-2950
1053
4660
5800
4168
244
-4110
-6916
-7118
-4282
448
5384
8237
7223
3168
-2249
-6560
-7678
-5838
-2056
1861
4311
5277
5136
4239
2974
1911
1500
1534
1556
778
-1387
-4379
-7276
-8872
-8230
-5788
-2354
1166
3949
5599
5942
5252
3977
2814
2352
2500
2850
2404
314
-3069
-6869
-9310
-8893
-6135
-2066
2255
5876
8319
9180
7864
4092
-984
-5767
-8317
-7296
-4110
-745
1255
915
-895
-2889
-3956
-3288
-1091
1975
4462
5014
3427
89
-3385
-5335
-5141
-2716
927
4516
6829
6921
4900
1391
-1967
-3585
-3097
-771
1816
3075
2703
887
-1511
-3547
-4631
-4432
-3297
-1749
-323
621
1447
2496
3297
3308
2508
1169
207
373
1133
1665
1279
-367
-2378
-3712
-3989
-3160
-1853
-716
174
798
770
-175
-1458
-2309
-2059
-325
2226
4656
5999
5506
3323
13
-3074
-4588
-3973
-1289
1714
3204
2704
367
-2494
-4508
-5221
-4527
-2788
-447
2187
4672
5895
4937
2346
-866
-3294
-3724
-2101
1064
4143
5519
4734
1897
-1766
-4839
-6270
-5368
-2530
1351
4495
5220
3132
-1413
-6319
-9305
-9080
-5147
796
6551
10116
10036
6842
1793
-2921
-5233
-4483
-902
3136
5142
4334
819
-3444
-6320
-6826
-4685
-1296
1687
3254
2909
1586
393
-284
-338
-59
224
429
581
897
1497
1909
1583
258
-2012
-4180
-5144
-4571
-2485
421
3297
5302
5746
4513
1795
-1568
-4521
-5804
-4496
-1231
2839
6071
7068
5915
3217
173
-2027
-2835
-2158
-1097
-785
-1304
-2309
-2805
-1972
-345
1232
2034
1641
732
104
-77
95
92
-532
-1450
-2214
-2634
-2612
-2157
-1324
-251
896
1910
2555
2512
1621
453
-334
-444
167
908
1182
1013
625
421
685
1050
1094
830
370
-227
-909
-1613
-2223
-2415
-1904
-747
795
1974
2127
1389
95
-1434
-2829
-3507
-2944
-1050
1885
4474
5321
4078
987
-2399
-4480
-4781
-3302
-807
1741
3351
3235
1461
-1408
-3692
-3806
-1656
2135
5573
6777
5698
2954
-1
-1839
-2584
-2559
-1918
-804
518
1696
2132
1412
103
-1105
-2009
-2558
-2825
-2790
-1960
7
2360
4135
4622
3474
1557
-62
-729
-160
859
1367
776
-1093
-3135
-4120
-3568
-1516
700
1699
1199
-563
-2394
-3075
-2270
-114
2223
3518
3365
1801
-152
-1374
-1310
166
2052
3163
2722
437
-2463
-4535
-4998
-3542
-1081
1258
2722
2802
1578
-490
-2011
-1748
14
2440
4042
3630
1867
-215
-1972
-2996
-3438
-3554
-3462
-3225
-2829
-2188
-1014
811
2504
3206
2633
871
-1091
-2240
-2367
-1572
-380
649
1250
1243
465
-1052
-2542
-3126
-2213
380
3477
5705
6235
4664
1743
-1466
-3820
-4419
-3408
-1273
1196
3153
3836
2784
653
-1608
-3007
-2807
-1336
707
2211
2222
854
-1367
-3313
-3937
-3116
-1129
1062
2502
2956
2473
1515
585
-77
-363
-436
-514
-748
-1177
-1447
-1196
-411
718
1547
1504
772
-209
-731
-190
1323
3354
4699
4248
2030
-1416
-4633
-6180
-5591
-2933
568
3517
5017
4485
2099
-1539
-4895
-6373
-5080
-886
3965
6964
6903
3432
-1651
-6130
-8263
-6929
-3028
1976
6405
8710
8076
4322
-955
-5730
-8046
-6609
-2698
1766
4860
5105
2792
-1107
-4648
-5976
-4563
-670
3623
6115
5954
3111
-478
-2730
-2920
-1022
1565
3310
3578
2180
-194
-2661
-4467
-5035
-4389
-2785
-818
877
1851
1860
1292
668
398
686
1022
867
265
-459
-472
799
2378
3075
2414
343
-2196
-4077
-4431
-2790
-54
2564
3957
3432
1853
351
-425
-196
323
350
-166
-1017
-1675
-1696
-1286
-816
-646
-1023
-1748
-2499
-2926
-2719
-1764
-100
1808
3366
3888
2941
1202
-391
-944
121
2178
4219
4915
3299
181
-3141
-5186
-4818
-2443
984
3866
4794
3770
1283
-1631
-3908
-4909
-4245
-2095
1069
4184
6153
6337
4471
1309
-2122
-4740
-5620
-4524
-1685
1481
3411
3149
346
-3512
-6616
-7704
-6050
-2521
1606
5023
6618
6090
3639
662
-1354
-1764
-448
1451
2629
2410
548
-2116
-4462
-5345
-4018
-1349
1420
3159
3124
2002
763
64
328
1347
2667
3469
3057
1593
-412
-1885
-1970
-1217
-456
-240
-800
-1376
-1166
-194
1220
2419
2761
2029
242
-2049
-4133
-5175
-4587
-2894
-946
198
-195
-1359
-2227
-2036
-400
1854
3693
4476
3867
2383
731
-454
-765
-628
-551
-542
-468
-140
529
1151
1316
1004
337
-370
-821
-994
-896
-385
573
1431
1569
662
-1310
-3437
-4621
-3931
-982
2621
4997
5174
2856
-449
-3009
-4013
-3144
-1157
1016
2816
3821
3781
2613
713
-1345
-2770
-2935
-2097
-736
653
1650
2127
1965
762
-1582
-3691
-4092
-2386
1120
4393
5393
3791
73
-3728
-5574
-4962
-2079
1651
4609
5605
3985
810
-2450
-4390
-4018
-1918
956
3727
5530
5448
2925
-1103
-5250
-7828
-7552
-5053
-1515
1570
2981
2876
1783
342
-856
-1505
-1418
-579
863
2263
2943
2567
1105
-619
-1688
-1693
-546
1062
2266
2295
736
-1468
-3139
-3510
-2223
-129
1731
2768
2654
1652
206
-1125
-1854
-1907
-1419
-926
-852
-764
-112
1261
3189
4609
4503
2946
389
-2310
-4263
-4884
-3813
-1290
2071
4773
5406
3792
325
-3556
-6258
-6605
-4020
102
3932
5886
4930
1974
-1566
-4193
-4717
-3248
-332
3043
5772
6722
5102
1508
-2968
-6636
-7994
-6880
-3661
524
4377
6728
6745
4822
1804
-888
-1998
-1515
66
1473
1522
161
-2189
-4363
-5177
-4123
-1177
2422
