Origin Time       2016/04/11 11:00:05.000
Lat.              36.103
Long.             139.664
Depth. (km)       90
Mag.              4.8
Station Code      DXNSFQST
Station Lat.      36.054
Station Long.     139.3912
Station Height(m) 0
Record Time       2016/04/11 11:00:05.000
Sampling Freq(Hz) 200Hz
Duration Time(s)  0
Dir.              0
Scale Factor      3920(gal)/6170801
Max. Acc. (gal)   0
Last Correction   2016/04/11 11:00:05.000
Memo.   
[...]
-6
-7
-6
-3
-1
-2
-10
-17
-15
-6
9
18
16
8
2
0
1
0
-5
-10
-7
0
9
12
6
-4
-13
-20
-22
-21
-17
-11
-6
-1
5
8
3
-4
-6
-4
-2
0
3
4
4
4
9
11
4
-4
-6
-4
-2
-1
-1
-1
-5
-8
-7
-8
-11
-12
-7
-1
0
-3
-6
-8
-7
-6
-7
-9
-8
-4
2
5
1
-3
-1
0
-7
-12
-8
0
5
6
4
2
3
4
4
0
-6
-12
-16
-16
-14
-11
-12
-14
-13
-12
-10
-7
1
7
6
-1
-10
-15
-14
-9
-7
-4
1
4
0
-9
-18
-20
-14
-7
-8
-14
-18
-18
-13
-5
6
15
19
18
15
7
-5
-13
-13
-11
-15
-18
-15
-8
-3
-2
-5
-8
-5
-1
-1
-4
-7
-7
-2
6
15
16
7
-6
-13
-15
-14
-9
0
3
-7
-18
-20
-15
-8
-3
-2
0
7
10
1
-10
-13
-9
-4
0
1
0
-1
-1
0
1
-1
-3
-2
-1
-2
-1
4
7
2
-8
-16
-21
-19
-11
1
9
5
-6
-16
-24
-27
-27
-28
-37
-60
-82
-89
-81
-63
-29
23
70
85
61
-5
-113
-254
-395
-502
-563
-578
-577
-596
-651
-742
-822
-849
-824
-770
-735
-762
-851
-989
-1150
-1316
-1508
-1748
-2007
-2232
-2319
-2178
-1805
-1252
-691
-297
-134
-200
-325
-333
-159
192
564
818
1030
1318
1765
2385
2960
3280
3399
3458
3683
4214
4759
4972
4731
4049
3254
2640
2054
1270
216
-1044
-2068
-2449
-2287
-1832
-1420
-1293
-1248
-1011
-482
321
1074
1458
1461
1186
889
799
865
978
1066
1077
994
787
325
-464
-1324
-1974
-2363
-2534
-2656
-2868
-3035
-2999
-2761
-2371
-1922
-1468
-876
-22
997
1997
2654
2727
2437
2102
1964
2138
2308
2140
1670
1069
677
742
969
957
422
-744
-2056
-3000
-3564
-3876
-4134
-4428
-4341
-3526
-2434
-1630
-1325
-1444
-1099
446
2526
4156
4487
3102
1199
98
-1
682
1357
1352
1042
927
967
930
341
-1083
-2623
-3436
-3199
-1933
-534
94
-125
-946
-1670
-1660
-987
57
1012
1504
1675
1783
2036
2530
2951
2928
2281
997
-460
-1580
-2154
-2110
-1606
-878
-231
34
-306
-1337
-2686
-3858
-4329
-3749
-2486
-1062
101
733
1082
1459
1930
2432
2625
2191
1175
-148
-963
-588
579
1834
2356
1622
430
-298
-477
-287
-142
-339
-474
-138
394
730
688
226
-343
-669
-596
-73
716
1507
1940
1758
1219
696
520
867
1340
1464
1024
1
-1127
-1847
-2029
-1664
-842
237
1041
1060
212
-1329
-2763
-3292
-2750
-1284
340
1342
1514
909
62
-474
-547
-179
311
591
594
322
-190
-851
-1391
-1557
-1363
-933
-577
-547
-680
-735
-590
-200
282
698
1067
1442
1828
2158
2112
1462
582
-63
-243
92
503
561
357
94
-114
-240
-536
-1160
-1625
-1444
-781
-3
340
-107
-746
-910
-625
-142
85
-242
-587
-350
489
1688
2538
2452
1802
1143
812
971
1303
1455
1407
1194
731
-32
-889
-1572
-1809
-1446
-808
-276
36
97
-23
-233
-453
-585
-456
45
700
1220
1342
923
259
-305
-679
-864
-974
-1087
-1053
-738
-325
-35
49
-60
-109
131
560
981
1124
768
-25
-1045
-1759
-1702
-981
83
894
958
464
-229
-778
-927
-765
-443
-27
434
865
1148
1021
315
-607
-1292
-1432
-909
-206
142
18
-495
-918
-801
-236
518
1052
1026
534
-194
-806
-998
-781
-251
454
1156
1554
1398
774
-126
-1007
-1599
-1836
-1703
-1193
-349
589
1333
1586
1179
459
-162
-528
-586
-445
-204
244
969
1687
2092
2123
1824
1392
1019
701
384
-12
-523
-998
-1264
-1240
-926
-549
-354
-447
-824
-1185
-1227
-920
-365
101
179
-38
-345
-497
-341
-120
-113
-345
-728
-975
-849
-504
-171
14
10
58
387
878
1321
1499
1278
891
616
573
755
817
444
-211
-879
-1268
-1189
-858
-556
-407
-439
-440
-194
303
967
1571
1867
1691
1017
304
19
167
584
901
787
294
-398
-965
-1135
-989
-687
-362
-99
147
400
457
136
-412
-933
-1085
-661
-80
177
33
-438
-930
-1137
-965
-446
100
347
239
-132
-351
-50
641
1427
1858
1589
837
-31
-627
-672
-345
76
375
432
470
709
1026
1222
1140
691
16
-691
-1255
-1551
-1642
-1601
-1358
-871
-363
-92
-212
-734
-1213
-1201
-696
115
727
724
372
57
-55
95
342
498
496
330
109
-92
-427
-1029
-1703
-2165
-2096
-1328
-322
369
483
-31
-645
-816
-496
165
741
872
747
653
734
1013
1177
957
591
397
507
914
1235
1096
533
-264
-905
-1067
-894
-663
-712
-1235
-1786
-1853
-1282
-125
1086
1824
2035
1845
1629
1711
1969
2154
1957
1222
464
238
571
1246
1582
1027
15
-821
-1031
-426
325
498
-10
-1008
-1780
-1715
-1147
-580
-250
-202
12
768
1651
2102
1765
566
-663
-1087
-766
-67
332
-77
-805
-1214
-1072
-372
401
760
698
356
-5
-172
-229
-315
-493
-758
-922
-832
-669
-652
-827
-1141
-1330
-1138
-563
286
1095
1537
1432
727
-268
-1172
-1680
-1600
-1116
-508
-70
-21
-262
-604
-800
-664
-317
55
311
381
435
620
749
609
203
-359
-766
-764
-529
-324
-327
-624
-1015
-1261
-1255
-964
-532
-118
225
492
745
1034
1279
1395
1416
1379
1202
854
615
754
1175
1667
1914
1688
1201
731
358
77
-265
-783
-1307
-1624
-1641
-1346
-940
-642
-529
-582
-546
-205
261
625
852
963
998
1002
1017
1066
1113
1131
1219
1457
1741
1892
1633
792
-266
-1085
-1385
-1073
-624
-576
-1155
-2331
-3368
-3525
-2777
-1363
122
1122
1599
1653
1437
1105
762
481
273
140
129
268
475
604
361
-422
-1255
-1588
-1298
-498
166
97
-583
-1502
-2008
-1601
-667
189
385
-389
-1354
-1660
-1249
-332
615
1180
1473
1661
1602
1154
467
-205
-469
-60
656
1190
1208
545
-434
-1274
-1709
-1606
-1199
-763
-371
-41
215
392
490
538
641
882
1152
1349
1579
1922
2123
1865
912
-731
-2172
-2526
-1831
-492
538
466
-320
-1169
-1568
-1234
-651
-337
-192
24
473
1171
1619
1366
677
-38
-498
-533
-300
-2
289
523
590
414
113
-148
-200
73
577
1142
1489
1401
990
433
-148
-663
-1098
-1435
-1582
-1456
-1087
-548
19
457
631
472
162
-71
-51
283
588
527
191
-226
-568
-720
-727
-668
-617
-597
-445
-41
377
513
211
-521
-1138
-1102
-412
704
1664
1939
1567
781
46
-280
-478
-891
-1494
-2071
-2043
-1024
225
851
777
248
13
648
1537
1923
1666
922
399
679
1290
1578
1222
157
-1003
-1598
-1467
-689
199
678
757
587
360
183
-245
-1170
-2222
-2891
-2727
-1513
96
1339
1888
1644
953
240
-230
-311
-165
11
205
434
660
793
590
-55
-552
-312
566
1685
2148
1230
-600
-2533
-3593
-3093
-1674
-265
390
-134
-1153
-1840
-1912
-1333
-525
101
636
1245
1883
2385
2299
1292
-199
-1543
-2085
-1429
-240
665
920
423
-307
-730
-836
-744
-560
-342
13
600
1301
1924
2169
1791
885
-294
-1170
-1251
-693
144
732
663
195
-277
-473
-250
96
252
277
307
440
682
743
363
-285
-909
-1160
-782
61
1063
1780
1865
1509
1029
704
697
734
516
65
-483
-859
-861
-678
-560
-584
-724
-699
-302
115
124
-472
-1648
-2728
-3003
-2265
-630
985
1680
1416
481
-403
-599
-245
304
603
308
-419
-1258
-1765
-1595
-906
1
782
1209
1550
2076
2563
2702
2340
1461
432
-345
-714
-662
-522
-605
-817
-966
-874
-441
128
579
735
512
93
-289
-469
-377
-249
-341
-664
-1144
-1602
-1844
-1716
-1156
-417
192
468
318
17
-113
90
705
1633
2634
3092
2487
1094
-534
-1505
-1156
-66
981
1627
1718
1481
1144
557
-412
-1447
-2144
-2205
-1509
-543
121
182
-398
-861
-511
341
1141
1403
881
224
89
253
285
-185
-1303
-2349
-2558
-1849
-462
754
1025
491
-426
-1084
-972
-334
441
1123
1533
1516
980
30
-1091
-1802
-1615
-732
442
1407
1753
1533
947
334
-9
-79
21
71
-95
-304
-337
-141
225
411
137
-306
-525
-308
399
1174
1571
1503
1020
359
-226
-582
-643
-580
-580
-639
-709
-735
-684
-609
-550
-390
-53
238
243
-35
-512
-1022
-1415
-1671
-1766
-1505
-758
184
956
1298
1084
623
265
108
120
7
-476
-1113
-1592
-1673
-1245
-635
-166
323
1007
1660
1966
1650
662
-192
-145
541
1313
1474
602
-465
-765
-90
1357
2481
2326
1387
463
135
643
1103
633
-492
-1673
-2152
-1451
-365
178
-18
-815
-1475
-1330
-590
343
1189
1770
2203
2594
2709
2302
1416
258
-590
-612
71
1104
1840
1715
775
-708
-2188
-3119
-3255
-2556
-1524
-733
-510
-1000
-1859
-2669
-3178
-3186
-2523
-1131
641
2312
3270
3073
2082
866
7
-69
401
998
1227
744
-123
-896
-1169
-726
-44
349
417
259
12
-217
-495
-884
-1248
-1415
-1254
-736
-180
81
-6
-362
-670
-651
-400
-89
196
407
580
735
756
566
405
501
745
940
899
509
-47
-540
-852
-909
-705
-274
279
841
1343
1689
1629
1004
178
-405
-495
-35
456
463
46
-536
-819
-443
319
1066
1506
1474
1205
990
942
1052
990
482
-196
-701
-954
-993
-1042
-1265
-1415
-1238
-879
-583
-590
-1030
-1593
-1918
-1877
-1472
-990
-707
-592
-548
-541
-556
-603
-662
-559
-174
253
449
361
75
16
531
1345
2049
2350
2104
1659
1383
1221
1003
518
-314
-1027
-1130
-607
340
1097
1120
560
-243
-870
-982
-619
31
574
671
386
-82
-420
-385
-149
38
17
-273
-605
-736
-666
-455
-155
179
492
702
642
195
-450
-1039
-1349
-1247
-920
-591
-318
-99
140
442
651
620
436
235
116
110
18
-346
-876
-1369
-1524
-1128
-435
208
548
450
159
-29
15
312
613
699
732
904
1153
1321
1131
452
-153
-111
494
1350
1882
1629
840
-79
-828
-1191
-1216
-1021
-758
-541
-294
55
370
489
346
-61
-570
-983
-1108
-832
-334
160
528
721
874
1113
1324
1364
1194
840
467
223
38
-201
-566
-1069
-1540
-1794
-1771
-1457
-897
-179
496
915
939
519
-90
-581
-742
-427
346
1438
2394
2744
2271
989
-421
-1265
-1457
-1114
-567
-126
198
451
626
692
580
249
-182
-563
-775
-745
-565
-380
-410
-814
-1445
-2040
-2163
-1518
-540
185
218
-599
-1435
-1449
-749
248
833
465
-448
-1294
-1601
-1117
-320
240
461
403
339
488
661
652
597
690
1033
1599
1949
1673
888
-99
-740
-605
9
654
983
814
530
545
839
1260
1553
1489
1071
375
-436
-1173
-1612
-1620
-1457
-1395
-1353
-1162
-641
268
1148
1531
1228
245
-898
-1635
-1727
-1122
-203
578
941
727
86
-710
-1228
-1111
-471
399
945
742
122
-431
-602
-290
-106
-606
-1428
-1993
-1772
-494
1113
2197
2402
1655
540
-313
-719
-662
-325
112
691
1442
2115
2415
2127
1201
162
-448
-601
-431
-225
-204
-180
95
682
1507
2135
2133
1464
310
-659
-850
-477
37
242
-167
-882
-1514
-1975
-2254
-2331
-2180
-1719
-926
-56
578
707
205
-540
-1048
-981
-220
638
959
668
-72
-723
-796
-386
261
870
1207
1242
1023
708
446
233
44
-79
-82
89
407
525
125
-678
-1637
-2396
-2629
-2247
-1294
-119
891
1506
1630
1550
1556
1584
1478
1084
338
-461
-980
-1105
-850
-504
-363
-486
-789
-864
-395
240
578
497
61
-284
-170
87
83
-255
-836
-1247
-1138
-706
-272
-79
-224
-297
89
718
1226
1276
721
181
268
817
1442
1658
1144
352
-158
-149
392
935
943
436
-399
-1226
-1747
-1954
-1908
-1649
-1211
-621
58
613
842
748
393
-133
-735
-1315
-1749
-1788
-1231
-168
1174
2301
2757
2486
1602
499
-405
-884
-858
-657
-624
-739
-876
-835
-502
-176
-146
-273
-309
-33
669
1490
2050
2104
1565
828
344
268
602
1008
1135
913
367
-385
-1167
-1661
-1579
-929
124
1062
1397
1113
365
-487
-1091
-1335
-1186
-677
100
902
1474
1675
1454
1023
640
492
649
793
623
281
8
-26
200
177
-537
-1603
-2493
-2717
-2015
-1009
-393
-268
-512
-714
-549
-344
-526
-1274
-2541
-3607
-3750
-2914
-1366
1
436
396
555
1258
2597
3975
4722
4579
3527
2102
895
163
-16
52
53
8
57
486
1451
2439
2878
2602
1679
682
153
4
-49
-449
-1491
-2716
-3570
-3875
-3607
-2998
-2295
-1553
-783
-1
743
1256
1352
1011
293
-600
-1466
-2244
-2882
-3213
-3085
-2505
-1563
-511
423
1261
2067
2811
3364
3295
2284
760
-698
-1641
-1866
-2010
-2652
-3302
-3265
-2109
288
3059
5305
6994
8253
8998
9015
7780
4956
1284
-2303
-5148
-6783
-7209
-6535
-4823
-2263
401
2389
3338
3130
2218
1060
-443
-2439
-4723
-6923
-8341
-8395
-7274
-5387
-3251
-1324
296
1565
2298
2332
1726
669
-362
-923
-999
-721
-378
-167
241
1223
2810
4810
6482
7143
6888
6040
5049
4282
3619
2864
1973
992
150
-349
-595
-733
-823
-922
-1135
-1485
-1623
-1226
-475
269
407
-538
-2331
-4485
-6213
-6785
-5984
-3879
-1168
1323
2909
3079
1900
-257
-2375
-3411
-2854
-571
2577
5525
7377
7498
6133
3812
1317
-642
-1917
-2532
-2648
-2424
-1889
-1100
-362
15
-60
-554
-1162
-1589
-1849
-2046
-2337
-2799
-3140
-3040
-2420
-1340
-161
746
1277
1420
1267
907
317
-524
-1505
-2444
-2998
-2900
-2338
-1605
-959
-544
-87
721
1923
3393
4597
5039
4765
3982
2990
2036
1055
-15
-904
-1315
-1159
-446
641
1833
2688
2829
2308
1368
564
389
768
1456
2109
2424
2358
1947
1289
505
-269
-889
-1222
-1184
-903
-612
-754
-1734
-3582
-6074
-8329
-9447
-9097
-7262
-4634
-2000
156
1533
2251
2490
2259
1618
1020
937
1526
2742
4054
4954
5516
5947
6402
6901
6984
6194
4580
2304
-513
-3737
-7127
-10300
-12412
-12723
-11380
-8861
-6084
-3865
-2167
-721
790
2514
3861
4197
3434
1802
236
-354
137
1471
2832
3411
2988
1605
-233
-1946
-3119
-3420
-2683
-854
1854
5012
7600
8653
8023
5955
3472
1627
832
1163
1980
2579
2702
2260
1391
257
-1125
-2699
-4098
-4935
-5059
-4442
-3328
-1986
-519
962
2121
2626
2369
1321
-468
-2829
-5193
-6877
-7131
-5494
-2722
185
2462
3568
3620
2828
1118
-1510
-4475
-6989
-8028
-6836
-3993
-453
2656
4446
5179
5350
5241
4991
4366
3236
2229
1991
2465
3331
3918
3645
2645
1243
-194
-1354
-2210
-2782
-2986
-2742
-2078
-1187
-816
-1647
-3552
-6083
-8319
-9402
-9202
-7856
-5865
-3760
-1826
-216
1226
2631
3726
4228
4199
3860
3730
4233
5118
5970
6405
6175
5538
4818
4084
3323
2435
1374
392
-271
-721
-1150
-1758
-2624
-3316
-3389
-2843
-1876
-1022
-724
-724
-617
-126
855
1872
2443
2530
2259
1950
1862
1783
1437
735
-270
-1137
-1457
-1319
-930
-467
-34
504
1223
1702
1480
435
-1336
-3199
-4447
-4652
-3616
-1817
113
1571
2120
1934
1319
475
-478
-1639
-3085
-4582
-5793
-6293
-5741
-4240
-2050
357
2490
3988
4612
4496
3865
2943
1952
1106
586
439
582
537
-140
-1380
-2902
-4106
-4442
-3881
-2635
-1350
-643
-574
-995
-1475
-1595
-1266
-514
516
1649
2718
3590
4274
4776
4950
4615
3597
1850
-158
-1922
-3271
-4147
-4596
-4636
-4074
-2716
-575
2175
4906
6923
7690
6906
5034
2739
721
-486
-1062
-1306
-1283
-1049
-870
-1017
-1568
-2460
-3232
-3430
-3009
-2098
-1111
-434
-61
163
575
1443
2554
3638
4667
5676
6709
7683
7992
7037
4763
1408
-2146
-4967
-6552
-6675
-5798
-4477
-2955
-1392
76
1273
1818
1408
260
-1275
-2810
-4013
-4807
-5166
-5014
-4293
-3053
-1455
20
904
1083
602
-235
-1047
-1404
-956
281
2053
3524
3922
3307
2006
573
-503
-1229
-1709
-1945
-1899
-1473
-637
332
1097
1397
1118
665
464
525
729
864
771
579
410
38
-747
-1755
-2709
-3379
-3592
-3361
-2812
-2335
-2286
-2621
-3142
-3444
-3168
-2358
-1163
241
1650
2769
3363
3517
3400
3207
3056
2750
2060
955
-461
-1745
-2462
-2536
-2031
-1181
-183
1100
2774
4494
5797
6203
5398
3744
1763
-58
-1319
-1922
-1905
-1529
-1082
-718
-515
-356
-90
401
1168
2033
2769
3186
3112
2413
1040
-756
-2583
-3791
-3841
-2916
-1388
336
1904
3210
4157
4436
3800
2466
750
-1077
-2750
-3966
-4458
-4135
-3022
-1438
242
1709
2677
2888
2223
1094
-25
-956
-1642
-2209
-2770
-3191
-3306
-3082
-2525
-1669
-589
512
1419
1990
2145
1982
1618
1065
318
-601
-1596
-2308
-2396
-1859
-873
-2
257
45
-356
-725
-927
-1088
-1340
-1574
-1616
-1284
-486
495
1344
2001
2483
2866
3211
3469
3547
3286
2548
1335
-239
-1751
-2765
-3110
-2754
-1941
-958
9
829
1469
1896
1975
1585
769
-296
-1067
-1062
-417
513
1116
890
38
-1036
-1829
-1959
-1652
-1239
-877
-618
-278
276
726
737
350
-247
-668
-614
-335
-163
-203
-447
-661
-620
-348
14
112
-296
-796
-906
-532
230
905
1077
966
913
1106
1614
2176
2498
2492
2190
1922
1982
2244
2457
2304
1569
505
-557
-1430
-2012
-2401
-2716
-2989
-3206
-3255
-3044
-2630
-2114
-1596
-1121
-512
359
1194
1632
1486
727
-211
-851
-1013
-669
-94
415
789
1028
1181
1250
1011
271
-818
-1978
-2774
-2860
-2411
-1693
-813
197
1437
2926
4231
4859
4546
3217
1338
-514
-1881
-2448
-2365
-1895
-1282
-748
-461
-524
-860
-1309
-1571
-1406
-947
-408
41
289
399
458
484
500
617
932
1390
1857
2046
1710
927
-120
-1164
-1940
-2278
-2086
-1477
-637
161
668
817
634
345
186
236
497
812
1030
1173
1273
1227
921
325
-513
-1312
-1804
-2006
-2013
-1957
-1933
-1845
-1597
-1269
-968
-725
-556
-507
-599
-730
-772
-602
-149
470
1084
1488
1512
1151
477
-279
-856
-1035
-693
-63
597
1273
1987
2664
3213
3567
3691
3657
3523
3196
2610
1950
1451
1265
1458
1826
2127
2235
2067
1605
890
144
-419
-807
-1082
-1294
-1486
-1683
-1889
-2043
-2068
-1879
-1462
-1088
-1005
-1093
-1158
-1091
-864
-685
-740
-873
-875
-654
-218
134
98
-366
-1168
-1985
-2520
-2815
-2997
-3191
-3453
-3564
-3288
-2597
-1569
-504
298
749
850
733
556
439
459
564
662
632
394
63
-185
-111
446
1284
2098
2521
2278
1494
433
-510
-996
-1064
-839
-416
139
826
1592
2083
1955
1191
-50
-1231
-1821
-1670
-838
170
832
1005
726
357
244
342
514
635
627
598
659
774
869
869
741
607
614
845
1302
1728
1860
1686
1266
720
153
-448
-1095
-1685
-2098
-2247
-2098
-1774
-1419
-1087
-804
-597
-490
-517
-699
-1004
-1359
-1574
-1464
-963
-94
894
1721
2195
2205
1862
1323
715
134
-400
-859
-1094
-975
-557
29
547
776
655
210
-350
-796
-1001
-919
-719
-574
-456
-293
-42
292
546
555
304
-143
-564
-750
-723
-592
-584
-848
-1107
-1051
-654
-19
525
683
523
229
100
379
978
1714
2369
2752
2838
2642
2184
1525
886
527
695
1480
2366
2776
2518
1601
481
-351
-686
-485
-117
14
-235
-868
-1599
-2130
-2402
-2416
-2165
-1647
-876
63
824
1056
662
-329
-1630
-2888
-3765
-4001
-3640
-2811
-1675
-418
703
1464
1851
1919
1805
1613
1241
569
-408
-1580
-2517
-2796
-2348
-1264
85
1311
2235
2737
2741
2234
1427
577
-95
-439
-531
-481
-285
69
520
972
1256
1239
1013
722
491
391
286
28
-378
-853
-1175
-1168
-966
-742
-498
-196
198
670
1001
968
515
-318
-1271
-2055
-2470
-2416
-2096
-1752
-1490
-1332
-1112
-667
-37
667
1243
1520
1544
1422
1294
