Origin Time       2016/04/11 11:00:05.000
Lat.              36.103
Long.             139.664
Depth. (km)       90
Mag.              4.8
Station Code      DXNSFQST
Station Lat.      36.054
Station Long.     139.3912
Station Height(m) 0
Record Time       2016/04/11 11:00:05.000
Sampling Freq(Hz) 200Hz
Duration Time(s)  0
Dir.              0
Scale Factor      3920(gal)/6170801
Max. Acc. (gal)   0
Last Correction   2016/04/11 11:00:05.000
Memo.   
[...]
-20
-8
-3
-15
-41
-74
-111
-144
-154
-127
-78
-30
-1
-1
-22
-50
-83
-118
-158
-205
-248
-272
-273
-251
-214
-170
-138
-130
-129
-113
-48
81
225
321
317
186
-30
-266
-447
-511
-460
-314
-107
123
347
536
641
620
481
255
18
-152
-233
-219
-131
1
137
241
284
266
272
393
649
1021
1400
1663
1733
1557
1147
552
-91
-634
-966
-1030
-938
-833
-803
-888
-993
-1009
-920
-752
-611
-587
-631
-659
-602
-422
-192
10
188
367
574
824
1087
1318
1447
1413
1215
873
440
-22
-453
-800
-1038
-1164
-1212
-1222
-1227
-1224
-1094
-737
-233
297
781
1153
1349
1320
1097
744
390
150
30
12
94
245
306
137
-195
-584
-989
-1392
-1817
-2269
-2629
-2755
-2536
-1936
-1166
-454
170
722
1190
1552
1751
1760
1695
1677
1711
1750
1670
1399
1157
1179
1460
1857
1902
1196
-77
-1570
-2861
-3590
-3694
-3218
-2311
-1170
-78
697
1028
898
603
488
782
1587
2594
3395
3598
2945
1717
308
-978
-1906
-2427
-2557
-2378
-2015
-1674
-1545
-1636
-1870
-1982
-1719
-1064
-125
734
1200
1445
1760
2439
3604
4705
5116
4601
3148
1250
-507
-1697
-2023
-1547
-513
467
806
387
-711
-2108
-3381
-4242
-4454
-3840
-2372
-555
1007
1853
1730
1078
456
211
521
1107
1614
1852
1694
1099
109
-989
-1894
-2463
-2653
-2634
-2585
-2482
-2270
-1951
-1557
-1189
-907
-533
110
976
1944
2807
3363
3510
3203
2524
1641
930
749
1167
2075
2938
3205
2679
1363
-317
-1862
-2927
-3276
-2965
-2174
-1287
-681
-495
-749
-1239
-1704
-1891
-1636
-1130
-587
11
719
1494
2239
2747
2803
2260
1076
-466
-2000
-3162
-3678
-3636
-3197
-2441
-1490
-717
-459
-637
-1026
-1218
-867
-58
993
1982
2608
2663
2047
979
-202
-981
-933
-137
1145
2449
3362
3886
4099
3965
3450
2643
1680
752
15
-583
-1114
-1510
-1683
-1591
-1254
-903
-788
-1037
-1657
-2297
-2593
-2469
-1967
-1309
-694
-64
670
1450
2183
2763
3082
3010
2446
1436
139
-964
-1439
-1361
-955
-528
-367
-580
-1194
-2062
-2957
-3493
-3343
-2568
-1369
-113
864
1495
1805
1894
1835
1527
917
309
21
58
329
655
863
874
650
237
-301
-911
-1526
-2021
-2289
-2336
-2171
-1686
-784
474
1909
3009
3301
2778
1654
550
53
197
816
1502
1849
1722
1102
191
-744
-1366
-1441
-1214
-1020
-1091
-1551
-2198
-2750
-2929
-2546
-1775
-876
-89
395
564
479
316
266
463
968
1586
2080
2283
2106
1728
1329
854
230
-444
-1029
-1413
-1508
-1314
-868
-282
310
764
954
851
489
65
-195
-121
378
1120
1839
2214
1980
1168
-56
-1272
-2062
-2259
-1825
-987
-40
713
1054
1114
1040
706
13
-730
-1156
-1053
-365
500
1097
1285
1058
638
290
234
567
945
981
567
-262
-1154
-1724
-1745
-1164
-439
-73
-218
-867
-1728
-2465
-2855
-2758
-2237
-1434
-592
57
432
520
411
237
182
380
718
1018
1096
851
512
347
450
785
988
716
59
-751
-1342
-1385
-870
49
882
1170
931
332
-330
-771
-892
-670
-191
425
1044
1573
2099
2672
3025
2876
2217
1160
40
-804
-1233
-1210
-908
-564
-458
-793
-1399
-1999
-2229
-1832
-1042
-188
519
939
1117
1146
1138
1165
1118
852
260
-690
-1745
-2619
-3161
-3263
-2860
-1956
-789
354
1247
1739
1931
1960
1872
1693
1477
1282
1154
1098
959
590
38
-585
-1096
-1352
-1433
-1453
-1432
-1358
-1192
-896
-447
145
768
1280
1515
1370
1008
630
325
137
46
6
-54
-190
-368
-523
-568
-470
-430
-635
-971
-1225
-1083
-335
684
1538
1921
1660
975
178
-449
-711
-733
-702
-759
-981
-1239
-1362
-1210
-724
-122
377
833
1338
1828
2178
2173
1673
930
273
-62
33
231
177
-173
-744
-1299
-1596
-1540
-1114
-490
143
686
1068
1213
1080
753
359
75
33
143
262
270
89
-187
-435
-602
-664
-657
-636
-667
-796
-962
-1077
-1051
-828
-506
-207
10
102
50
-155
-494
-917
-1279
-1434
-1330
-975
-527
-163
24
13
-10
161
600
1309
2132
2871
3313
3286
2790
1877
636
-782
-2028
-2772
-2978
-2711
-2158
-1513
-872
-297
202
654
1199
1946
2767
3481
3903
3887
3424
2558
1414
128
-1199
-2440
-3328
-3637
-3438
-2889
-2193
-1510
-789
44
933
1752
2220
2133
1746
1376
1136
1045
958
729
370
-74
-583
-1108
-1446
-1426
-1164
-839
-612
-584
-655
-683
-571
-292
-73
-133
-413
-770
-999
-935
-642
-242
120
317
307
100
-160
-332
-411
-415
-325
-138
51
130
3
-369
-807
-1102
-1140
-855
-294
443
1154
1654
1933
2017
1892
1550
1048
487
94
70
381
898
1335
1415
1056
275
-722
-1666
-2231
-2167
-1600
-773
-48
291
372
410
558
893
1269
1501
1495
1202
682
43
-528
-856
-914
-758
-649
-833
-1311
-1961
-2439
-2425
-1933
-1105
-280
224
350
148
-176
-388
-288
227
933
1543
1849
1738
1387
1020
756
653
623
561
428
235
119
161
88
-367
-1078
-1792
-2139
-1843
-1132
-320
406
902
1045
783
317
-107
-298
-120
414
1203
1953
2384
2462
2225
1750
1130
484
-77
-491
-756
-1051
-1547
-2205
-2892
-3307
-3188
-2591
-1661
-580
446
1145
1319
1109
740
421
310
375
523
600
492
296
146
126
279
548
850
1095
1185
989
454
-132
-464
-515
-379
-360
-699
-1184
-1504
-1421
-796
186
1233
1976
2108
1669
820
-116
-807
-1045
-755
-297
-57
-107
-407
-781
-1065
-1290
-1490
-1529
-1295
-940
-662
-575
-700
-767
-519
-26
575
1214
1857
2540
3258
3780
3848
3335
2194
560
-1353
-3208
-4636
-5292
-4964
-3969
-2753
-1751
-1296
-1306
-1559
-1673
-1286
-268
1344
3109
4542
5403
5575
5197
4452
3451
2281
1015
-257
-1344
-2051
-2260
-1968
-1580
-1468
-1483
-1361
-890
-12
782
1007
769
331
-17
-27
340
1021
1735
2158
1989
1052
-363
-1832
-2863
-3045
-2335
-910
563
1392
1295
243
-1200
-2403
-3074
-3082
-2586
-1844
-1228
-1015
-1006
-923
-664
-193
424
1106
1808
2489
3096
3599
4080
4555
4683
4129
2948
1351
-216
-1373
-2240
-3024
-3776
-4459
-4834
-4675
-4010
-2915
-1403
428
2103
3126
3318
2684
1657
726
173
169
639
1394
2032
2177
1760
865
-138
-855
-1081
-757
-226
139
216
-18
-439
-912
-1394
-1852
-2182
-2286
-2136
-1792
-1594
-1825
-2260
-2581
-2628
-2287
-1487
-246
1112
2235
2968
3277
3397
3578
3850
4140
4168
3669
2636
1191
-289
-1425
-2103
-2299
-2090
-1594
-1026
-592
-405
-493
-658
-670
-387
259
1124
1986
2514
2442
1877
1047
287
-102
-49
370
721
579
-91
-1159
-2226
-2905
-3104
-2863
-2422
-2021
-1671
-1330
-955
-517
-48
422
924
1456
1825
1853
1585
1157
821
750
666
288
-224
-629
-794
-697
-644
-926
-1447
-2036
-2612
-3057
-3020
-2172
-524
1699
3721
4768
4601
3276
1497
35
-703
-559
-8
392
360
-220
-1099
-1973
-2694
-3159
-3287
-3016
-2325
-1250
-12
1108
1757
1659
915
-178
-932
-713
478
2364
4179
5151
4984
3639
1652
-299
-1529
-1554
-708
427
1071
629
-583
-2031
-3227
-3780
-3642
-2889
-1753
-495
670
1558
2061
2109
1715
989
355
195
421
810
1079
1036
904
949
1204
1617
2012
2192
1969
1242
224
-817
-1716
-2354
-2698
-2746
-2527
-2101
-1602
-1147
-706
-261
-1
-80
-321
-467
-273
357
936
964
458
-384
-1158
-1478
-1228
-438
541
1314
1633
1363
688
-113
-681
-757
-554
-392
-533
-1103
-1728
-1977
-1679
-835
122
744
954
820
642
710
1032
1533
2066
2491
2769
2875
2754
2361
1744
992
271
-291
-776
-1299
-1900
-2543
-2996
-3028
-2626
-1856
-854
214
1167
1824
2034
1730
1132
522
131
90
199
179
-224
-1154
-2345
-3430
-4063
-3977
-3196
-1872
-365
946
1809
2061
1749
1013
149
-543
-883
-767
-259
484
1121
1344
1189
791
354
82
131
599
1405
2368
3089
3204
2710
1729
529
-639
-1741
-2765
-3568
-4019
-4169
-4086
-3742
-3087
-2088
-782
551
1621
2336
2704
2904
3137
3500
4002
4390
4375
3793
2593
1051
-464
-1552
-1910
-1667
-1060
-342
261
639
731
581
256
-171
-640
-1125
-1604
-2057
-2459
-2773
-2949
-2880
-2458
-1639
-453
832
1900
2471
2372
1829
1149
562
225
59
-60
-201
-372
-387
-87
406
905
1250
1337
1243
1070
818
471
40
-457
-1004
-1584
-2170
-2698
-2940
-2714
-2174
-1531
-895
-351
5
85
-146
-652
-1173
-1409
-1151
-303
867
2006
2801
3049
2954
2771
2542
2239
1752
989
-11
-1152
-2243
-3095
-3628
-3796
-3599
-3046
-2134
-891
509
1841
2815
3193
3006
2382
1584
893
549
684
1059
1372
1448
1203
785
386
143
113
95
-170
-885
-2108
-3357
-4075
-3945
-2834
-1101
764
2234
2913
2963
2667
2262
1942
1801
1853
1906
1739
1221
303
-832
-1951
-2848
-3346
-3347
-2848
-2137
-1539
-1242
-1349
-1760
-2317
-2836
-3111
-2885
-1993
-684
707
1925
2794
3361
3703
3780
3533
2942
2041
1025
147
-304
-124
502
1264
1752
1646
1084
337
-244
-403
-347
-373
-678
-1329
-1968
-2216
-2036
-1507
-809
-133
421
791
991
1055
1020
903
643
212
-198
-387
-340
-108
175
376
444
359
123
-246
-711
-1205
-1572
-1650
-1337
-608
302
1084
1398
1007
126
-905
-1690
-1906
-1581
-866
-41
600
835
539
-114
-862
-1383
-1429
-1109
-565
281
1470
2682
3527
3722
3109
1953
637
-412
-844
-679
-81
574
906
707
-71
-1030
-1732
-2032
-1924
-1667
-1508
-1383
-1151
-657
188
1189
2075
2562
2430
1734
616
-714
-2010
-2958
-3289
-2984
-2154
-1189
-464
-26
214
539
1183
1969
2611
2802
2323
1324
90
-947
-1422
-1391
-1047
-702
-638
-873
-1302
-1570
-1329
-512
768
1969
2561
2511
1957
1243
707
481
602
945
1346
1639
1676
1373
715
-98
-828
-1295
-1384
-1198
-881
-547
-301
-267
-529
-987
-1464
-1664
-1356
-703
32
564
668
356
-261
-926
-1390
-1570
-1455
-1157
-815
-571
-529
-644
-821
-925
-848
-636
-365
-81
186
459
783
1254
1921
2613
3114
3266
2989
2486
1969
1418
773
41
-726
-1359
-1691
-1665
-1273
-593
222
824
918
615
150
-150
-31
376
825
974
560
-282
-1272
-1953
-1964
-1520
-965
-580
-558
-797
-1100
-1181
-801
-10
1002
1763
1872
1484
854
95
-714
-1465
-2041
-2291
-2126
-1727
-1285
-772
-126
631
1445
2223
2864
3252
3270
2805
1804
467
-955
-2254
-3250
-3829
-3917
-3529
-2735
-1726
-697
279
1147
1818
2204
2282
2087
1853
1808
1976
2285
2466
2259
1623
651
-257
-737
-869
-850
-892
-1156
-1562
-2004
-2494
-3006
-3241
-2914
-2065
-879
203
796
993
1009
1071
1340
1705
2004
2142
2069
1843
1534
1157
710
193
-385
-975
-1516
-1931
-2154
-2166
-1983
-1717
-1488
-1337
-1242
-1001
-399
649
2109
3593
4682
5207
5139
4771
4435
4265
4281
4233
3875
3248
2468
1665
933
196
-606
-1317
-1755
-1854
-1587
-939
39
1066
1866
2415
2757
2966
3105
3165
3126
2971
2648
1936
651
-1082
-3020
-4758
-5941
-6579
-6779
-6646
-6269
-5676
-4882
-3922
-2858
-1829
-952
-156
666
1571
2531
3233
3315
2508
703
-1665
-4021
-5771
-6463
-6238
-5420
-4484
-3883
-3833
-4387
-5190
-5826
-6056
-5718
-4776
-3260
-1335
783
2813
4516
5887
7028
8220
9710
11407
13106
14478
15199
15090
14043
12080
9302
5993
2485
-884
-3834
-6331
-8408
-10102
-11453
-12471
-13145
-13376
-13050
-12056
-10281
-7593
-3962
225
4486
8371
11494
13689
14872
15080
14442
13309
12005
10518
8744
6559
3917
1103
-1529
-3704
-5227
-6177
-6679
-6784
-6505
-5785
-4642
-3483
-2833
-3301
-5337
-8691
-12838
-16869
-19881
-21381
-21100
-19278
-16318
-12797
-9288
-6174
-3678
-1567
462
2524
4655
6764
8696
10189
10859
9943
6854
2075
-3462
-8124
-10456
-10402
-8456
-5897
-3974
-3054
-3153
-3779
-4336
-4325
-3365
-1436
1341
4666
8276
12251
16596
20687
23752
25057
24041
20795
15593
8802
923
-7091
-14147
-19045
-20802
-19432
-15369
-9735
-3809
1171
4245
5511
5522
5572
6878
9591
13391
17146
19623
19999
17774
13337
7447
1476
-3259
-6271
-7504
-7817
-8129
-8692
-9484
-10033
-9917
-9363
-8761
-8515
-8807
-8922
-7961
-5176
-147
6403
13349
19116
22285
22532
19938
15124
8902
2305
-3615
-7956
-10106
-10459
-9709
-8739
-8312
-8534
-9303
-10343
-11394
-12426
-13421
-14160
-14275
-12983
-9591
-4180
2645
8930
12629
12655
8673
2385
-4026
-8500
-9465
-7178
-2481
3282
8750
13008
15377
15712
14085
10937
6892
2954
106
-1137
-599
1007
2725
3509
2577
302
-2534
-4681
-5021
-3430
-223
3527
6667
8455
8400
6575
3301
-677
-4544
-7610
-9335
-9671
-8761
-7027
-4880
-2413
372
3498
6837
9617
11031
10775
8898
6354
4133
2451
1219
-97
-2024
-4608
-7698
-10834
-13458
-14913
-14730
-13284
-11099
-8457
-5441
-1606
3402
9034
14416
18282
19484
17747
13249
7122
672
-5048
-9181
-11411
-11606
-9846
-6427
-2297
1495
4166
5312
5802
6633
8067
9881
10660
8933
4193
-3311
-11261
-17078
-19183
-16833
-11618
-5654
-827
1487
1709
844
406
1646
4233
7388
10117
11484
11008
8488
4410
-527
-5462
-9578
-12381
-13514
-12847
-10362
-6283
-993
4729
10034
14169
16606
17628
17702
17229
16574
16016
15547
14087
10509
4566
-3491
-12318
-20349
-26236
-28963
-28615
-25656
-20957
-15486
-10206
-5887
-2546
110
2840
6224
9674
12336
13467
12651
10648
8410
6476
5163
4320
3597
2316
-126
-3724
-8153
-12446
-15581
-16966
-16314
-14129
-11093
-7817
-4768
-1911
879
3585
6157
8557
10675
12086
12311
10961
7879
3761
-511
-4152
-6517
-7426
-6920
-5449
-3499
-1286
1126
4002
7487
10896
13417
14554
14014
12002
8957
5764
3205
1215
-436
-1779
-2744
-3040
-2463
-1370
-324
-160
-1562
-4332
-7902
-11134
-12958
-13174
-11903
-9679
-7125
-4813
-3127
-1755
-219
1945
4940
7954
10046
10792
10031
8143
5581
2551
-768
-4051
-6914
-8875
-9572
-9215
-8209
-7165
-6616
-6582
-6806
-6439
-4588
-779
5033
11608
17394
20869
20820
17213
10551
2300
-5823
-12043
-14923
-14438
-11166
-6704
-2726
-210
315
-582
-1965
-2518
-1151
1958
6091
9654
11075
9746
5638
72
-5423
-9828
-12462
-13468
-13286
-12710
-12369
-11881
-10619
-7991
-3628
1977
8045
13507
17377
19293
19188
17536
14906
11701
8283
5007
2206
115
-1203
-2269
-3629
-5329
-7129
-8129
-7457
-5025
-1176
2789
5491
6192
4644
1924
-628
-1944
-1339
617
2948
4311
3623
1200
-2216
-5594
-7988
-9075
-8703
-6783
-3377
906
5299
8944
11129
11813
11125
9217
6345
3180
351
-2091
-4219
-6028
-7433
-8106
-7781
-6671
-5149
-3749
-2943
-2796
-3275
-4369
-5934
-7262
-7625
-6753
-4623
-1738
1293
3958
5823
6658
6366
5156
3370
1570
355
279
1672
4035
6639
8660
9443
9081
7914
6498
5325
4411
3563
2222
-87
-3141
-6436
-9043
-10095
-9422
-7211
-4394
-1940
-223
562
332
-905
-2903
-5261
-7195
-7963
-7354
-5474
-3140
-1232
-147
-28
-479
-981
-1060
-379
918
2529
4022
5075
5934
6935
8203
9664
10648
10426
8627
5162
734
-3727
-7171
-8732
-8418
-6546
-3782
-856
1599
3094
3607
3298
2563
1822
1337
1245
1315
1228
681
-543
-2314
-4362
-6175
-7247
-7323
-6314
-4551
-2487
-645
535
1026
950
603
275
52
-100
-478
-1367
-2726
-4331
-5545
-5723
-4595
-2119
1211
4713
7486
8703
8049
5466
1414
-3382
-7660
-10193
-10445
-8221
-4006
1442
6970
11465
14383
15474
15100
13734
11674
9150
6277
3224
474
-1534
-2852
-3697
-4446
-5420
-6535
-7585
-8276
-8365
-7915
-7089
-6137
-5230
-4124
-2519
-302
2503
5501
8236
10361
11630
12090
11862
11068
9765
7731
4762
1001
-3227
-7229
-10308
-12118
-12550
-12084
-11302
-10603
-10248
-10130
-10052
-9822
-9272
-8329
-6976
-5311
-3480
-1706
-167
1202
2544
4072
5913
7793
9313
10008
9492
7783
5070
1819
-1434
-4164
-5896
-6350
-5374
-3134
60
3640
7028
9857
11886
13150
13706
13417
12128
9807
6527
2660
-1337
-4966
-7752
-9343
-9540
-8611
-7006
-5413
-4408
-3880
-3536
-3047
-2237
-1581
-1602
-2351
-3640
-4788
-5083
-4175
-1965
1007
4043
6457
7688
7689
6666
5349
4442
4019
3941
3842
3396
2689
1924
1365
1216
1385
1675
1762
1337
273
-1407
-3281
-4768
-5062
-3588
-897
2162
4664
5862
5771
4615
2667
204
-2548
-5335
-7726
-9281
-9686
-8786
-6948
-4713
-2794
-1814
-1851
-2741
-3902
-4717
-4834
-4086
-2759
-1260
-14
613
507
-306
-1500
-2658
-3298
-3038
-1952
-337
1093
1653
1199
-184
-2027
-3757
-4769
-4559
-3044
-346
3026
6486
9513
11673
12787
12799
11884
10250
8008
5281
2316
-580
-2994
-4543
-5065
-4543
-3317
-1821
-485
377
912
1340
1701
1970
2021
1710
909
-430
-2029
-3515
-4446
-4452
-3498
-1746
199
1755
2888
3730
4551
5571
6705
7742
8293
7977
6633
4273
1374
-1489
-3805
-5179
-5604
-5234
-4470
-3737
-3300
-3337
-3841
-4679
-5403
-5592
-5260
-4568
-3851
-3389
-3083
-2757
-2310
-1684
-914
-44
946
2033
2971
3502
3536
3040
2025
553
-1171
-2860
-4062
-4381
-3804
-2495
-916
434
1221
1244
672
-247
-1301
-2320
-3262
-4119
-4890
-5490
-5484
-4454
-2402
473
3601
6383
8486
9681
9878
9061
7351
4969
2390
109
-1556
-2416
-2607
-2335
-1739
-932
16
1061
2235
3518
4625
5235
5138
4218
2616
588
-1397
-2858
-3454
-3002
-1778
-196
1245
2118
2345
1984
1295
544
-189
-855
-1350
-1585
-1570
-1337
-924
-390
110
427
535
454
279
95
-123
-393
-622
-693
-496
34
799
1621
2166
2166
1788
1289
843
517
16
-957
-2342
-3964
-5552
-6818
-7506
-7431
-6657
-5310
-3510
-1416
671
2418
3497
3680
3137
2139
965
-137
-1048
-1693
-2055
-2129
-1913
-1430
-783
-120
319
363
211
151
449
1262
2337
3343
4052
4319
4248
3977
3543
2926
1981
622
-875
-2174
-3080
-3475
-3422
-3047
-2539
-2035
-1413
-539
490
1479
2047
1885
1157
139
-923
-1817
-2453
-2781
-2792
-2508
-2023
-1410
-599
487
1807
3255
4602
5582
5931
5483
4480
3261
2140
1367
960
850
863
808
536
-33
-760
-1450
-1887
-1928
-1727
-1450
-1008
-324
373
803
810
327
-460
-1296
-1918
-2134
-2059
-1922
-2094
-2814
-3635
-3992
-3528
-2104
-238
1434
2472
2686
2676
3090
3955
5076
6002
6260
5563
3809
1454
-900
-2615
-3235
-3076
-2623
-2272
-2251
-2205
-1763
-1072
-402
-5
-23
-160
-95
175
520
615
163
-828
-2226
-3714
-4959
-5758
-5949
-5417
-4149
-2499
-852
631
1842
2650
2931
2616
1725
591
-406
-989
-976
-477
325
1226
2025
2572
2749
2537
1965
1180
344
-411
-958
-1172
-960
-390
396
1107
1489
1580
1516
1521
1790
2331
3028
3480
3262
2145
89
-2392
-4639
-5965
-5844
-4444
-2159
387
2577
4054
4625
4508
4002
3323
2620
1862
969
-140
-1517
-3101
-4759
-6187
-7040
-6974
-5758
-3616
-947
1581
3349
4182
4127
3680
3351
3260
3365
3381
3033
2325
1346
239
-843
