Origin Time       2016/04/11 11:00:05.000
Lat.              36.103
Long.             139.664
Depth. (km)       90
Mag.              4.8
Station Code      DXNSFQST
Station Lat.      36.054
Station Long.     139.3912
Station Height(m) 0
Record Time       2016/04/11 11:00:05.000
Sampling Freq(Hz) 200Hz
Duration Time(s)  0
Dir.              0
Scale Factor      3920(gal)/6170801
Max. Acc. (gal)   0
Last Correction   2016/04/11 11:00:05.000
Memo.   
[...]
24
21
8
-6
-6
-1
3
6
11
14
14
12
9
5
0
-1
6
15
18
18
18
15
5
-3
-1
0
-8
-9
9
28
28
20
16
11
2
-7
-8
-7
-10
-10
-2
9
16
21
27
31
30
20
0
-16
-20
-12
0
9
14
11
2
-7
-12
-10
1
12
16
13
7
3
5
5
-3
-11
-9
2
15
22
16
8
8
13
16
18
19
18
14
6
-6
-15
-17
-14
-12
-9
-4
1
2
4
11
18
18
15
16
16
11
5
3
4
6
6
5
3
3
5
9
13
16
14
9
6
10
15
14
7
-1
-7
-7
-1
7
10
3
-3
6
17
16
9
5
2
0
-1
-3
-6
-12
-14
-9
-1
5
8
13
15
12
6
2
1
3
7
13
18
19
16
9
0
-4
-4
-1
4
7
6
-2
-7
-6
0
4
4
1
-3
-6
-6
-4
0
5
8
8
8
11
11
6
1
5
11
12
9
3
0
4
11
15
13
6
-2
-7
-5
2
9
12
11
5
0
0
1
2
-3
-15
-24
-19
-4
10
14
3
-10
-14
-7
4
14
20
20
17
12
8
3
-2
-4
-2
3
6
6
5
3
4
10
23
29
21
6
-4
-6
1
10
14
11
3
-6
-11
-10
-3
3
3
2
7
13
15
12
5
-1
-1
1
-1
-4
-3
0
3
3
0
-2
4
9
9
6
5
5
6
5
1
-3
-3
-1
3
6
6
3
0
-1
-1
-1
-4
-6
-3
0
1
-2
-7
-7
2
12
14
8
-3
-12
-10
-3
6
12
10
8
8
9
6
-1
-11
-16
-12
-6
-7
-13
-17
-18
-15
-7
2
8
6
1
1
4
6
8
12
15
15
11
5
1
2
3
1
-3
-2
-2
-7
-13
-16
-15
-13
-13
-16
-14
-2
9
7
1
3
4
-1
-4
3
11
12
9
7
8
12
15
12
6
1
2
11
17
13
4
-2
-3
2
4
-2
-10
-10
-2
10
17
13
3
-7
-12
-11
-6
1
7
8
2
-8
-16
-15
-7
6
15
17
16
17
17
14
9
5
2
-1
-1
-1
-2
-6
-7
-1
7
11
17
28
34
23
6
-6
-9
-7
0
7
11
7
4
8
11
7
5
11
18
17
15
19
19
4
-13
-20
-13
3
17
22
18
9
3
6
9
10
14
26
35
29
17
11
9
12
16
18
17
10
2
-3
-9
-15
-16
-5
6
8
5
3
3
1
-1
-3
-1
7
17
24
28
26
18
4
-6
-6
-2
-5
-6
1
8
6
0
-1
2
4
1
-11
-24
-27
-21
-9
6
21
29
26
16
4
-10
-28
-51
-81
-114
-148
-176
-196
-210
-218
-214
-190
-147
-89
-33
4
20
15
-17
-80
-161
-246
-304
-311
-276
-213
-123
-7
127
269
411
543
648
709
736
739
713
650
547
411
283
205
184
217
306
448
622
789
858
748
476
90
-317
-670
-1005
-1362
-1705
-1969
-2072
-1965
-1768
-1603
-1444
-1230
-887
-380
180
678
1117
1516
1842
2053
2121
2033
1800
1450
1050
685
457
429
483
490
465
452
471
513
479
278
-53
-447
-848
-1197
-1418
-1442
-1256
-891
-500
-218
-1
214
400
514
546
502
408
289
141
-37
-202
-314
-390
-455
-490
-488
-523
-667
-911
-1211
-1463
-1560
-1456
-1146
-728
-327
-68
-15
6
170
423
647
698
511
362
527
938
1441
1871
2111
2236
2298
2077
1370
307
-873
-1847
-2368
-2579
-2688
-2771
-2830
-2677
-2148
-1344
-422
502
1338
2046
2564
2685
2245
1373
302
-632
-1143
-1257
-1071
-668
-152
256
362
201
-109
-325
-287
-271
-582
-1185
-1898
-2266
-1906
-976
226
1376
2199
2629
2669
2384
1885
1418
1179
1031
794
463
98
-142
-156
-197
-498
-884
-1102
-1016
-582
-1
517
997
1447
1602
1209
377
-647
-1389
-1468
-1104
-608
-77
451
936
1306
1328
848
158
-392
-681
-700
-671
-811
-1090
-1427
-1786
-2111
-2221
-1935
-1197
-62
1076
1804
1981
1612
1032
604
486
725
1124
1458
1627
1599
1488
1401
1246
904
347
-399
-1180
-1799
-2007
-1654
-1045
-566
-487
-923
-1487
-1751
-1610
-1081
-355
382
1112
1824
2359
2542
2290
1614
812
204
-96
-82
0
-102
-443
-985
-1510
-1819
-1970
-2030
-1847
-1287
-502
269
719
639
286
-50
-410
-852
-1172
-1117
-502
710
2020
2889
3155
2847
2375
2124
1990
1771
1356
724
133
-200
-492
-1002
-1706
-2464
-2932
-2841
-2414
-1948
-1542
-1220
-892
-478
-53
320
790
1458
2051
2244
1898
1037
145
-309
-389
-296
-238
-364
-560
-688
-773
-861
-928
-941
-898
-833
-873
-1104
-1340
-1372
-1159
-719
-116
590
1402
2304
3119
3650
3790
3502
2926
2216
1383
438
-463
-1164
-1639
-1915
-2099
-2261
-2246
-1890
-1213
-343
359
569
358
-80
-457
-536
-380
-103
291
772
1107
1069
670
30
-537
-733
-518
17
501
576
208
-493
-1173
-1503
-1491
-1244
-925
-687
-579
-596
-629
-536
-160
589
1497
2293
2778
2837
2624
2316
1923
1434
938
508
68
-471
-1101
-1762
-2288
-2533
-2549
-2429
-2219
-1944
-1566
-1072
-586
-221
106
498
962
1452
1810
1909
1858
1793
1716
1582
1283
750
118
-440
-816
-958
-979
-1016
-1126
-1319
-1487
-1516
-1404
-1161
-765
-203
464
1136
1621
1749
1516
995
387
-101
-379
-405
-204
156
503
663
555
164
-357
-813
-999
-789
-356
64
315
303
130
-67
-174
-122
27
181
268
252
206
210
243
275
336
450
553
574
484
297
156
163
143
-98
-537
-1054
-1354
-1176
-549
378
1257
1738
1638
923
-23
-778
-1197
-1246
-1078
-843
-519
-71
396
746
860
672
303
-79
-287
-181
197
730
1176
1288
920
39
-1039
-1936
-2382
-2228
-1692
-1071
-593
-416
-487
-684
-820
-730
-408
90
613
1023
1343
1615
1799
1844
1757
1563
1315
1060
786
482
190
-54
-274
-496
-679
-798
-946
-1201
-1455
-1553
-1316
-643
246
1086
1754
2171
2292
2102
1660
1064
492
124
82
391
750
823
471
-323
-1275
-2082
-2658
-2976
-3021
-2808
-2479
-2174
-1916
-1662
-1205
-380
673
1723
2495
2774
2646
2257
1694
1035
371
-178
-386
-94
518
1173
1560
1453
1005
440
-123
-621
-1128
-1697
-2161
-2341
-2220
-1854
-1411
-1058
-836
-722
-574
-250
247
855
1408
1769
2013
2225
2328
2217
1860
1282
672
218
-42
-136
-204
-365
-555
-681
-703
-620
-499
-430
-513
-809
-1217
-1584
-1734
-1529
-1016
-302
443
1056
1446
1587
1625
1698
1731
1615
1311
809
164
-550
-1237
-1802
-2166
-2278
-2172
-1898
-1475
-902
-117
899
1935
2715
2923
2338
1151
-308
-1579
-2254
-2283
-1789
-1260
-1123
-1219
-1242
-886
13
1039
1722
1944
1743
1430
1302
1349
1423
1170
326
-769
-1662
-2034
-1702
-905
37
901
1512
1788
1725
1547
1464
1412
1263
917
339
-269
-717
-1106
-1563
-2045
-2460
-2691
-2637
-2271
-1618
-828
-60
609
1117
1379
1332
1052
673
441
530
722
741
485
-49
-634
-1022
-1099
-835
-398
3
208
131
-47
-108
51
456
930
1276
1409
1317
1150
1026
765
193
-537
-1176
-1401
-1023
-451
-146
-188
-525
-968
-1295
-1315
-911
-260
393
816
852
630
337
99
8
71
272
586
956
1223
1218
839
82
-715
-1191
-1222
-832
-392
-234
-195
-6
540
1495
2370
2668
2406
1750
951
224
-443
-1087
-1628
-1992
-2256
-2498
-2641
-2561
-2086
-1110
169
1444
2278
2335
1823
1069
357
-126
-549
-1072
-1491
-1575
-1363
-996
-735
-766
-827
-630
-209
331
925
1532
2163
2767
2987
2498
1410
18
-1066
-1303
-754
304
1323
1810
1745
1260
597
-9
-455
-711
-884
-1095
-1373
-1690
-1896
-1851
-1574
-1124
-552
99
816
1579
2304
2878
3127
2915
2315
1466
566
-220
-909
-1540
-2045
-2352
-2477
-2437
-2169
-1623
-882
-98
455
551
272
-217
-723
-1068
-1174
-1000
-572
37
596
881
831
495
205
255
523
787
855
622
314
149
-1
-285
-600
-810
-906
-904
-780
-492
50
843
1459
1483
982
192
-468
-639
-408
35
538
944
1057
744
174
-389
-601
-251
276
512
255
-519
-1389
-1915
-2020
-1745
-1232
-620
50
763
1512
2232
2609
2383
1771
1080
500
143
-66
-221
-319
-373
-594
-1125
-1647
-1791
-1463
-717
69
512
531
159
-419
-987
-1359
-1400
-1133
-654
-189
86
315
691
1293
2082
2652
2604
1910
686
-737
-1991
-2751
-2794
-2242
-1331
-404
253
671
955
1176
1370
1454
1356
1131
856
538
170
-228
-607
-823
-782
-686
-750
-926
-1084
-1029
-593
210
1276
2326
3045
3165
2516
1281
-230
-1530
-2216
-2375
-2241
-2123
-2220
-2229
-1790
-815
624
2116
3232
3803
3769
3248
2405
1426
468
-433
-1261
-1948
-2367
-2223
-1320
-46
1082
1625
1337
680
186
-38
-37
-50
-282
-629
-933
-1115
-1148
-1106
-1059
-959
-738
-356
171
650
887
846
550
78
-474
-1010
-1425
-1591
-1422
-1037
-587
-152
199
380
347
245
230
320
459
443
123
-284
-489
-304
365
1298
2218
2918
3226
3051
2385
1457
525
-275
-877
-1348
-1777
-2191
-2552
-2624
-2188
-1275
-41
1139
1896
2122
1838
1331
898
614
494
528
664
714
473
-180
-1211
-2048
-2141
-1562
-583
369
913
998
670
23
-768
-1260
-1082
-424
377
944
987
597
-39
-732
-1317
-1722
-1906
-1850
-1546
-1003
-299
240
299
-135
-915
-1542
-1574
-1154
-529
221
1051
1875
2587
3036
3115
2939
2622
2045
1090
-122
-1398
-2500
-3220
-3497
-3338
-2851
-2168
-1404
-649
106
873
1580
2155
2599
2904
2944
2583
1788
646
-359
-790
-787
-637
-626
-927
-1265
-1313
-995
-339
462
1171
1530
1364
827
133
-596
-1282
-1912
-2440
-2594
-2163
-1388
-602
-51
125
107
133
336
774
1315
1761
1847
1420
857
564
533
618
518
42
-414
-428
-70
449
827
825
536
139
-202
-368
-429
-461
-373
-73
374
847
1187
1285
1295
1364
1352
1089
567
-129
-722
-1003
-1225
-1684
-2373
-3121
-3388
-2729
-1436
30
1265
1970
2218
2159
1893
1508
1085
705
439
323
253
99
-231
-769
-1331
-1728
-1965
-2083
-2078
-1913
-1475
-685
313
1324
2163
2681
2863
2721
2238
1440
549
-201
-707
-955
-1135
-1441
-1866
-2309
-2506
-2226
-1556
-678
163
762
1141
1359
1399
1257
1060
928
846
760
607
344
21
-314
-715
-1206
-1592
-1662
-1351
-652
349
1516
2592
3300
3381
2683
1479
139
-986
-1658
-2077
-2508
-3033
-3631
-4039
-3993
-3473
-2555
-1479
-492
295
829
1149
1333
1525
1826
2097
2137
1725
765
-308
-1025
-1282
-1108
-690
-226
214
601
958
1280
1415
1219
755
170
-248
-269
-17
313
605
791
913
1021
1095
1114
1121
1153
1176
1134
976
671
271
-137
-410
-439
-315
-186
-235
-564
-936
-1081
-939
-537
-42
392
805
1245
1600
1734
1589
1146
477
-316
-1118
-1808
-2270
-2415
-2261
-1865
-1314
-701
-107
413
893
1353
1672
1749
1718
1735
1824
1930
1814
1251
266
-1004
-2203
-2995
-3318
-3209
-2810
-2264
-1611
-895
-275
108
309
419
487
545
589
612
619
603
480
193
-146
-389
-415
-169
156
353
381
268
148
138
204
280
333
354
385
474
646
894
1103
1140
913
378
-341
-1071
-1604
-1787
-1716
-1546
-1410
-1383
-1336
-1111
-644
64
830
1441
1743
1639
1204
595
113
37
391
1069
1688
1883
1640
1054
332
-310
-703
-768
-728
-827
-1090
-1433
-1552
-1217
-712
-377
-243
-232
-128
227
607
752
652
374
73
-114
-202
-253
-367
-613
-899
-1102
-1143
-969
-588
-39
572
1133
1584
1893
2113
2274
2254
1911
1191
107
-1136
-2258
-2868
-2657
-1761
-492
582
981
835
454
265
570
1056
1296
1025
161
-802
-1333
-1325
-829
-113
526
888
865
615
348
193
184
58
-442
-1232
-2104
-2686
-2667
-2148
-1346
-548
11
377
671
1061
1656
2278
2698
2775
2449
1903
1355
910
576
89
-794
-1955
-3134
-3872
-3805
-3149
-2226
-1206
-172
970
2267
3384
3948
3834
3067
2056
1224
666
334
-68
-800
-1721
-2580
-3079
-2987
-2383
-1436
-353
648
1371
1665
1544
1082
416
-293
-849
-1116
-1229
-1361
-1558
-1818
-2069
-2199
-2033
-1409
-293
1212
2558
3215
3157
2543
1778
1226
836
477
110
-225
-260
233
1104
2063
2642
2453
1591
315
-949
-1816
-2237
-2275
-2115
-1926
-1696
-1365
-867
-177
561
1171
1535
1592
1474
1318
1086
708
145
-590
-1307
-1802
-1990
-1854
-1524
-1172
-992
-1118
-1422
-1719
-1850
-1695
-1256
-592
127
732
1187
1540
2069
2964
3838
4198
3697
2177
89
-1981
-3501
-4070
-3761
-2834
-1817
-1159
-728
-263
407
1332
2151
2510
2479
2238
1997
1915
1940
1943
1707
1083
282
-394
-633
-249
431
1020
1414
1588
1548
1298
801
56
-739
-1374
-1804
-2023
-2045
-1919
-1848
-2012
-2361
-2737
-2781
-2190
-1110
189
1375
2130
2268
1737
911
226
-52
179
525
563
224
-412
-1052
-1384
-1255
-628
226
979
1384
1280
784
71
-735
-1512
-2104
-2382
-2350
-2052
-1539
-865
-73
772
1496
1940
2105
2060
1983
2004
1957
1633
975
26
-905
-1499
-1641
-1318
-698
24
712
1220
1296
769
-95
-926
-1366
-1192
-677
-180
123
155
47
-55
-161
-295
-392
-350
-26
659
1462
2078
2255
1880
1344
1089
1262
1835
2382
2464
1992
1018
-202
-1385
-2351
-2987
-3336
-3459
-3336
-2925
-2171
-1103
-74
555
734
527
155
-186
-531
-945
-1376
-1740
-1967
-2014
-1944
-1845
-1818
-1914
-1977
-1861
-1653
-1490
-1473
-1638
-1809
-1798
-1579
-1181
-681
-167
257
524
721
944
1176
1345
1278
824
12
-1038
-2048
-2743
-3017
-2857
-2450
-2031
-1840
-1996
-2151
-1905
-1116
199
1656
2808
3358
3093
1994
189
-1821
-3554
-4977
-6206
-7503
-9029
-10388
-11111
-10995
-9964
-8185
-5903
-3421
-1028
1115
2895
4268
5207
5678
5682
5368
4890
4279
3559
2841
2247
1845
1669
1675
1851
2404
3539
5227
7319
9427
11163
12366
12952
12911
12282
11231
9969
8778
7888
7287
6909
6739
6780
7065
7594
8215
8757
9137
9308
9275
9057
8650
8073
7448
6965
6973
7782
9377
11563
13730
15198
15403
13896
10572
5474
-1103
-8729
-16680
-24124
-30087
-33752
-35071
-34244
-31703
-27887
-23056
-17521
-11976
-7143
-3458
-1209
-393
-844
-2036
-3388
-4440
-4917
-5147
-5438
-5394
-4420
-1810
2764
8029
12411
14750
14352
11969
8623
4962
1476
-1579
-3996
-5509
-5950
-5614
-4873
-3963
-3016
-1898
-488
1010
2259
2717
1819
-892
-5609
-11592
-17758
-22605
-24737
-23598
-19107
-12237
-4202
3868
11027
16962
21555
24834
26852
27615
27110
25325
22262
17997
12681
6698
564
-4919
-8958
-11091
-11011
-8715
-4436
933
6279
10271
11843
11198
8911
5768
2491
-660
-3507
-5757
-7100
-7273
-6157
-4157
-1850
23
771
67
-2124
-5027
-7721
-9509
-9967
-9556
-8842
-7942
-6759
-4786
-1702
1670
4223
4868
2883
-1004
-5670
-9859
-12578
-14000
-14665
-15405
-16802
-18160
-18470
-16764
-12453
-6403
151
5969
10055
12401
13333
13523
13577
13499
13148
12391
11202
9959
9065
8601
8458
8065
6836
4568
1313
-2238
-5255
-7003
-6992
-5643
-3618
-1637
-322
173
-57
-383
-165
753
2251
3573
3959
3251
1532
-764
-3063
-4590
-4690
-3390
-1052
1323
2773
3151
2619
1768
1144
690
179
-678
-1994
-3099
-3240
-2091
300
2842
4289
3825
1121
-2624
-5912
-7562
-6867
-4696
-2271
-647
-509
-1230
-1852
-1412
720
3843
6968
9300
10324
10469
10236
9489
7874
4816
26
-5425
-10233
-13517
-14750
-14402
-13096
-11075
-8392
-4715
258
6337
13089
19591
24824
27848
27909
24905
19065
11284
2624
-5860
-13265
-19285
-23795
-26800
-28307
-28177
-26304
-22849
-18112
-12689
-7209
-2142
2288
6686
11583
16390
20100
21153
18389
12779
6037
726
-925
1146
6098
11645
15477
16641
14937
11838
8944
6695
4938
2304
-2492
-9176
-16802
-23295
-26688
-26575
-23199
-17835
-11831
-5800
-55
5561
11147
16090
19638
21195
20416
17798
14025
9688
5178
191
-5544
-11474
-16747
-20152
-20688
-18562
-14386
-9210
-4084
366
3698
5777
6585
6239
4985
3434
2189
1448
1231
1246
1237
1410
2000
2873
3783
4405
4406
3521
1631
-855
-3319
-4847
-4703
-3163
-796
1682
3597
4604
4507
3397
1491
-798
-3028
-4845
-6106
-7417
-9492
-12738
-17101
-20971
-22528
-20652
-14875
-6619
2287
10280
16137
19716
21222
21168
20014
17706
14071
8987
2567
-4176
-10066
-14177
-15932
-15880
-14792
-13178
-11278
-8507
-4229
1574
8531
15328
20546
23265
22972
20263
16082
11645
8013
5366
3462
1268
-2214
-7044
-12757
-17733
-20279
-19578
-15413
-9098
-2263
3733
7826
9868
10055
9043
7595
6464
6248
6943
8223
9068
8471
6175
2313
-2163
-6215
-9262
-11028
-11999
-12764
-13555
-14312
-14157
-12225
-8513
-3406
2031
6791
10781
14150
17105
19747
21704
22482
21568
18660
14301
9205
3913
-1206
-6290
-11541
-16889
-22072
-26338
-28889
-29228
-27091
-22840
-17097
-10903
-5289
-813
2203
3900
4498
4068
2669
467
-2257
-4847
-6642
-7321
-6786
-5479
-3841
-1762
910
3943
7029
9931
12502
14878
17149
18943
19790
19289
17146
13424
8415
2956
-2059
-6071
-8788
-10642
-12150
-13432
-14393
-14463
-13053
-9953
-5214
458
6149
10758
13324
13637
11834
8716
5124
1430
-2157
-5582
-8638
-10355
-9784
-6827
-1936
3116
6534
7773
6951
5582
5237
6329
8664
10804
11299
9907
6884
3254
50
-2432
-4152
-5372
-6337
-6942
-7038
-6657
-5919
-5108
-4449
-3763
-2733
-897
2052
5656
9127
11129
10552
7727
3471
-909
-4199
-6034
-6373
-5617
-4323
-3234
-2931
-3160
-3433
-3153
-1876
129
2386
4299
5358
5536
4941
3756
2108
-164
-3172
-6523
-9692
-12124
-13379
-13500
-12656
-11026
-8783
-6047
-2885
792
5040
9619
14143
17930
20247
20479
18232
13898
8097
1582
-4946
-11126
-16630
-20915
-23397
-23540
-20986
-16050
-9310
-1723
5642
11641
15333
16669
15924
13795
10934
7399
3123
-1873
-7374
-12470
-16172
-17856
-17159
-14389
-10073
-4929
338
5282
9487
12410
13583
12966
10791
7957
5436
3840
3538
4302
5696
7041
7684
7288
5727
3394
741
-2051
-4806
-7087
-8430
-8503
-7175
-4997
-2602
-287
1760
3452
4731
5558
5954
6162
6428
6774
7096
7009
6135
4395
1913
-695
-2841
-4573
-6089
-7561
-9024
-9976
-9913
-8855
-7015
-4860
-2866
-1293
-276
352
813
1249
1761
2351
2957
3357
3347
2959
2290
1448
559
-209
-717
-991
-1113
-1238
-1470
-1660
-1635
-1390
-989
-586
-356
-456
-972
-1729
-2487
-3002
-3069
-2636
-1739
-618
459
1293
1778
2083
2354
2354
1822
802
-529
-1750
-2415
-2210
-992
846
2723
3860
3624
2158
-174
-2902
-5539
-7660
-8913
-9188
-8495
-7087
-5262
-3266
-1281
705
2743
4830
6879
8510
9386
9626
9481
9278
9275
9370
9342
8860
7637
5680
3068
-123
-3764
-7517
-10959
-13533
-14729
-14366
-12383
-8883
-4113
1254
6407
10421
12548
12884
11780
9773
7364
4707
1884
-975
-3680
-5854
-7169
-7663
-7521
-7146
-6878
-6593
-6088
-5308
-4292
-3290
-2572
-2276
-2405
-2561
-2282
-1247
687
3103
5429
7056
7523
7007
5841
4347
2814
1429
330
-430
-837
-968
-921
-803
-730
-859
-1297
-1914
-2554
-3170
-3705
-3958
-3701
-2774
-1109
1042
3342
5439
7012
7890
8005
7536
6683
5482
3918
1937
-458
-3004
-5317
-6807
-6942
-5627
-3048
-62
2445
4167
5041
5393
5560
5508
5119
4316
3059
1422
-491
-2561
-4610
-6228
-7030
-6965
-6167
-5163
-4492
-4337
-4689
-5140
-5219
-4613
-3185
-1350
375
1603
2110
2189
2176
2055
1694
840
-656
-2405
-3896
-4676
-4448
-3487
-2213
-1060
-378
-171
-300
-392
-91
654
1743
2774
3347
3355
2840
2131
1569
1230
1115
1156
1281
1458
1638
1644
1340
863
441
380
914
1909
3111
4136
4699
5029
5412
